;FLAVOR:Marlin
;TIME:349
;Filament used: 0.0918434m
;Layer height: 0.2
;MINX:88.46
;MINY:88.46
;MINZ:0.28
;MAXX:131.54
;MAXY:131.54
;MAXZ:1.48
;TARGET_MACHINE.NAME:Artillery Genius
;Generated with Cura_SteamEngine 5.7.1
M140 S60
M105
M190 S60
M104 S25
M105
M109 S25
M82 ;absolute extrusion mode
G28 ; home all axes
 M117 Purge extruder
 G92 E0 ; reset extruder
 G1 Z1.0 F3000 ; move z up little to prevent scratching of surface
 G1 X2 Y20 Z0.3 F5000.0 ; move to start-line position
 G1 X2 Y200.0 Z0.3 F1500.0 E15 ; draw 1st line
 G1 X2 Y200.0 Z0.4 F5000.0 ; move to side a little
 G1 X2 Y20 Z0.4 F1500.0 E30 ; draw 2nd line
 G92 E0 ; reset extruder
 G1 Z1.0 F3000 ; move z up little to prevent scratching of surface
G92 E0
;LAYER_COUNT:7
;LAYER:0
M107
G0 F6000 X92.066 Y91.639 Z0.28
;TYPE:SKIRT
G1 F1200 X92.866 Y90.946 E0.05421
G1 X93.597 Y90.415 E0.10049
G1 X94.574 Y89.83 E0.15882
G1 X95.387 Y89.436 E0.20509
G1 X96.452 Y89.031 E0.26345
G1 X97.398 Y88.768 E0.31375
G1 X98.368 Y88.587 E0.36429
G1 X99.696 Y88.473 E0.43256
G1 X100.303 Y88.46 E0.46366
G1 X119.311 Y88.46 E1.43726
G1 X120.217 Y88.474 E1.48367
G1 X121.234 Y88.539 E1.53587
G1 X122.206 Y88.685 E1.58621
G1 X123.236 Y88.936 E1.64051
G1 X124.166 Y89.252 E1.69082
G1 X125.134 Y89.681 E1.74506
G1 X126.025 Y90.174 E1.79721
G1 X126.809 Y90.699 E1.84554
G1 X127.664 Y91.392 E1.90192
G1 X128.394 Y92.101 E1.95404
G1 X129.011 Y92.813 E2.0023
G1 X129.656 Y93.704 E2.05864
G1 X130.12 Y94.48 E2.10495
G1 X130.614 Y95.506 E2.16327
G1 X130.971 Y96.462 E2.21554
G1 X131.243 Y97.445 E2.26779
G1 X131.409 Y98.333 E2.31406
G1 X131.527 Y99.696 E2.38413
G1 X131.54 Y100.33 E2.41661
G1 X131.539 Y119.033 E3.37459
G1 X131.526 Y119.822 E3.41501
G1 X131.462 Y120.84 E3.46726
G1 X131.316 Y121.813 E3.51765
G1 X131.065 Y122.842 E3.5719
G1 X130.736 Y123.808 E3.62417
G1 X130.34 Y124.705 E3.6744
G1 X129.87 Y125.566 E3.72464
G1 X129.259 Y126.478 E3.78087
G1 X128.692 Y127.183 E3.82721
G1 X128.171 Y127.743 E3.86639
G1 X127.72 Y128.193 E3.89902
G1 X126.964 Y128.878 E3.95127
G1 X126.151 Y129.492 E4.00346
G1 X125.387 Y129.975 E4.04975
G1 X124.376 Y130.495 E4.10799
G1 X123.428 Y130.878 E4.16036
G1 X122.564 Y131.144 E4.20666
G1 X121.455 Y131.38 E4.26474
G1 X120.558 Y131.49 E4.31102
G1 X119.947 Y131.525 E4.34237
G1 X119.278 Y131.54 E4.37665
G1 X100.556 Y131.539 E5.3356
G1 X99.8 Y131.527 E5.37433
G1 X98.781 Y131.464 E5.42662
G1 X97.772 Y131.311 E5.47889
G1 X96.779 Y131.069 E5.53124
G1 X95.886 Y130.768 E5.57951
G1 X94.917 Y130.345 E5.63367
G1 X93.987 Y129.833 E5.68804
G1 X93.141 Y129.263 E5.7403
G1 X92.348 Y128.619 E5.79262
G1 X91.615 Y127.909 E5.84489
G1 X90.95 Y127.139 E5.897
G1 X90.418 Y126.408 E5.94331
G1 X89.833 Y125.432 E6.00159
G1 X89.438 Y124.619 E6.04789
G1 X89.033 Y123.555 E6.1062
G1 X88.779 Y122.647 E6.1545
G1 X88.583 Y121.594 E6.20936
G1 X88.473 Y120.294 E6.27618
G1 X88.46 Y119.658 E6.30877
G1 X88.461 Y100.517 E7.28918
G1 X88.473 Y99.793 E7.32627
G1 X88.537 Y98.774 E7.37857
G1 X88.69 Y97.765 E7.43084
G1 X88.933 Y96.774 E7.4831
G1 X89.262 Y95.806 E7.53547
G1 X89.675 Y94.874 E7.58768
G1 X90.149 Y94.015 E7.63794
G1 X90.717 Y93.166 E7.69026
G1 X91.384 Y92.344 E7.74448
G1 X92.066 Y91.639 E7.79472
G0 F6000 X92.355 Y91.971
G1 F1200 X93.125 Y91.302 E7.84697
G1 X93.856 Y90.771 E7.89324
G1 X94.766 Y90.226 E7.94758
G1 X95.579 Y89.832 E7.99385
G1 X96.571 Y89.455 E8.04821
G1 X97.479 Y89.201 E8.0965
G1 X98.449 Y89.02 E8.14704
G1 X99.705 Y88.913 E8.21161
G1 X100.312 Y88.9 E8.24271
G1 X119.305 Y88.9 E9.21554
G1 X120.19 Y88.913 E9.26087
G1 X121.169 Y88.974 E9.31112
G1 X122.141 Y89.12 E9.36146
G1 X123.094 Y89.353 E9.41171
G1 X124.024 Y89.669 E9.46202
G1 X124.921 Y90.066 E9.51227
G1 X125.78 Y90.54 E9.56252
G1 X126.564 Y91.065 E9.61085
G1 X127.358 Y91.708 E9.66318
G1 X128.062 Y92.39 E9.71339
G1 X128.655 Y93.072 E9.75968
G1 X129.278 Y93.93 E9.81399
G1 X129.742 Y94.706 E9.8603
G1 X130.202 Y95.661 E9.91459
G1 X130.547 Y96.58 E9.96487
G1 X130.81 Y97.526 E10.01516
G1 X130.976 Y98.414 E10.06144
G1 X131.087 Y99.705 E10.12781
G1 X131.1 Y100.33 E10.15983
G1 X131.099 Y119.026 E11.11745
G1 X131.087 Y119.795 E11.15684
G1 X131.027 Y120.775 E11.20713
G1 X130.881 Y121.748 E11.25752
G1 X130.648 Y122.701 E11.30778
G1 X130.333 Y123.63 E11.35802
G1 X129.937 Y124.527 E11.40824
G1 X129.484 Y125.355 E11.45659
G1 X128.916 Y126.202 E11.50882
G1 X128.349 Y126.907 E11.55516
G1 X127.86 Y127.432 E11.59191
G1 X127.424 Y127.867 E11.62346
G1 X126.698 Y128.527 E11.67371
G1 X125.916 Y129.12 E11.72398
G1 X125.152 Y129.603 E11.77028
G1 X124.21 Y130.087 E11.82452
G1 X123.299 Y130.457 E11.87489
G1 X122.435 Y130.723 E11.92119
G1 X121.401 Y130.943 E11.97534
G1 X120.504 Y131.053 E12.02163
G1 X119.937 Y131.085 E12.05072
G1 X119.278 Y131.1 E12.08448
G1 X100.563 Y131.099 E13.04307
G1 X99.826 Y131.088 E13.08083
G1 X98.846 Y131.029 E13.13112
G1 X97.875 Y130.883 E13.18141
G1 X96.92 Y130.652 E13.23174
G1 X96.027 Y130.351 E13.28
G1 X95.093 Y129.942 E13.33223
G1 X94.232 Y129.468 E13.38257
G1 X93.418 Y128.921 E13.43281
G1 X92.654 Y128.303 E13.48314
G1 X91.948 Y127.621 E13.53342
G1 X91.306 Y126.88 E13.58363
G1 X90.774 Y126.149 E13.62994
G1 X90.229 Y125.24 E13.68423
G1 X89.834 Y124.427 E13.73053
G1 X89.457 Y123.436 E13.78484
G1 X89.212 Y122.566 E13.83113
G1 X89.016 Y121.513 E13.88599
G1 X88.913 Y120.285 E13.94911
G1 X88.9 Y119.658 E13.98123
G1 X88.901 Y100.524 E14.96129
G1 X88.912 Y99.82 E14.99735
G1 X88.972 Y98.839 E15.04769
G1 X89.118 Y97.869 E15.09794
G1 X89.35 Y96.915 E15.14823
G1 X89.665 Y95.984 E15.19857
G1 X90.061 Y95.086 E15.24884
G1 X90.515 Y94.26 E15.29712
G1 X91.083 Y93.411 E15.34944
G1 X91.701 Y92.649 E15.39969
G1 X92.355 Y91.971 E15.44794
G0 F6000 X92.672 Y92.276
G1 F1200 X93.384 Y91.658 E15.49623
G1 X94.115 Y91.127 E15.54251
G1 X94.958 Y90.622 E15.59284
G1 X95.771 Y90.228 E15.63912
G1 X96.69 Y89.879 E15.68947
G1 X97.56 Y89.634 E15.73577
G1 X98.53 Y89.453 E15.78631
G1 X99.714 Y89.353 E15.84717
G1 X100.321 Y89.34 E15.87827
G1 X119.299 Y89.34 E16.85033
G1 X120.163 Y89.352 E16.89459
G1 X121.104 Y89.409 E16.94288
G1 X122.037 Y89.548 E16.99119
G1 X122.953 Y89.77 E17.03947
G1 X123.847 Y90.072 E17.0878
G1 X124.709 Y90.452 E17.13605
G1 X125.535 Y90.906 E17.18433
G1 X126.319 Y91.431 E17.23266
G1 X127.052 Y92.024 E17.28095
G1 X127.73 Y92.679 E17.32924
G1 X128.323 Y93.361 E17.37553
G1 X128.9 Y94.156 E17.42585
G1 X129.364 Y94.932 E17.47216
G1 X129.79 Y95.816 E17.52242
G1 X130.123 Y96.698 E17.57071
G1 X130.377 Y97.607 E17.61905
G1 X130.543 Y98.495 E17.66532
G1 X130.647 Y99.714 E17.72799
G1 X130.66 Y100.33 E17.75955
G1 X130.659 Y119.02 E18.71686
G1 X130.648 Y119.769 E18.75523
G1 X130.592 Y120.71 E18.80351
G1 X130.453 Y121.644 E18.85188
G1 X130.231 Y122.56 E18.90016
G1 X129.93 Y123.453 E18.94842
G1 X129.551 Y124.316 E18.9967
G1 X129.098 Y125.144 E19.04505
G1 X128.573 Y125.926 E19.09329
G1 X128.006 Y126.631 E19.13963
G1 X127.538 Y127.132 E19.17475
G1 X127.128 Y127.542 E19.20444
G1 X126.431 Y128.177 E19.25274
G1 X125.681 Y128.748 E19.30102
G1 X124.917 Y129.231 E19.34732
G1 X124.044 Y129.68 E19.3976
G1 X123.17 Y130.036 E19.44594
G1 X122.306 Y130.302 E19.49224
G1 X121.347 Y130.506 E19.54246
G1 X120.45 Y130.616 E19.58875
G1 X119.927 Y130.645 E19.61558
G1 X119.278 Y130.66 E19.64883
G1 X100.569 Y130.659 E20.60712
G1 X99.852 Y130.649 E20.64385
G1 X98.911 Y130.594 E20.69213
G1 X97.978 Y130.455 E20.74045
G1 X97.061 Y130.235 E20.78875
G1 X96.168 Y129.934 E20.83702
G1 X95.304 Y129.556 E20.88532
G1 X94.477 Y129.103 E20.93362
G1 X93.694 Y128.578 E20.98191
G1 X92.959 Y127.986 E21.03025
G1 X92.28 Y127.332 E21.07853
G1 X91.662 Y126.621 E21.12678
G1 X91.13 Y125.89 E21.17309
G1 X90.625 Y125.048 E21.22338
G1 X90.23 Y124.235 E21.26968
G1 X89.881 Y123.317 E21.31998
G1 X89.636 Y122.447 E21.36628
G1 X89.454 Y121.476 E21.41688
G1 X89.353 Y120.276 E21.47856
G1 X89.34 Y119.658 E21.51022
G1 X89.341 Y100.53 E22.48997
G1 X89.351 Y99.846 E22.52501
G1 X89.407 Y98.904 E22.57335
G1 X89.546 Y97.972 E22.62161
G1 X89.767 Y97.055 E22.66993
G1 X90.068 Y96.161 E22.71824
G1 X90.447 Y95.298 E22.76652
G1 X90.901 Y94.472 E22.8148
G1 X91.425 Y93.688 E22.8631
G1 X92.018 Y92.954 E22.91143
G1 X92.672 Y92.276 E22.95968
G0 F6000 X92.961 Y92.608
G1 F1200 X93.643 Y92.014 E23.00601
G1 X94.374 Y91.483 E23.05228
G1 X95.15 Y91.018 E23.09862
G1 X95.963 Y90.624 E23.1449
G1 X96.809 Y90.303 E23.19124
G1 X97.679 Y90.058 E23.23754
G1 X98.567 Y89.891 E23.28382
G1 X99.723 Y89.793 E23.34324
G1 X100.33 Y89.78 E23.37434
G1 X119.293 Y89.78 E24.34564
G1 X120.137 Y89.791 E24.38887
G1 X121.04 Y89.844 E24.4352
G1 X121.934 Y89.976 E24.48149
G1 X122.813 Y90.187 E24.52779
G1 X123.67 Y90.475 E24.5741
G1 X124.498 Y90.838 E24.62041
G1 X125.291 Y91.272 E24.66671
G1 X126.043 Y91.774 E24.71302
G1 X126.747 Y92.341 E24.75932
G1 X127.398 Y92.968 E24.80562
G1 X127.991 Y93.65 E24.85191
G1 X128.522 Y94.382 E24.89823
G1 X128.986 Y95.158 E24.94454
G1 X129.379 Y95.972 E24.99084
G1 X129.699 Y96.817 E25.03712
G1 X129.944 Y97.688 E25.08346
G1 X130.11 Y98.576 E25.12974
G1 X130.207 Y99.723 E25.1887
G1 X130.22 Y100.33 E25.21979
G1 X130.219 Y119.014 E26.1768
G1 X130.209 Y119.744 E26.21419
G1 X130.157 Y120.646 E26.26047
G1 X130.025 Y121.541 E26.30681
G1 X129.814 Y122.42 E26.35311
G1 X129.527 Y123.277 E26.3994
G1 X129.165 Y124.105 E26.44569
G1 X128.732 Y124.899 E26.49201
G1 X128.23 Y125.65 E26.53828
G1 X127.663 Y126.355 E26.58462
G1 X127.217 Y126.831 E26.61803
G1 X126.831 Y127.217 E26.646
G1 X126.164 Y127.827 E26.69229
G1 X125.446 Y128.376 E26.73859
G1 X124.682 Y128.859 E26.78488
G1 X123.878 Y129.273 E26.8312
G1 X123.041 Y129.615 E26.87752
G1 X122.177 Y129.881 E26.92382
G1 X121.293 Y130.069 E26.97011
G1 X120.396 Y130.179 E27.0164
G1 X119.917 Y130.205 E27.04097
G1 X119.278 Y130.22 E27.07371
G1 X100.575 Y130.219 E28.03169
G1 X99.877 Y130.21 E28.06745
G1 X98.975 Y130.159 E28.11372
G1 X98.08 Y130.027 E28.16006
G1 X97.201 Y129.818 E28.20634
G1 X96.344 Y129.531 E28.25263
G1 X95.515 Y129.17 E28.29894
G1 X94.721 Y128.737 E28.34527
G1 X93.969 Y128.235 E28.39158
G1 X93.264 Y127.669 E28.43789
G1 X92.612 Y127.043 E28.48418
G1 X92.018 Y126.362 E28.53047
G1 X91.486 Y125.631 E28.57678
G1 X91.021 Y124.856 E28.62307
G1 X90.626 Y124.043 E28.66937
G1 X90.305 Y123.198 E28.71567
G1 X90.06 Y122.328 E28.76196
G1 X89.892 Y121.439 E28.8083
G1 X89.793 Y120.267 E28.86855
G1 X89.78 Y119.658 E28.89975
G1 X89.781 Y100.536 E29.87919
G1 X89.79 Y99.871 E29.91325
G1 X89.842 Y98.968 E29.95958
G1 X89.974 Y98.074 E30.00587
G1 X90.184 Y97.195 E30.05216
G1 X90.471 Y96.337 E30.0985
G1 X90.833 Y95.509 E30.14479
G1 X91.267 Y94.716 E30.19109
G1 X91.768 Y93.964 E30.23737
G1 X92.335 Y93.259 E30.28371
G1 X92.961 Y92.608 E30.32997
;MESH:scaffold_rectangular.stl
G0 F6000 X119.412 Y99.335
G0 X119.412 Y100.196
;TYPE:WALL-OUTER
G1 F336.7 X100.196 Y100.196 E31.20686
G0 F6000 X100.196 Y101.057
G0 X119.412 Y101.296
G0 X119.412 Y102.156
G1 F336.7 X100.196 Y102.156 E32.08374
G0 F6000 X100.196 Y103.018
G0 X119.412 Y103.257
G0 X119.412 Y104.116
G1 F336.7 X100.196 Y104.116 E32.96062
G0 F6000 X100.196 Y104.979
G0 X119.412 Y105.217
G0 X119.412 Y106.076
G1 F336.7 X100.196 Y106.076 E33.8375
G0 F6000 X100.196 Y106.94
G0 X119.412 Y107.178
G0 X119.412 Y108.036
G1 F336.7 X100.196 Y108.036 E34.71438
G0 F6000 X100.196 Y108.9
G0 X119.412 Y109.139
G0 X119.412 Y110
G1 F336.7 X100.196 Y110 E35.59126
G0 F6000 X100.196 Y110.861
G0 X119.412 Y111.1
G0 X119.412 Y111.96
G1 F336.7 X100.196 Y111.96 E36.46815
G0 F6000 X100.196 Y112.822
G0 X119.412 Y113.06
G0 X119.412 Y113.92
G1 F336.7 X100.196 Y113.92 E37.34503
G0 F6000 X100.196 Y114.783
G0 X119.412 Y115.021
G0 X119.412 Y115.88
G1 F336.7 X100.196 Y115.88 E38.22191
G0 F6000 X100.196 Y116.743
G0 X119.412 Y116.982
G0 X119.412 Y117.84
G1 F336.7 X100.196 Y117.84 E39.09879
G0 F6000 X100.196 Y118.704
G0 X119.412 Y118.943
G0 X119.412 Y119.804
G1 F336.7 X100.196 Y119.804 E39.97567
;MESH:NONMESH
G0 F300 X100.196 Y119.804 Z0.48
G0 F6000 X100.196 Y118.943
G0 X99.347 Y118.692
G0 X92.961 Y92.608
;TIME_ELAPSED:75.125166
;LAYER:1
M106 S85
;TYPE:SKIRT
G1 F1200 X93.643 Y92.014 E40.00876
G1 X94.374 Y91.483 E40.04182
G1 X95.15 Y91.018 E40.07492
G1 X95.963 Y90.624 E40.10797
G1 X96.809 Y90.303 E40.14108
G1 X97.679 Y90.058 E40.17414
G1 X98.567 Y89.891 E40.2072
G1 X99.723 Y89.793 E40.24965
G1 X100.33 Y89.78 E40.27186
G1 X119.293 Y89.78 E40.96564
G1 X120.137 Y89.791 E40.99652
G1 X121.04 Y89.844 E41.02962
G1 X121.934 Y89.976 E41.06268
G1 X122.813 Y90.187 E41.09575
G1 X123.67 Y90.475 E41.12883
G1 X124.498 Y90.838 E41.16191
G1 X125.291 Y91.272 E41.19498
G1 X126.043 Y91.774 E41.22806
G1 X126.747 Y92.341 E41.26113
G1 X127.398 Y92.968 E41.2942
G1 X127.991 Y93.65 E41.32727
G1 X128.522 Y94.382 E41.36035
G1 X128.986 Y95.158 E41.39343
G1 X129.379 Y95.972 E41.4265
G1 X129.699 Y96.817 E41.45956
G1 X129.944 Y97.688 E41.49266
G1 X130.11 Y98.576 E41.52571
G1 X130.207 Y99.723 E41.56783
G1 X130.22 Y100.33 E41.59004
G1 X130.219 Y119.014 E42.27362
G1 X130.209 Y119.744 E42.30033
G1 X130.157 Y120.646 E42.33338
G1 X130.025 Y121.541 E42.36648
G1 X129.814 Y122.42 E42.39955
G1 X129.527 Y123.277 E42.43262
G1 X129.165 Y124.105 E42.46568
G1 X128.732 Y124.899 E42.49877
G1 X128.23 Y125.65 E42.53182
G1 X127.663 Y126.355 E42.56492
G1 X127.217 Y126.831 E42.58878
G1 X126.831 Y127.217 E42.60876
G1 X126.164 Y127.827 E42.64182
G1 X125.446 Y128.376 E42.67489
G1 X124.682 Y128.859 E42.70796
G1 X123.878 Y129.273 E42.74105
G1 X123.041 Y129.615 E42.77413
G1 X122.177 Y129.881 E42.8072
G1 X121.293 Y130.069 E42.84027
G1 X120.396 Y130.179 E42.87333
G1 X119.917 Y130.205 E42.89088
G1 X119.278 Y130.22 E42.91427
G1 X100.575 Y130.219 E43.59854
G1 X99.877 Y130.21 E43.62408
G1 X98.975 Y130.159 E43.65713
G1 X98.08 Y130.027 E43.69023
G1 X97.201 Y129.818 E43.72329
G1 X96.344 Y129.531 E43.75635
G1 X95.515 Y129.17 E43.78943
G1 X94.721 Y128.737 E43.82252
G1 X93.969 Y128.235 E43.8556
G1 X93.264 Y127.669 E43.88868
G1 X92.612 Y127.043 E43.92175
G1 X92.018 Y126.362 E43.95481
G1 X91.486 Y125.631 E43.98788
G1 X91.021 Y124.856 E44.02095
G1 X90.626 Y124.043 E44.05402
G1 X90.305 Y123.198 E44.08709
G1 X90.06 Y122.328 E44.12016
G1 X89.892 Y121.439 E44.15326
G1 X89.793 Y120.267 E44.19629
G1 X89.78 Y119.658 E44.21858
G1 X89.781 Y100.536 E44.91818
G1 X89.79 Y99.871 E44.94251
G1 X89.842 Y98.968 E44.9756
G1 X89.974 Y98.074 E45.00867
G1 X90.184 Y97.195 E45.04173
G1 X90.471 Y96.337 E45.07483
G1 X90.833 Y95.509 E45.10789
G1 X91.267 Y94.716 E45.14097
G1 X91.768 Y93.964 E45.17403
G1 X92.335 Y93.259 E45.20713
G1 X92.961 Y92.608 E45.24017
;MESH:scaffold_rectangular.stl
G0 F7500 X119.412 Y99.335
G0 X119.412 Y100.196
;TYPE:WALL-OUTER
G1 F336.7 X100.196 Y100.196 E45.86651
G0 F7500 X100.196 Y101.057
G0 X119.412 Y101.296
G0 X119.412 Y102.156
G1 F336.7 X100.196 Y102.156 E46.49286
G0 F7500 X100.196 Y103.018
G0 X119.412 Y103.257
G0 X119.412 Y104.116
G1 F336.7 X100.196 Y104.116 E47.1192
G0 F7500 X100.196 Y104.979
G0 X119.412 Y105.217
G0 X119.412 Y106.076
G1 F336.7 X100.196 Y106.076 E47.74554
G0 F7500 X100.196 Y106.94
G0 X119.412 Y107.178
G0 X119.412 Y108.036
G1 F336.7 X100.196 Y108.036 E48.37189
G0 F7500 X100.196 Y108.9
G0 X119.412 Y109.139
G0 X119.412 Y110
G1 F336.7 X100.196 Y110 E48.99823
G0 F7500 X100.196 Y110.861
G0 X119.412 Y111.1
G0 X119.412 Y111.96
G1 F336.7 X100.196 Y111.96 E49.62458
G0 F7500 X100.196 Y112.822
G0 X119.412 Y113.06
G0 X119.412 Y113.92
G1 F336.7 X100.196 Y113.92 E50.25092
G0 F7500 X100.196 Y114.783
G0 X119.412 Y115.021
G0 X119.412 Y115.88
G1 F336.7 X100.196 Y115.88 E50.87727
G0 F7500 X100.196 Y116.743
G0 X119.412 Y116.982
G0 X119.412 Y117.84
G1 F336.7 X100.196 Y117.84 E51.50361
G0 F7500 X100.196 Y118.704
G0 X119.412 Y118.943
G0 X119.412 Y119.804
G1 F336.7 X100.196 Y119.804 E52.12995
;MESH:NONMESH
G0 F300 X100.196 Y119.804 Z0.68
G0 F7500 X100.196 Y118.943
G0 X99.347 Y118.692
G0 X92.961 Y92.608
;TIME_ELAPSED:126.140686
;LAYER:2
M106 S170
;TYPE:SKIRT
G1 F1200 X93.643 Y92.014 E52.16304
G1 X94.374 Y91.483 E52.1961
G1 X95.15 Y91.018 E52.2292
G1 X95.963 Y90.624 E52.26225
G1 X96.809 Y90.303 E52.29536
G1 X97.679 Y90.058 E52.32842
G1 X98.567 Y89.891 E52.36148
G1 X99.723 Y89.793 E52.40393
G1 X100.33 Y89.78 E52.42614
G1 X119.293 Y89.78 E53.11992
G1 X120.137 Y89.791 E53.1508
G1 X121.04 Y89.844 E53.1839
G1 X121.934 Y89.976 E53.21696
G1 X122.813 Y90.187 E53.25003
G1 X123.67 Y90.475 E53.28311
G1 X124.498 Y90.838 E53.31619
G1 X125.291 Y91.272 E53.34926
G1 X126.043 Y91.774 E53.38234
G1 X126.747 Y92.341 E53.41541
G1 X127.398 Y92.968 E53.44848
G1 X127.991 Y93.65 E53.48155
G1 X128.522 Y94.382 E53.51463
G1 X128.986 Y95.158 E53.54771
G1 X129.379 Y95.972 E53.58078
G1 X129.699 Y96.817 E53.61384
G1 X129.944 Y97.688 E53.64694
G1 X130.11 Y98.576 E53.67999
G1 X130.207 Y99.723 E53.72211
G1 X130.22 Y100.33 E53.74432
G1 X130.219 Y119.014 E54.4279
G1 X130.209 Y119.744 E54.45461
G1 X130.157 Y120.646 E54.48766
G1 X130.025 Y121.541 E54.52076
G1 X129.814 Y122.42 E54.55383
G1 X129.527 Y123.277 E54.5869
G1 X129.165 Y124.105 E54.61996
G1 X128.732 Y124.899 E54.65305
G1 X128.23 Y125.65 E54.6861
G1 X127.663 Y126.355 E54.7192
G1 X127.217 Y126.831 E54.74306
G1 X126.831 Y127.217 E54.76304
G1 X126.164 Y127.827 E54.7961
G1 X125.446 Y128.376 E54.82917
G1 X124.682 Y128.859 E54.86224
G1 X123.878 Y129.273 E54.89533
G1 X123.041 Y129.615 E54.92841
G1 X122.177 Y129.881 E54.96148
G1 X121.293 Y130.069 E54.99455
G1 X120.396 Y130.179 E55.02761
G1 X119.917 Y130.205 E55.04516
G1 X119.278 Y130.22 E55.06855
G1 X100.575 Y130.219 E55.75282
G1 X99.877 Y130.21 E55.77836
G1 X98.975 Y130.159 E55.81141
G1 X98.08 Y130.027 E55.84451
G1 X97.201 Y129.818 E55.87757
G1 X96.344 Y129.531 E55.91063
G1 X95.515 Y129.17 E55.94371
G1 X94.721 Y128.737 E55.9768
G1 X93.969 Y128.235 E56.00988
G1 X93.264 Y127.669 E56.04296
G1 X92.612 Y127.043 E56.07603
G1 X92.018 Y126.362 E56.10909
G1 X91.486 Y125.631 E56.14217
G1 X91.021 Y124.856 E56.17523
G1 X90.626 Y124.043 E56.2083
G1 X90.305 Y123.198 E56.24137
G1 X90.06 Y122.328 E56.27444
G1 X89.892 Y121.439 E56.30754
G1 X89.793 Y120.267 E56.35057
G1 X89.78 Y119.658 E56.37286
G1 X89.781 Y100.536 E57.07246
G1 X89.79 Y99.871 E57.09679
G1 X89.842 Y98.968 E57.12988
G1 X89.974 Y98.074 E57.16295
G1 X90.184 Y97.195 E57.19601
G1 X90.471 Y96.337 E57.22911
G1 X90.833 Y95.509 E57.26217
G1 X91.267 Y94.716 E57.29525
G1 X91.768 Y93.964 E57.32831
G1 X92.335 Y93.259 E57.36141
G1 X92.961 Y92.608 E57.39445
;MESH:scaffold_rectangular.stl
G0 F9000 X99.335 Y119.412
G0 X100.196 Y119.412
;TYPE:WALL-OUTER
G1 F336.7 X100.196 Y100.196 E58.02079
G0 F9000 X101.057 Y100.196
G0 X101.296 Y119.412
G0 X102.156 Y119.412
G1 F336.7 X102.156 Y100.196 E58.64714
G0 F9000 X103.018 Y100.196
G0 X103.257 Y119.412
G0 X104.116 Y119.412
G1 F336.7 X104.116 Y100.196 E59.27348
G0 F9000 X104.979 Y100.196
G0 X105.217 Y119.412
G0 X106.076 Y119.412
G1 F336.7 X106.076 Y100.196 E59.89982
G0 F9000 X106.94 Y100.196
G0 X107.178 Y119.412
G0 X108.036 Y119.412
G1 F336.7 X108.036 Y100.196 E60.52617
G0 F9000 X108.9 Y100.196
G0 X109.139 Y119.412
G0 X110 Y119.412
G1 F336.7 X110 Y100.196 E61.15251
G0 F9000 X110.861 Y100.196
G0 X111.1 Y119.412
G0 X111.96 Y119.412
G1 F336.7 X111.96 Y100.196 E61.77886
G0 F9000 X112.822 Y100.196
G0 X113.06 Y119.412
G0 X113.92 Y119.412
G1 F336.7 X113.92 Y100.196 E62.4052
G0 F9000 X114.783 Y100.196
G0 X115.021 Y119.412
G0 X115.88 Y119.412
G1 F336.7 X115.88 Y100.196 E63.03155
G0 F9000 X116.743 Y100.196
G0 X116.982 Y119.412
G0 X117.84 Y119.412
G1 F336.7 X117.84 Y100.196 E63.65789
G0 F9000 X118.704 Y100.196
G0 X118.943 Y119.412
G0 X119.804 Y119.412
G1 F336.7 X119.804 Y100.196 E64.28423
;MESH:NONMESH
G0 F300 X119.804 Y100.196 Z0.88
G0 F9000 X118.943 Y100.196
G0 X118.692 Y99.347
G0 X109.151 Y99.347
G0 X108.888 Y120.261
G0 X101.308 Y120.261
G0 X101.057 Y119.412
G0 X100.196 Y119.412
;TIME_ELAPSED:177.696255
;LAYER:3
M106 S255
;TYPE:WALL-OUTER
;MESH:scaffold_rectangular.stl
G1 F336.7 X100.196 Y100.196 E64.91058
G0 F9000 X101.057 Y100.196
G0 X101.296 Y119.412
G0 X102.156 Y119.412
G1 F336.7 X102.156 Y100.196 E65.53692
G0 F9000 X103.018 Y100.196
G0 X103.257 Y119.412
G0 X104.116 Y119.412
G1 F336.7 X104.116 Y100.196 E66.16327
G0 F9000 X104.979 Y100.196
G0 X105.217 Y119.412
G0 X106.076 Y119.412
G1 F336.7 X106.076 Y100.196 E66.78961
G0 F9000 X106.94 Y100.196
G0 X107.178 Y119.412
G0 X108.036 Y119.412
G1 F336.7 X108.036 Y100.196 E67.41596
G0 F9000 X108.9 Y100.196
G0 X109.139 Y119.412
G0 X110 Y119.412
G1 F336.7 X110 Y100.196 E68.0423
G0 F9000 X110.861 Y100.196
G0 X111.1 Y119.412
G0 X111.96 Y119.412
G1 F336.7 X111.96 Y100.196 E68.66864
G0 F9000 X112.822 Y100.196
G0 X113.06 Y119.412
G0 X113.92 Y119.412
G1 F336.7 X113.92 Y100.196 E69.29499
G0 F9000 X114.783 Y100.196
G0 X115.021 Y119.412
G0 X115.88 Y119.412
G1 F336.7 X115.88 Y100.196 E69.92133
G0 F9000 X116.743 Y100.196
G0 X116.982 Y119.412
G0 X117.84 Y119.412
G1 F336.7 X117.84 Y100.196 E70.54768
G0 F9000 X118.704 Y100.196
G0 X118.943 Y119.412
G0 X119.804 Y119.412
G1 F336.7 X119.804 Y100.196 E71.17402
;MESH:NONMESH
G0 F300 X119.804 Y100.196 Z1.08
G0 F9000 X119.412 Y100.196
;TIME_ELAPSED:220.487322
;LAYER:4
;TYPE:WALL-OUTER
;MESH:scaffold_rectangular.stl
G1 F336.7 X100.196 Y100.196 E71.80037
G0 F9000 X100.196 Y101.057
G0 X119.412 Y101.296
G0 X119.412 Y102.156
G1 F336.7 X100.196 Y102.156 E72.42671
G0 F9000 X100.196 Y103.018
G0 X119.412 Y103.257
G0 X119.412 Y104.116
G1 F336.7 X100.196 Y104.116 E73.05305
G0 F9000 X100.196 Y104.979
G0 X119.412 Y105.217
G0 X119.412 Y106.076
G1 F336.7 X100.196 Y106.076 E73.6794
G0 F9000 X100.196 Y106.94
G0 X119.412 Y107.178
G0 X119.412 Y108.036
G1 F336.7 X100.196 Y108.036 E74.30574
G0 F9000 X100.196 Y108.9
G0 X119.412 Y109.139
G0 X119.412 Y110
G1 F336.7 X100.196 Y110 E74.93209
G0 F9000 X100.196 Y110.861
G0 X119.412 Y111.1
G0 X119.412 Y111.96
G1 F336.7 X100.196 Y111.96 E75.55843
G0 F9000 X100.196 Y112.822
G0 X119.412 Y113.06
G0 X119.412 Y113.92
G1 F336.7 X100.196 Y113.92 E76.18477
G0 F9000 X100.196 Y114.783
G0 X119.412 Y115.021
G0 X119.412 Y115.88
G1 F336.7 X100.196 Y115.88 E76.81112
G0 F9000 X100.196 Y116.743
G0 X119.412 Y116.982
G0 X119.412 Y117.84
G1 F336.7 X100.196 Y117.84 E77.43746
G0 F9000 X100.196 Y118.704
G0 X119.412 Y118.943
G0 X119.412 Y119.804
G1 F336.7 X100.196 Y119.804 E78.06381
;MESH:NONMESH
G0 F300 X100.196 Y119.804 Z1.28
G0 F9000 X100.196 Y119.412
;TIME_ELAPSED:263.278389
;LAYER:5
;TYPE:WALL-OUTER
;MESH:scaffold_rectangular.stl
G1 F336.7 X100.196 Y100.196 E78.69015
G0 F9000 X101.057 Y100.196
G0 X101.296 Y119.412
G0 X102.156 Y119.412
G1 F336.7 X102.156 Y100.196 E79.3165
G0 F9000 X103.018 Y100.196
G0 X103.257 Y119.412
G0 X104.116 Y119.412
G1 F336.7 X104.116 Y100.196 E79.94284
G0 F9000 X104.979 Y100.196
G0 X105.217 Y119.412
G0 X106.076 Y119.412
G1 F336.7 X106.076 Y100.196 E80.56918
G0 F9000 X106.94 Y100.196
G0 X107.178 Y119.412
G0 X108.036 Y119.412
G1 F336.7 X108.036 Y100.196 E81.19553
G0 F9000 X108.9 Y100.196
G0 X109.139 Y119.412
G0 X110 Y119.412
G1 F336.7 X110 Y100.196 E81.82187
G0 F9000 X110.861 Y100.196
G0 X111.1 Y119.412
G0 X111.96 Y119.412
G1 F336.7 X111.96 Y100.196 E82.44822
G0 F9000 X112.822 Y100.196
G0 X113.06 Y119.412
G0 X113.92 Y119.412
G1 F336.7 X113.92 Y100.196 E83.07456
G0 F9000 X114.783 Y100.196
G0 X115.021 Y119.412
G0 X115.88 Y119.412
G1 F336.7 X115.88 Y100.196 E83.70091
G0 F9000 X116.743 Y100.196
G0 X116.982 Y119.412
G0 X117.84 Y119.412
G1 F336.7 X117.84 Y100.196 E84.32725
G0 F9000 X118.704 Y100.196
G0 X118.943 Y119.412
G0 X119.804 Y119.412
G1 F336.7 X119.804 Y100.196 E84.95359
;MESH:NONMESH
G0 F300 X119.804 Y100.196 Z1.48
G0 F9000 X118.943 Y100.196
G0 X118.692 Y99.347
G0 X109.151 Y99.347
G0 X108.888 Y120.261
G0 X101.308 Y120.261
G0 X101.057 Y119.412
G0 X100.196 Y119.412
;TIME_ELAPSED:307.112200
;LAYER:6
;TYPE:WALL-OUTER
;MESH:scaffold_rectangular.stl
G1 F336.7 X100.196 Y100.196 E85.57994
G0 F9000 X101.057 Y100.196
G0 X101.296 Y119.412
G0 X102.156 Y119.412
G1 F336.7 X102.156 Y100.196 E86.20628
G0 F9000 X103.018 Y100.196
G0 X103.257 Y119.412
G0 X104.116 Y119.412
G1 F336.7 X104.116 Y100.196 E86.83263
G0 F9000 X104.979 Y100.196
G0 X105.217 Y119.412
G0 X106.076 Y119.412
G1 F336.7 X106.076 Y100.196 E87.45897
G0 F9000 X106.94 Y100.196
G0 X107.178 Y119.412
G0 X108.036 Y119.412
G1 F336.7 X108.036 Y100.196 E88.08531
G0 F9000 X108.9 Y100.196
G0 X109.139 Y119.412
G0 X110 Y119.412
G1 F336.7 X110 Y100.196 E88.71166
G0 F9000 X110.861 Y100.196
G0 X111.1 Y119.412
G0 X111.96 Y119.412
G1 F336.7 X111.96 Y100.196 E89.338
G0 F9000 X112.822 Y100.196
G0 X113.06 Y119.412
G0 X113.92 Y119.412
G1 F336.7 X113.92 Y100.196 E89.96435
G0 F9000 X114.783 Y100.196
G0 X115.021 Y119.412
G0 X115.88 Y119.412
G1 F336.7 X115.88 Y100.196 E90.59069
G0 F9000 X116.743 Y100.196
G0 X116.982 Y119.412
G0 X117.84 Y119.412
G1 F336.7 X117.84 Y100.196 E91.21704
G0 F9000 X118.704 Y100.196
G0 X118.943 Y119.412
G0 X119.804 Y119.412
G1 F336.7 X119.804 Y100.196 E91.84338
;TIME_ELAPSED:349.795120
M140 S0
M107
G91; relative positioning
 G1 Z1.0 F3000 ; move z up little to prevent scratching of print
 G90; absolute positioning
 G1 X0 Y200 F1000 ; prepare for part removal
 M104 S0; turn off extruder
 M140 S0 ; turn off bed
 G1 X0 Y300 F1000 ; prepare for part removal
 M84 ; disable motors
 M106 S0 ; turn off fan
M82 ;absolute extrusion mode
M104 S0
;End of Gcode
;SETTING_3 {"global_quality": "[general]\\nversion = 4\\nname = Low Quality #2\\
;SETTING_3 ndefinition = artillery_genius\\n\\n[metadata]\\ntype = quality_chang
;SETTING_3 es\\nquality_type = low\\nsetting_version = 23\\n\\n[values]\\ninfill
;SETTING_3 _sparse_density = 30\\nlayer_height = 0.2\\nmaterial_print_temperatur
;SETTING_3 e = 25\\nretraction_enable = False\\nspeed_print = 10\\n\\n", "extrud
;SETTING_3 er_quality": ["[general]\\nversion = 4\\nname = Low Quality #2\\ndefi
;SETTING_3 nition = artillery_base\\n\\n[metadata]\\ntype = quality_changes\\nqu
;SETTING_3 ality_type = low\\nsetting_version = 23\\nposition = 0\\n\\n[values]\
;SETTING_3 \n\\n"]}
