;FLAVOR:Marlin
;TIME:406
;Filament used: 0.101538m
;Layer height: 0.2
;MINX:88.26
;MINY:88.26
;MINZ:0.28
;MAXX:131.74
;MAXY:131.74
;MAXZ:1.68
;TARGET_MACHINE.NAME:Artillery Genius
;Generated with Cura_SteamEngine 5.7.1
M140 S60
M105
M190 S60
M104 S25
M105
M109 S25
M82 ;absolute extrusion mode
G28 ; home all axes
 M117 Purge extruder
 G92 E0 ; reset extruder
 G1 Z1.0 F3000 ; move z up little to prevent scratching of surface
 G1 X2 Y20 Z0.3 F5000.0 ; move to start-line position
 G1 X2 Y200.0 Z0.3 F1500.0 E15 ; draw 1st line
 G1 X2 Y200.0 Z0.4 F5000.0 ; move to side a little
 G1 X2 Y20 Z0.4 F1500.0 E30 ; draw 2nd line
 G92 E0 ; reset extruder
 G1 Z1.0 F3000 ; move z up little to prevent scratching of surface
G92 E0
;LAYER_COUNT:8
;LAYER:0
M107
G0 F6000 X91.866 Y91.439 Z0.28
;TYPE:SKIRT
G1 F1200 X92.666 Y90.746 E0.05421
G1 X93.397 Y90.215 E0.10049
G1 X94.374 Y89.63 E0.15882
G1 X95.187 Y89.236 E0.20509
G1 X96.252 Y88.831 E0.26345
G1 X97.198 Y88.568 E0.31375
G1 X98.168 Y88.387 E0.36429
G1 X99.496 Y88.273 E0.43256
G1 X100.103 Y88.26 E0.46366
G1 X119.511 Y88.26 E1.45775
G1 X120.417 Y88.274 E1.50416
G1 X121.434 Y88.339 E1.55636
G1 X122.406 Y88.485 E1.6067
G1 X123.436 Y88.736 E1.661
G1 X124.366 Y89.052 E1.71131
G1 X125.334 Y89.481 E1.76554
G1 X126.225 Y89.974 E1.8177
G1 X127.009 Y90.499 E1.86603
G1 X127.864 Y91.192 E1.9224
G1 X128.594 Y91.901 E1.97453
G1 X129.211 Y92.613 E2.02278
G1 X129.856 Y93.504 E2.07913
G1 X130.32 Y94.28 E2.12544
G1 X130.814 Y95.306 E2.18376
G1 X131.171 Y96.262 E2.23603
G1 X131.443 Y97.245 E2.28827
G1 X131.609 Y98.133 E2.33455
G1 X131.727 Y99.496 E2.40462
G1 X131.74 Y100.13 E2.4371
G1 X131.739 Y119.235 E3.41567
G1 X131.726 Y120.016 E3.45568
G1 X131.662 Y121.035 E3.50798
G1 X131.516 Y122.007 E3.55832
G1 X131.265 Y123.036 E3.61257
G1 X130.936 Y124.001 E3.66479
G1 X130.523 Y124.935 E3.7171
G1 X130.048 Y125.796 E3.76747
G1 X129.456 Y126.673 E3.82167
G1 X128.846 Y127.428 E3.87138
G1 X128.338 Y127.969 E3.9094
G1 X127.902 Y128.402 E3.94087
G1 X127.145 Y129.086 E3.99313
G1 X126.33 Y129.701 E4.04542
G1 X125.465 Y130.241 E4.09765
G1 X124.626 Y130.671 E4.14594
G1 X123.608 Y131.082 E4.20218
G1 X122.743 Y131.347 E4.24851
G1 X121.631 Y131.583 E4.30674
G1 X120.734 Y131.691 E4.35302
G1 X120.139 Y131.725 E4.38354
G1 X119.47 Y131.74 E4.41782
G1 X100.356 Y131.739 E5.39685
G1 X99.6 Y131.727 E5.43558
G1 X98.581 Y131.664 E5.48787
G1 X97.572 Y131.511 E5.54014
G1 X96.579 Y131.269 E5.59249
G1 X95.686 Y130.968 E5.64076
G1 X94.717 Y130.545 E5.69492
G1 X93.787 Y130.033 E5.74929
G1 X92.941 Y129.463 E5.80154
G1 X92.148 Y128.819 E5.85387
G1 X91.415 Y128.109 E5.90614
G1 X90.75 Y127.339 E5.95825
G1 X90.218 Y126.608 E6.00456
G1 X89.633 Y125.632 E6.06284
G1 X89.238 Y124.819 E6.10914
G1 X88.833 Y123.755 E6.16745
G1 X88.579 Y122.847 E6.21575
G1 X88.383 Y121.794 E6.27061
G1 X88.273 Y120.494 E6.33743
G1 X88.26 Y119.858 E6.37002
G1 X88.261 Y100.317 E7.37092
G1 X88.273 Y99.593 E7.40801
G1 X88.337 Y98.574 E7.4603
G1 X88.49 Y97.565 E7.51258
G1 X88.733 Y96.574 E7.56484
G1 X89.062 Y95.606 E7.61721
G1 X89.475 Y94.674 E7.66942
G1 X89.949 Y93.815 E7.71967
G1 X90.517 Y92.966 E7.77199
G1 X91.184 Y92.144 E7.82622
G1 X91.866 Y91.439 E7.87646
G0 F6000 X92.155 Y91.771
G1 F1200 X92.925 Y91.102 E7.9287
G1 X93.656 Y90.571 E7.97498
G1 X94.566 Y90.026 E8.02931
G1 X95.379 Y89.632 E8.07559
G1 X96.371 Y89.255 E8.12994
G1 X97.279 Y89.001 E8.17824
G1 X98.249 Y88.82 E8.22878
G1 X99.505 Y88.713 E8.29335
G1 X100.112 Y88.7 E8.32444
G1 X119.505 Y88.7 E9.31776
G1 X120.39 Y88.713 E9.3631
G1 X121.369 Y88.774 E9.41334
G1 X122.341 Y88.92 E9.46369
G1 X123.294 Y89.153 E9.51394
G1 X124.224 Y89.469 E9.56425
G1 X125.121 Y89.866 E9.61449
G1 X125.98 Y90.34 E9.66474
G1 X126.764 Y90.865 E9.71307
G1 X127.558 Y91.508 E9.76541
G1 X128.262 Y92.19 E9.81561
G1 X128.855 Y92.872 E9.8619
G1 X129.478 Y93.73 E9.91621
G1 X129.942 Y94.506 E9.96252
G1 X130.402 Y95.461 E10.01682
G1 X130.747 Y96.38 E10.0671
G1 X131.01 Y97.326 E10.11739
G1 X131.176 Y98.214 E10.16366
G1 X131.287 Y99.505 E10.23003
G1 X131.3 Y100.13 E10.26205
G1 X131.299 Y119.228 E11.24026
G1 X131.287 Y119.989 E11.27925
G1 X131.227 Y120.97 E11.32959
G1 X131.081 Y121.942 E11.37993
G1 X130.848 Y122.895 E11.43018
G1 X130.533 Y123.824 E11.48043
G1 X130.137 Y124.723 E11.53074
G1 X129.683 Y125.55 E11.57907
G1 X129.114 Y126.396 E11.63129
G1 X128.504 Y127.151 E11.681
G1 X128.028 Y127.657 E11.71659
G1 X127.606 Y128.076 E11.74705
G1 X126.879 Y128.735 E11.79731
G1 X126.096 Y129.328 E11.84762
G1 X125.264 Y129.849 E11.8979
G1 X124.425 Y130.279 E11.94619
G1 X123.479 Y130.661 E11.99844
G1 X122.614 Y130.926 E12.04478
G1 X121.578 Y131.146 E12.09903
G1 X120.681 Y131.254 E12.14531
G1 X120.129 Y131.285 E12.17362
G1 X119.47 Y131.3 E12.20739
G1 X100.363 Y131.299 E13.18606
G1 X99.626 Y131.288 E13.22381
G1 X98.646 Y131.229 E13.2741
G1 X97.675 Y131.083 E13.32439
G1 X96.72 Y130.852 E13.37472
G1 X95.827 Y130.551 E13.42299
G1 X94.893 Y130.142 E13.47522
G1 X94.032 Y129.668 E13.52556
G1 X93.218 Y129.121 E13.57579
G1 X92.454 Y128.503 E13.62612
G1 X91.748 Y127.821 E13.6764
G1 X91.106 Y127.08 E13.72662
G1 X90.574 Y126.349 E13.77293
G1 X90.029 Y125.44 E13.82722
G1 X89.634 Y124.627 E13.87351
G1 X89.257 Y123.636 E13.92782
G1 X89.012 Y122.766 E13.97412
G1 X88.816 Y121.713 E14.02898
G1 X88.713 Y120.485 E14.0921
G1 X88.7 Y119.858 E14.12422
G1 X88.701 Y100.324 E15.12476
G1 X88.712 Y99.62 E15.16083
G1 X88.772 Y98.639 E15.21117
G1 X88.918 Y97.669 E15.26141
G1 X89.15 Y96.715 E15.3117
G1 X89.465 Y95.784 E15.36204
G1 X89.861 Y94.886 E15.41231
G1 X90.315 Y94.06 E15.46059
G1 X90.883 Y93.211 E15.51291
G1 X91.501 Y92.449 E15.56316
G1 X92.155 Y91.771 E15.61141
G0 F6000 X92.472 Y92.076
G1 F1200 X93.184 Y91.458 E15.65971
G1 X93.915 Y90.927 E15.70598
G1 X94.758 Y90.422 E15.75632
G1 X95.571 Y90.028 E15.80259
G1 X96.49 Y89.679 E15.85294
G1 X97.36 Y89.434 E15.89924
G1 X98.33 Y89.253 E15.94978
G1 X99.514 Y89.153 E16.01064
G1 X100.121 Y89.14 E16.04174
G1 X119.499 Y89.14 E17.03429
G1 X120.363 Y89.152 E17.07855
G1 X121.304 Y89.209 E17.12684
G1 X122.237 Y89.348 E17.17515
G1 X123.153 Y89.57 E17.22343
G1 X124.047 Y89.872 E17.27176
G1 X124.909 Y90.252 E17.32002
G1 X125.735 Y90.706 E17.36829
G1 X126.519 Y91.231 E17.41662
G1 X127.252 Y91.824 E17.46492
G1 X127.93 Y92.479 E17.5132
G1 X128.523 Y93.161 E17.55949
G1 X129.1 Y93.956 E17.60981
G1 X129.564 Y94.732 E17.65612
G1 X129.99 Y95.616 E17.70638
G1 X130.323 Y96.498 E17.75467
G1 X130.577 Y97.407 E17.80301
G1 X130.743 Y98.295 E17.84928
G1 X130.847 Y99.514 E17.91195
G1 X130.86 Y100.13 E17.94351
G1 X130.859 Y119.221 E18.92136
G1 X130.848 Y119.963 E18.95937
G1 X130.792 Y120.905 E19.00771
G1 X130.653 Y121.838 E19.05602
G1 X130.431 Y122.754 E19.1043
G1 X130.13 Y123.647 E19.15257
G1 X129.751 Y124.511 E19.20089
G1 X129.297 Y125.338 E19.24921
G1 X128.772 Y126.12 E19.29746
G1 X128.183 Y126.85 E19.3455
G1 X127.718 Y127.345 E19.38029
G1 X127.31 Y127.751 E19.40977
G1 X126.613 Y128.385 E19.45803
G1 X125.862 Y128.955 E19.50632
G1 X125.063 Y129.457 E19.55466
G1 X124.224 Y129.887 E19.60295
G1 X123.35 Y130.24 E19.65123
G1 X122.485 Y130.505 E19.69756
G1 X121.525 Y130.709 E19.74783
G1 X120.628 Y130.817 E19.79411
G1 X120.119 Y130.845 E19.82022
G1 X119.47 Y130.86 E19.85347
G1 X100.369 Y130.859 E20.83184
G1 X99.652 Y130.849 E20.86857
G1 X98.711 Y130.794 E20.91685
G1 X97.778 Y130.655 E20.96516
G1 X96.861 Y130.435 E21.01347
G1 X95.968 Y130.134 E21.06173
G1 X95.104 Y129.756 E21.11004
G1 X94.277 Y129.303 E21.15834
G1 X93.494 Y128.778 E21.20662
G1 X92.759 Y128.186 E21.25496
G1 X92.08 Y127.532 E21.30325
G1 X91.462 Y126.821 E21.3515
G1 X90.93 Y126.09 E21.39781
G1 X90.425 Y125.248 E21.4481
G1 X90.03 Y124.435 E21.4944
G1 X89.681 Y123.517 E21.5447
G1 X89.436 Y122.647 E21.591
G1 X89.254 Y121.676 E21.6416
G1 X89.153 Y120.476 E21.70328
G1 X89.14 Y119.858 E21.73494
G1 X89.141 Y100.33 E22.73518
G1 X89.151 Y99.646 E22.77022
G1 X89.207 Y98.704 E22.81855
G1 X89.346 Y97.772 E22.86682
G1 X89.567 Y96.855 E22.91513
G1 X89.868 Y95.961 E22.96345
G1 X90.247 Y95.098 E23.01173
G1 X90.701 Y94.272 E23.06
G1 X91.225 Y93.488 E23.1083
G1 X91.818 Y92.754 E23.15664
G1 X92.472 Y92.076 E23.20489
G0 F6000 X92.761 Y92.408
G1 F1200 X93.443 Y91.814 E23.25121
G1 X94.174 Y91.283 E23.29749
G1 X94.95 Y90.818 E23.34383
G1 X95.763 Y90.424 E23.3901
G1 X96.609 Y90.103 E23.43645
G1 X97.479 Y89.858 E23.48274
G1 X98.367 Y89.691 E23.52903
G1 X99.523 Y89.593 E23.58845
G1 X100.13 Y89.58 E23.61955
G1 X119.493 Y89.58 E24.61133
G1 X120.337 Y89.591 E24.65457
G1 X121.24 Y89.644 E24.7009
G1 X122.134 Y89.776 E24.74719
G1 X123.013 Y89.987 E24.79349
G1 X123.87 Y90.275 E24.8398
G1 X124.698 Y90.638 E24.8861
G1 X125.491 Y91.072 E24.93241
G1 X126.243 Y91.574 E24.97872
G1 X126.947 Y92.141 E25.02502
G1 X127.598 Y92.768 E25.07131
G1 X128.191 Y93.45 E25.1176
G1 X128.722 Y94.182 E25.16392
G1 X129.186 Y94.958 E25.21023
G1 X129.579 Y95.772 E25.25653
G1 X129.899 Y96.617 E25.30281
G1 X130.144 Y97.488 E25.34916
G1 X130.31 Y98.376 E25.39543
G1 X130.407 Y99.523 E25.45439
G1 X130.42 Y100.13 E25.48549
G1 X130.419 Y119.215 E26.46303
G1 X130.409 Y119.938 E26.50007
G1 X130.357 Y120.841 E26.5464
G1 X130.225 Y121.735 E26.59269
G1 X130.014 Y122.614 E26.63899
G1 X129.727 Y123.471 E26.68528
G1 X129.365 Y124.3 E26.73161
G1 X128.931 Y125.093 E26.77792
G1 X128.429 Y125.844 E26.82419
G1 X127.862 Y126.549 E26.87053
G1 X127.407 Y127.033 E26.90455
G1 X127.013 Y127.426 E26.93306
G1 X126.346 Y128.035 E26.97932
G1 X125.627 Y128.583 E27.02562
G1 X124.862 Y129.066 E27.07196
G1 X124.058 Y129.479 E27.11826
G1 X123.221 Y129.819 E27.16453
G1 X122.356 Y130.084 E27.21087
G1 X121.472 Y130.272 E27.25716
G1 X120.575 Y130.38 E27.30344
G1 X120.109 Y130.405 E27.32734
G1 X119.47 Y130.42 E27.36008
G1 X100.375 Y130.419 E28.33814
G1 X99.677 Y130.41 E28.37389
G1 X98.775 Y130.359 E28.42017
G1 X97.88 Y130.227 E28.46651
G1 X97.001 Y130.018 E28.51279
G1 X96.144 Y129.731 E28.55908
G1 X95.315 Y129.37 E28.60539
G1 X94.521 Y128.937 E28.65172
G1 X93.769 Y128.435 E28.69803
G1 X93.064 Y127.869 E28.74433
G1 X92.412 Y127.243 E28.79063
G1 X91.818 Y126.562 E28.83692
G1 X91.286 Y125.831 E28.88323
G1 X90.821 Y125.056 E28.92952
G1 X90.426 Y124.243 E28.97582
G1 X90.105 Y123.398 E29.02212
G1 X89.86 Y122.528 E29.06841
G1 X89.692 Y121.639 E29.11475
G1 X89.593 Y120.467 E29.175
G1 X89.58 Y119.858 E29.2062
G1 X89.581 Y100.336 E30.20612
G1 X89.59 Y99.671 E30.24019
G1 X89.642 Y98.768 E30.28652
G1 X89.774 Y97.874 E30.33281
G1 X89.984 Y96.995 E30.3791
G1 X90.271 Y96.137 E30.42544
G1 X90.633 Y95.309 E30.47172
G1 X91.067 Y94.516 E30.51803
G1 X91.568 Y93.764 E30.56431
G1 X92.135 Y93.059 E30.61065
G1 X92.761 Y92.408 E30.65691
;MESH:scaffold_rectangular.stl
G0 F6000 X119.6 Y99.135
G0 X119.6 Y100
;TYPE:WALL-OUTER
G1 F330 X100 Y100 E31.56957
G0 F6000 X100 Y100.865
G0 X119.6 Y101.135
G0 X119.6 Y102
G1 F330 X100 Y102 E32.48223
G0 F6000 X100 Y102.865
G0 X119.6 Y103.135
G0 X119.6 Y104
G1 F330 X100 Y104 E33.39488
G0 F6000 X100 Y104.865
G0 X119.6 Y105.135
G0 X119.6 Y106
G1 F330 X100 Y106 E34.30754
G0 F6000 X100 Y106.865
G0 X119.6 Y107.135
G0 X119.6 Y108
G1 F330 X100 Y108 E35.2202
G0 F6000 X100 Y108.865
G0 X119.6 Y109.135
G0 X119.6 Y110
G1 F330 X100 Y110 E36.13286
G0 F6000 X100 Y110.865
G0 X119.6 Y111.135
G0 X119.6 Y112
G1 F330 X100 Y112 E37.04552
G0 F6000 X100 Y112.865
G0 X119.6 Y113.135
G0 X119.6 Y114
G1 F330 X100 Y114 E37.95817
G0 F6000 X100 Y114.865
G0 X119.6 Y115.135
G0 X119.6 Y116
G1 F330 X100 Y116 E38.87083
G0 F6000 X100 Y116.865
G0 X119.6 Y117.135
G0 X119.6 Y118
G1 F330 X100 Y118 E39.78349
G0 F6000 X100 Y118.865
G0 X119.6 Y119.135
G0 X119.6 Y120
G1 F330 X100 Y120 E40.69615
;MESH:NONMESH
G0 F300 X100 Y120 Z0.48
G0 F6000 X100 Y119.135
G0 X99.147 Y118.853
G0 X92.761 Y92.408
;TIME_ELAPSED:77.028190
;LAYER:1
M106 S85
;TYPE:SKIRT
G1 F1200 X93.443 Y91.814 E40.72924
G1 X94.174 Y91.283 E40.76229
G1 X94.95 Y90.818 E40.79539
G1 X95.763 Y90.424 E40.82845
G1 X96.609 Y90.103 E40.86155
G1 X97.479 Y89.858 E40.89462
G1 X98.367 Y89.691 E40.92768
G1 X99.523 Y89.593 E40.97012
G1 X100.13 Y89.58 E40.99233
G1 X119.493 Y89.58 E41.70075
G1 X120.337 Y89.591 E41.73163
G1 X121.24 Y89.644 E41.76473
G1 X122.134 Y89.776 E41.79779
G1 X123.013 Y89.987 E41.83086
G1 X123.87 Y90.275 E41.86394
G1 X124.698 Y90.638 E41.89702
G1 X125.491 Y91.072 E41.93009
G1 X126.243 Y91.574 E41.96317
G1 X126.947 Y92.141 E41.99624
G1 X127.598 Y92.768 E42.02931
G1 X128.191 Y93.45 E42.06238
G1 X128.722 Y94.182 E42.09546
G1 X129.186 Y94.958 E42.12854
G1 X129.579 Y95.772 E42.16161
G1 X129.899 Y96.617 E42.19467
G1 X130.144 Y97.488 E42.22777
G1 X130.31 Y98.376 E42.26082
G1 X130.407 Y99.523 E42.30294
G1 X130.42 Y100.13 E42.32515
G1 X130.419 Y119.215 E43.0234
G1 X130.409 Y119.938 E43.04985
G1 X130.357 Y120.841 E43.08294
G1 X130.225 Y121.735 E43.116
G1 X130.014 Y122.614 E43.14908
G1 X129.727 Y123.471 E43.18214
G1 X129.365 Y124.3 E43.21524
G1 X128.931 Y125.093 E43.24831
G1 X128.429 Y125.844 E43.28136
G1 X127.862 Y126.549 E43.31446
G1 X127.407 Y127.033 E43.33877
G1 X127.013 Y127.426 E43.35913
G1 X126.346 Y128.035 E43.39217
G1 X125.627 Y128.583 E43.42525
G1 X124.862 Y129.066 E43.45835
G1 X124.058 Y129.479 E43.49141
G1 X123.221 Y129.819 E43.52447
G1 X122.356 Y130.084 E43.55757
G1 X121.472 Y130.272 E43.59063
G1 X120.575 Y130.38 E43.62369
G1 X120.109 Y130.405 E43.64076
G1 X119.47 Y130.42 E43.66415
G1 X100.375 Y130.419 E44.36276
G1 X99.677 Y130.41 E44.3883
G1 X98.775 Y130.359 E44.42135
G1 X97.88 Y130.227 E44.45445
G1 X97.001 Y130.018 E44.48751
G1 X96.144 Y129.731 E44.52057
G1 X95.315 Y129.37 E44.55365
G1 X94.521 Y128.937 E44.58674
G1 X93.769 Y128.435 E44.61982
G1 X93.064 Y127.869 E44.6529
G1 X92.412 Y127.243 E44.68597
G1 X91.818 Y126.562 E44.71903
G1 X91.286 Y125.831 E44.7521
G1 X90.821 Y125.056 E44.78517
G1 X90.426 Y124.243 E44.81824
G1 X90.105 Y123.398 E44.85131
G1 X89.86 Y122.528 E44.88438
G1 X89.692 Y121.639 E44.91748
G1 X89.593 Y120.467 E44.96051
G1 X89.58 Y119.858 E44.9828
G1 X89.581 Y100.336 E45.69703
G1 X89.59 Y99.671 E45.72136
G1 X89.642 Y98.768 E45.75446
G1 X89.774 Y97.874 E45.78752
G1 X89.984 Y96.995 E45.82058
G1 X90.271 Y96.137 E45.85368
G1 X90.633 Y95.309 E45.88675
G1 X91.067 Y94.516 E45.91982
G1 X91.568 Y93.764 E45.95288
G1 X92.135 Y93.059 E45.98598
G1 X92.761 Y92.408 E46.01902
;MESH:scaffold_rectangular.stl
G0 F7500 X119.6 Y99.135
G0 X119.6 Y100
;TYPE:WALL-OUTER
G1 F330 X100 Y100 E46.67092
G0 F7500 X100 Y100.865
G0 X119.6 Y101.135
G0 X119.6 Y102
G1 F330 X100 Y102 E47.32282
G0 F7500 X100 Y102.865
G0 X119.6 Y103.135
G0 X119.6 Y104
G1 F330 X100 Y104 E47.97472
G0 F7500 X100 Y104.865
G0 X119.6 Y105.135
G0 X119.6 Y106
G1 F330 X100 Y106 E48.62662
G0 F7500 X100 Y106.865
G0 X119.6 Y107.135
G0 X119.6 Y108
G1 F330 X100 Y108 E49.27852
G0 F7500 X100 Y108.865
G0 X119.6 Y109.135
G0 X119.6 Y110
G1 F330 X100 Y110 E49.93041
G0 F7500 X100 Y110.865
G0 X119.6 Y111.135
G0 X119.6 Y112
G1 F330 X100 Y112 E50.58231
G0 F7500 X100 Y112.865
G0 X119.6 Y113.135
G0 X119.6 Y114
G1 F330 X100 Y114 E51.23421
G0 F7500 X100 Y114.865
G0 X119.6 Y115.135
G0 X119.6 Y116
G1 F330 X100 Y116 E51.88611
G0 F7500 X100 Y116.865
G0 X119.6 Y117.135
G0 X119.6 Y118
G1 F330 X100 Y118 E52.53801
G0 F7500 X100 Y118.865
G0 X119.6 Y119.135
G0 X119.6 Y120
G1 F330 X100 Y120 E53.18991
;MESH:NONMESH
G0 F300 X100 Y120 Z0.68
G0 F7500 X100 Y119.135
G0 X99.147 Y118.853
G0 X92.761 Y92.408
;TIME_ELAPSED:129.709045
;LAYER:2
M106 S170
;TYPE:SKIRT
G1 F1200 X93.443 Y91.814 E53.223
G1 X94.174 Y91.283 E53.25605
G1 X94.95 Y90.818 E53.28915
G1 X95.763 Y90.424 E53.3222
G1 X96.609 Y90.103 E53.35531
G1 X97.479 Y89.858 E53.38838
G1 X98.367 Y89.691 E53.42143
G1 X99.523 Y89.593 E53.46388
G1 X100.13 Y89.58 E53.48609
G1 X119.493 Y89.58 E54.19451
G1 X120.337 Y89.591 E54.22539
G1 X121.24 Y89.644 E54.25849
G1 X122.134 Y89.776 E54.29155
G1 X123.013 Y89.987 E54.32462
G1 X123.87 Y90.275 E54.3577
G1 X124.698 Y90.638 E54.39078
G1 X125.491 Y91.072 E54.42385
G1 X126.243 Y91.574 E54.45693
G1 X126.947 Y92.141 E54.49
G1 X127.598 Y92.768 E54.52307
G1 X128.191 Y93.45 E54.55613
G1 X128.722 Y94.182 E54.58922
G1 X129.186 Y94.958 E54.6223
G1 X129.579 Y95.772 E54.65537
G1 X129.899 Y96.617 E54.68843
G1 X130.144 Y97.488 E54.72153
G1 X130.31 Y98.376 E54.75458
G1 X130.407 Y99.523 E54.79669
G1 X130.42 Y100.13 E54.81891
G1 X130.419 Y119.215 E55.51715
G1 X130.409 Y119.938 E55.54361
G1 X130.357 Y120.841 E55.5767
G1 X130.225 Y121.735 E55.60976
G1 X130.014 Y122.614 E55.64284
G1 X129.727 Y123.471 E55.6759
G1 X129.365 Y124.3 E55.709
G1 X128.931 Y125.093 E55.74207
G1 X128.429 Y125.844 E55.77512
G1 X127.862 Y126.549 E55.80822
G1 X127.407 Y127.033 E55.83252
G1 X127.013 Y127.426 E55.85288
G1 X126.346 Y128.035 E55.88593
G1 X125.627 Y128.583 E55.919
G1 X124.862 Y129.066 E55.9521
G1 X124.058 Y129.479 E55.98517
G1 X123.221 Y129.819 E56.01823
G1 X122.356 Y130.084 E56.05132
G1 X121.472 Y130.272 E56.08439
G1 X120.575 Y130.38 E56.11744
G1 X120.109 Y130.405 E56.13452
G1 X119.47 Y130.42 E56.1579
G1 X100.375 Y130.419 E56.85652
G1 X99.677 Y130.41 E56.88205
G1 X98.775 Y130.359 E56.91511
G1 X97.88 Y130.227 E56.94821
G1 X97.001 Y130.018 E56.98126
G1 X96.144 Y129.731 E57.01433
G1 X95.315 Y129.37 E57.04741
G1 X94.521 Y128.937 E57.0805
G1 X93.769 Y128.435 E57.11358
G1 X93.064 Y127.869 E57.14665
G1 X92.412 Y127.243 E57.17972
G1 X91.818 Y126.562 E57.21279
G1 X91.286 Y125.831 E57.24586
G1 X90.821 Y125.056 E57.27893
G1 X90.426 Y124.243 E57.312
G1 X90.105 Y123.398 E57.34507
G1 X89.86 Y122.528 E57.37814
G1 X89.692 Y121.639 E57.41124
G1 X89.593 Y120.467 E57.45427
G1 X89.58 Y119.858 E57.47656
G1 X89.581 Y100.336 E58.19079
G1 X89.59 Y99.671 E58.21512
G1 X89.642 Y98.768 E58.24821
G1 X89.774 Y97.874 E58.28128
G1 X89.984 Y96.995 E58.31434
G1 X90.271 Y96.137 E58.34744
G1 X90.633 Y95.309 E58.3805
G1 X91.067 Y94.516 E58.41358
G1 X91.568 Y93.764 E58.44664
G1 X92.135 Y93.059 E58.47974
G1 X92.761 Y92.408 E58.51278
;MESH:scaffold_rectangular.stl
G0 F9000 X99.135 Y119.6
G0 X100 Y119.6
;TYPE:WALL-OUTER
G1 F330 X100 Y100 E59.16468
G0 F9000 X100.865 Y100
G0 X101.135 Y119.6
G0 X102 Y119.6
G1 F330 X102 Y100 E59.81658
G0 F9000 X102.865 Y100
G0 X103.135 Y119.6
G0 X104 Y119.6
G1 F330 X104 Y100 E60.46848
G0 F9000 X104.865 Y100
G0 X105.135 Y119.6
G0 X106 Y119.6
G1 F330 X106 Y100 E61.12037
G0 F9000 X106.865 Y100
G0 X107.135 Y119.6
G0 X108 Y119.6
G1 F330 X108 Y100 E61.77227
G0 F9000 X108.865 Y100
G0 X109.135 Y119.6
G0 X110 Y119.6
G1 F330 X110 Y100 E62.42417
G0 F9000 X110.865 Y100
G0 X111.135 Y119.6
G0 X112 Y119.6
G1 F330 X112 Y100 E63.07607
G0 F9000 X112.865 Y100
G0 X113.135 Y119.6
G0 X114 Y119.6
G1 F330 X114 Y100 E63.72797
G0 F9000 X114.865 Y100
G0 X115.135 Y119.6
G0 X116 Y119.6
G1 F330 X116 Y100 E64.37987
G0 F9000 X116.865 Y100
G0 X117.135 Y119.6
G0 X118 Y119.6
G1 F330 X118 Y100 E65.03177
G0 F9000 X118.865 Y100
G0 X119.135 Y119.6
G0 X120 Y119.6
G1 F330 X120 Y100 E65.68367
;MESH:NONMESH
G0 F300 X120 Y100 Z0.88
G0 F9000 X119.135 Y100
G0 X118.853 Y99.147
G0 X109.147 Y99.147
G0 X108.853 Y120.453
G0 X101.147 Y120.453
G0 X100.865 Y119.6
G0 X100 Y119.6
;TIME_ELAPSED:182.935039
;LAYER:3
M106 S255
;TYPE:WALL-OUTER
;MESH:scaffold_rectangular.stl
G1 F330 X100 Y100 E66.33556
G0 F9000 X100.865 Y100
G0 X101.135 Y119.6
G0 X102 Y119.6
G1 F330 X102 Y100 E66.98746
G0 F9000 X102.865 Y100
G0 X103.135 Y119.6
G0 X104 Y119.6
G1 F330 X104 Y100 E67.63936
G0 F9000 X104.865 Y100
G0 X105.135 Y119.6
G0 X106 Y119.6
G1 F330 X106 Y100 E68.29126
G0 F9000 X106.865 Y100
G0 X107.135 Y119.6
G0 X108 Y119.6
G1 F330 X108 Y100 E68.94316
G0 F9000 X108.865 Y100
G0 X109.135 Y119.6
G0 X110 Y119.6
G1 F330 X110 Y100 E69.59506
G0 F9000 X110.865 Y100
G0 X111.135 Y119.6
G0 X112 Y119.6
G1 F330 X112 Y100 E70.24696
G0 F9000 X112.865 Y100
G0 X113.135 Y119.6
G0 X114 Y119.6
G1 F330 X114 Y100 E70.89885
G0 F9000 X114.865 Y100
G0 X115.135 Y119.6
G0 X116 Y119.6
G1 F330 X116 Y100 E71.55075
G0 F9000 X116.865 Y100
G0 X117.135 Y119.6
G0 X118 Y119.6
G1 F330 X118 Y100 E72.20265
G0 F9000 X118.865 Y100
G0 X119.135 Y119.6
G0 X120 Y119.6
G1 F330 X120 Y100 E72.85455
;MESH:NONMESH
G0 F300 X120 Y100 Z1.08
G0 F9000 X119.6 Y100
;TIME_ELAPSED:227.306242
;LAYER:4
;TYPE:WALL-OUTER
;MESH:scaffold_rectangular.stl
G1 F330 X100 Y100 E73.50645
G0 F9000 X100 Y100.865
G0 X119.6 Y101.135
G0 X119.6 Y102
G1 F330 X100 Y102 E74.15835
G0 F9000 X100 Y102.865
G0 X119.6 Y103.135
G0 X119.6 Y104
G1 F330 X100 Y104 E74.81025
G0 F9000 X100 Y104.865
G0 X119.6 Y105.135
G0 X119.6 Y106
G1 F330 X100 Y106 E75.46214
G0 F9000 X100 Y106.865
G0 X119.6 Y107.135
G0 X119.6 Y108
G1 F330 X100 Y108 E76.11404
G0 F9000 X100 Y108.865
G0 X119.6 Y109.135
G0 X119.6 Y110
G1 F330 X100 Y110 E76.76594
G0 F9000 X100 Y110.865
G0 X119.6 Y111.135
G0 X119.6 Y112
G1 F330 X100 Y112 E77.41784
G0 F9000 X100 Y112.865
G0 X119.6 Y113.135
G0 X119.6 Y114
G1 F330 X100 Y114 E78.06974
G0 F9000 X100 Y114.865
G0 X119.6 Y115.135
G0 X119.6 Y116
G1 F330 X100 Y116 E78.72164
G0 F9000 X100 Y116.865
G0 X119.6 Y117.135
G0 X119.6 Y118
G1 F330 X100 Y118 E79.37354
G0 F9000 X100 Y118.865
G0 X119.6 Y119.135
G0 X119.6 Y120
G1 F330 X100 Y120 E80.02544
;MESH:NONMESH
G0 F300 X100 Y120 Z1.28
G0 F9000 X100 Y119.135
G0 X99.147 Y118.853
G0 X99.147 Y111.147
G0 X120.453 Y110.853
G0 X120.453 Y101.147
G0 X119.6 Y100.865
G0 X119.6 Y100
;TIME_ELAPSED:272.727314
;LAYER:5
;TYPE:WALL-OUTER
;MESH:scaffold_rectangular.stl
G1 F330 X100 Y100 E80.67733
G0 F9000 X100 Y100.865
G0 X119.6 Y101.135
G0 X119.6 Y102
G1 F330 X100 Y102 E81.32923
G0 F9000 X100 Y102.865
G0 X119.6 Y103.135
G0 X119.6 Y104
G1 F330 X100 Y104 E81.98113
G0 F9000 X100 Y104.865
G0 X119.6 Y105.135
G0 X119.6 Y106
G1 F330 X100 Y106 E82.63303
G0 F9000 X100 Y106.865
G0 X119.6 Y107.135
G0 X119.6 Y108
G1 F330 X100 Y108 E83.28493
G0 F9000 X100 Y108.865
G0 X119.6 Y109.135
G0 X119.6 Y110
G1 F330 X100 Y110 E83.93683
G0 F9000 X100 Y110.865
G0 X119.6 Y111.135
G0 X119.6 Y112
G1 F330 X100 Y112 E84.58873
G0 F9000 X100 Y112.865
G0 X119.6 Y113.135
G0 X119.6 Y114
G1 F330 X100 Y114 E85.24062
G0 F9000 X100 Y114.865
G0 X119.6 Y115.135
G0 X119.6 Y116
G1 F330 X100 Y116 E85.89252
G0 F9000 X100 Y116.865
G0 X119.6 Y117.135
G0 X119.6 Y118
G1 F330 X100 Y118 E86.54442
G0 F9000 X100 Y118.865
G0 X119.6 Y119.135
G0 X119.6 Y120
G1 F330 X100 Y120 E87.19632
;MESH:NONMESH
G0 F300 X100 Y120 Z1.48
G0 F9000 X100 Y119.6
;TIME_ELAPSED:317.098517
;LAYER:6
;TYPE:WALL-OUTER
;MESH:scaffold_rectangular.stl
G1 F330 X100 Y100 E87.84822
G0 F9000 X100.865 Y100
G0 X101.135 Y119.6
G0 X102 Y119.6
G1 F330 X102 Y100 E88.50012
G0 F9000 X102.865 Y100
G0 X103.135 Y119.6
G0 X104 Y119.6
G1 F330 X104 Y100 E89.15202
G0 F9000 X104.865 Y100
G0 X105.135 Y119.6
G0 X106 Y119.6
G1 F330 X106 Y100 E89.80392
G0 F9000 X106.865 Y100
G0 X107.135 Y119.6
G0 X108 Y119.6
G1 F330 X108 Y100 E90.45581
G0 F9000 X108.865 Y100
G0 X109.135 Y119.6
G0 X110 Y119.6
G1 F330 X110 Y100 E91.10771
G0 F9000 X110.865 Y100
G0 X111.135 Y119.6
G0 X112 Y119.6
G1 F330 X112 Y100 E91.75961
G0 F9000 X112.865 Y100
G0 X113.135 Y119.6
G0 X114 Y119.6
G1 F330 X114 Y100 E92.41151
G0 F9000 X114.865 Y100
G0 X115.135 Y119.6
G0 X116 Y119.6
G1 F330 X116 Y100 E93.06341
G0 F9000 X116.865 Y100
G0 X117.135 Y119.6
G0 X118 Y119.6
G1 F330 X118 Y100 E93.71531
G0 F9000 X118.865 Y100
G0 X119.135 Y119.6
G0 X120 Y119.6
G1 F330 X120 Y100 E94.36721
;MESH:NONMESH
G0 F300 X120 Y100 Z1.68
G0 F9000 X119.135 Y100
G0 X118.853 Y99.147
G0 X109.147 Y99.147
G0 X108.853 Y120.453
G0 X101.147 Y120.453
G0 X100.865 Y119.6
G0 X100 Y119.6
;TIME_ELAPSED:362.519589
;LAYER:7
;TYPE:WALL-OUTER
;MESH:scaffold_rectangular.stl
G1 F330 X100 Y100 E95.0191
G0 F9000 X100.865 Y100
G0 X101.135 Y119.6
G0 X102 Y119.6
G1 F330 X102 Y100 E95.671
G0 F9000 X102.865 Y100
G0 X103.135 Y119.6
G0 X104 Y119.6
G1 F330 X104 Y100 E96.3229
G0 F9000 X104.865 Y100
G0 X105.135 Y119.6
G0 X106 Y119.6
G1 F330 X106 Y100 E96.9748
G0 F9000 X106.865 Y100
G0 X107.135 Y119.6
G0 X108 Y119.6
G1 F330 X108 Y100 E97.6267
G0 F9000 X108.865 Y100
G0 X109.135 Y119.6
G0 X110 Y119.6
G1 F330 X110 Y100 E98.2786
G0 F9000 X110.865 Y100
G0 X111.135 Y119.6
G0 X112 Y119.6
G1 F330 X112 Y100 E98.9305
G0 F9000 X112.865 Y100
G0 X113.135 Y119.6
G0 X114 Y119.6
G1 F330 X114 Y100 E99.58239
G0 F9000 X114.865 Y100
G0 X115.135 Y119.6
G0 X116 Y119.6
G1 F330 X116 Y100 E100.23429
G0 F9000 X116.865 Y100
G0 X117.135 Y119.6
G0 X118 Y119.6
G1 F330 X118 Y100 E100.88619
G0 F9000 X118.865 Y100
G0 X119.135 Y119.6
G0 X120 Y119.6
G1 F330 X120 Y100 E101.53809
;TIME_ELAPSED:406.782094
M140 S0
M107
G91; relative positioning
 G1 Z1.0 F3000 ; move z up little to prevent scratching of print
 G90; absolute positioning
 G1 X0 Y200 F1000 ; prepare for part removal
 M104 S0; turn off extruder
 M140 S0 ; turn off bed
 G1 X0 Y300 F1000 ; prepare for part removal
 M84 ; disable motors
 M106 S0 ; turn off fan
M82 ;absolute extrusion mode
M104 S0
;End of Gcode
;SETTING_3 {"global_quality": "[general]\\nversion = 4\\nname = Low Quality #2\\
;SETTING_3 ndefinition = artillery_genius\\n\\n[metadata]\\ntype = quality_chang
;SETTING_3 es\\nquality_type = low\\nsetting_version = 23\\n\\n[values]\\ninfill
;SETTING_3 _sparse_density = 30\\nlayer_height = 0.2\\nmaterial_print_temperatur
;SETTING_3 e = 25\\nretraction_enable = False\\nspeed_print = 10\\n\\n", "extrud
;SETTING_3 er_quality": ["[general]\\nversion = 4\\nname = Low Quality #2\\ndefi
;SETTING_3 nition = artillery_base\\n\\n[metadata]\\ntype = quality_changes\\nqu
;SETTING_3 ality_type = low\\nsetting_version = 23\\nposition = 0\\n\\n[values]\
;SETTING_3 \n\\n"]}
