;FLAVOR:Marlin
;TIME:908
;Filament used: 0.0751501m
;Layer height: 0.2
;MINX:32
;MINY:32
;MINZ:0.3
;MAXX:67.6
;MAXY:68
;MAXZ:1.5
;TARGET_MACHINE.NAME:Unknown
;Generated with Cura_SteamEngine 5.7.1
M104 S25
M105
M109 S25
M82 ;absolute extrusion mode
G28 ;Home
G1 Z15.0 F6000 ;Move the platform down 15mm
;Prime the extruder
G92 E0
G1 F200 E3
G92 E0
G92 E0
;LAYER_COUNT:7
;LAYER:0
M107
G0 F3600 X34.16 Y34.375 Z0.3
;TYPE:SKIRT
G1 F300 X35.53 Y33.267 E0.03314
G1 X37.536 Y32.274 E0.07525
G1 X39.046 Y32.052 E0.10396
G1 X60.422 Y32 E0.50605
G1 X62.479 Y32.422 E0.54555
G1 X64.25 Y33.417 E0.58376
G1 X65.255 Y34.194 E0.60766
G1 X66.336 Y35.539 E0.64012
G1 X67.366 Y37.605 E0.68354
G1 X67.594 Y39.892 E0.72678
G1 X67.54 Y40.983 E0.74732
G1 X67.526 Y41.092 E0.74939
G1 X67.593 Y41.874 E0.76415
G1 X67.525 Y43.078 E0.78684
G1 X67.593 Y43.874 E0.80187
G1 X67.525 Y45.078 E0.82455
G1 X67.593 Y45.874 E0.83958
G1 X67.525 Y47.078 E0.86226
G1 X67.593 Y47.874 E0.87729
G1 X67.525 Y49.078 E0.89997
G1 X67.593 Y49.874 E0.915
G1 X67.525 Y51.078 E0.93768
G1 X67.593 Y51.874 E0.95271
G1 X67.525 Y53.078 E0.9754
G1 X67.593 Y53.874 E0.99042
G1 X67.525 Y55.078 E1.01311
G1 X67.593 Y55.874 E1.02814
G1 X67.525 Y57.078 E1.05082
G1 X67.593 Y57.874 E1.06585
G1 X67.525 Y59.084 E1.08864
G1 X67.6 Y59.997 E1.10588
G1 X67.568 Y61.118 E1.12697
G1 X67.14 Y62.958 E1.16251
G1 X66.171 Y64.679 E1.19966
G1 X65.44 Y65.625 E1.22215
G1 X64.07 Y66.733 E1.25529
G1 X62.064 Y67.726 E1.29739
G1 X60.554 Y67.948 E1.3261
G1 X39.178 Y68 E1.7282
G1 X37.121 Y67.578 E1.7677
G1 X35.35 Y66.583 E1.80591
G1 X34.345 Y65.806 E1.82981
G1 X33.264 Y64.461 E1.86226
G1 X32.234 Y62.395 E1.90569
G1 X32.006 Y60.108 E1.94892
G1 X32.06 Y59.017 E1.96947
G1 X32.074 Y58.908 E1.97154
G1 X32.007 Y58.126 E1.9863
G1 X32.075 Y56.922 E2.00898
G1 X32.007 Y56.126 E2.02401
G1 X32.075 Y54.922 E2.0467
G1 X32.007 Y54.126 E2.06172
G1 X32.075 Y52.922 E2.08441
G1 X32.007 Y52.126 E2.09944
G1 X32.075 Y50.922 E2.12212
G1 X32.007 Y50.126 E2.13715
G1 X32.075 Y48.922 E2.15983
G1 X32.007 Y48.126 E2.17486
G1 X32.075 Y46.922 E2.19754
G1 X32.007 Y46.126 E2.21257
G1 X32.075 Y44.922 E2.23526
G1 X32.007 Y44.126 E2.25028
G1 X32.075 Y42.922 E2.27297
G1 X32.007 Y42.126 E2.28799
G1 X32.075 Y40.916 E2.31079
G1 X32 Y40.003 E2.32802
G1 X32.032 Y38.882 E2.34912
G1 X32.46 Y37.042 E2.38465
G1 X33.429 Y35.321 E2.42181
G1 X34.16 Y34.375 E2.44429
G0 F3600 X34.449 Y34.656
G1 F300 X35.751 Y33.603 E2.47579
G1 X37.654 Y32.661 E2.51573
G1 X39.104 Y32.448 E2.5433
G1 X60.381 Y32.4 E2.94354
G1 X62.338 Y32.802 E2.98112
G1 X64.005 Y33.733 E3.01703
G1 X64.971 Y34.48 E3.04
G1 X65.997 Y35.757 E3.07082
G1 X66.975 Y37.718 E3.11204
G1 X67.194 Y39.872 E3.15276
G1 X67.14 Y40.963 E3.17331
G1 X67.123 Y41.082 E3.17557
G1 X67.194 Y41.908 E3.19117
G1 X67.124 Y43.088 E3.2134
G1 X67.194 Y43.908 E3.22888
G1 X67.124 Y45.088 E3.25112
G1 X67.194 Y45.908 E3.2666
G1 X67.124 Y47.088 E3.28884
G1 X67.194 Y47.908 E3.30432
G1 X67.124 Y49.088 E3.32655
G1 X67.194 Y49.908 E3.34203
G1 X67.124 Y51.088 E3.36427
G1 X67.194 Y51.908 E3.37975
G1 X67.124 Y53.088 E3.40198
G1 X67.194 Y53.908 E3.41747
G1 X67.124 Y55.088 E3.4397
G1 X67.194 Y55.908 E3.45518
G1 X67.124 Y57.088 E3.47742
G1 X67.194 Y57.908 E3.4929
G1 X67.124 Y59.094 E3.51525
G1 X67.2 Y59.986 E3.53209
G1 X67.169 Y61.065 E3.55239
G1 X66.763 Y62.812 E3.58613
G1 X65.854 Y64.434 E3.6211
G1 X65.151 Y65.344 E3.64273
G1 X63.849 Y66.397 E3.67423
G1 X61.946 Y67.339 E3.71417
G1 X60.496 Y67.552 E3.74174
G1 X39.219 Y67.6 E4.14198
G1 X37.262 Y67.198 E4.17956
G1 X35.595 Y66.267 E4.21547
G1 X34.629 Y65.52 E4.23844
G1 X33.603 Y64.243 E4.26926
G1 X32.625 Y62.282 E4.31048
G1 X32.406 Y60.128 E4.3512
G1 X32.46 Y59.037 E4.37175
G1 X32.477 Y58.918 E4.37401
G1 X32.406 Y58.092 E4.38961
G1 X32.476 Y56.912 E4.41184
G1 X32.406 Y56.092 E4.42732
G1 X32.476 Y54.912 E4.44956
G1 X32.406 Y54.092 E4.46504
G1 X32.476 Y52.912 E4.48728
G1 X32.406 Y52.092 E4.50276
G1 X32.476 Y50.912 E4.52499
G1 X32.406 Y50.092 E4.54047
G1 X32.476 Y48.912 E4.56271
G1 X32.406 Y48.092 E4.57819
G1 X32.476 Y46.912 E4.60042
G1 X32.406 Y46.092 E4.61591
G1 X32.476 Y44.912 E4.63814
G1 X32.406 Y44.092 E4.65362
G1 X32.476 Y42.912 E4.67586
G1 X32.406 Y42.092 E4.69134
G1 X32.476 Y40.906 E4.71369
G1 X32.4 Y40.014 E4.73053
G1 X32.431 Y38.935 E4.75083
G1 X32.837 Y37.188 E4.78457
G1 X33.746 Y35.566 E4.81954
G1 X34.449 Y34.656 E4.84117
G0 F3600 X34.736 Y34.939
G1 F300 X35.972 Y33.939 E4.87108
G1 X37.772 Y33.048 E4.90886
G1 X39.162 Y32.844 E4.93529
G1 X60.339 Y32.8 E5.33364
G1 X62.197 Y33.182 E5.36932
G1 X63.76 Y34.049 E5.40294
G1 X64.687 Y34.766 E5.42499
G1 X65.66 Y35.977 E5.45421
G1 X66.584 Y37.83 E5.49316
G1 X66.794 Y39.852 E5.5314
G1 X66.74 Y40.943 E5.55194
G1 X66.72 Y41.072 E5.5544
G1 X66.795 Y41.942 E5.57083
G1 X66.733 Y43 E5.59076
G1 X66.721 Y43.075 E5.59219
G1 X66.795 Y43.942 E5.60856
G1 X66.733 Y45 E5.62849
G1 X66.721 Y45.075 E5.62992
G1 X66.795 Y45.942 E5.64629
G1 X66.733 Y47 E5.66623
G1 X66.721 Y47.075 E5.66766
G1 X66.795 Y47.942 E5.68402
G1 X66.733 Y49 E5.70396
G1 X66.721 Y49.075 E5.70539
G1 X66.795 Y49.942 E5.72176
G1 X66.733 Y51 E5.74169
G1 X66.721 Y51.075 E5.74312
G1 X66.795 Y51.942 E5.75949
G1 X66.733 Y53 E5.77942
G1 X66.721 Y53.075 E5.78085
G1 X66.795 Y53.942 E5.79722
G1 X66.733 Y55 E5.81716
G1 X66.721 Y55.075 E5.81859
G1 X66.795 Y55.942 E5.83495
G1 X66.733 Y57 E5.85489
G1 X66.721 Y57.075 E5.85632
G1 X66.795 Y57.942 E5.87269
G1 X66.733 Y59.003 E5.89268
G1 X66.721 Y59.076 E5.89407
G1 X66.8 Y59.974 E5.91103
G1 X66.77 Y61.012 E5.93056
G1 X66.385 Y62.668 E5.96254
G1 X65.538 Y64.189 E5.99529
G1 X64.864 Y65.061 E6.01602
G1 X63.628 Y66.061 E6.04593
G1 X61.828 Y66.952 E6.08371
G1 X60.438 Y67.156 E6.11013
G1 X39.261 Y67.2 E6.50849
G1 X37.403 Y66.818 E6.54417
G1 X35.84 Y65.951 E6.57779
G1 X34.913 Y65.234 E6.59983
G1 X33.94 Y64.023 E6.62905
G1 X33.016 Y62.17 E6.668
G1 X32.806 Y60.148 E6.70624
G1 X32.86 Y59.057 E6.72679
G1 X32.88 Y58.928 E6.72925
G1 X32.805 Y58.058 E6.74567
G1 X32.867 Y57 E6.76561
G1 X32.879 Y56.925 E6.76704
G1 X32.805 Y56.058 E6.7834
G1 X32.867 Y55 E6.80334
G1 X32.879 Y54.925 E6.80477
G1 X32.805 Y54.058 E6.82114
G1 X32.867 Y53 E6.84107
G1 X32.879 Y52.925 E6.8425
G1 X32.805 Y52.058 E6.85887
G1 X32.867 Y51 E6.8788
G1 X32.879 Y50.925 E6.88023
G1 X32.805 Y50.058 E6.8966
G1 X32.867 Y49 E6.91654
G1 X32.879 Y48.925 E6.91797
G1 X32.805 Y48.058 E6.93433
G1 X32.867 Y47 E6.95427
G1 X32.879 Y46.925 E6.9557
G1 X32.805 Y46.058 E6.97207
G1 X32.867 Y45 E6.992
G1 X32.879 Y44.925 E6.99343
G1 X32.805 Y44.058 E7.0098
G1 X32.867 Y43 E7.02973
G1 X32.879 Y42.925 E7.03116
G1 X32.805 Y42.058 E7.04753
G1 X32.867 Y40.997 E7.06752
G1 X32.879 Y40.923 E7.06893
G1 X32.8 Y40.026 E7.08587
G1 X32.83 Y38.988 E7.10541
G1 X33.215 Y37.332 E7.13739
G1 X34.062 Y35.811 E7.17013
G1 X34.736 Y34.939 E7.19087
G0 F3600 X35.023 Y35.222
G1 F300 X36.193 Y34.275 E7.21918
G1 X37.89 Y33.435 E7.2548
G1 X39.22 Y33.24 E7.28008
G1 X60.297 Y33.2 E7.67655
G1 X62.057 Y33.562 E7.71035
G1 X63.566 Y34.399 E7.74281
G1 X64.402 Y35.051 E7.76276
G1 X65.323 Y36.197 E7.79041
G1 X66.193 Y37.942 E7.82709
G1 X66.394 Y39.832 E7.86284
G1 X66.34 Y40.923 E7.88339
G1 X66.317 Y41.059 E7.88598
G1 X66.396 Y41.976 E7.9033
G1 X66.338 Y42.937 E7.92141
G1 X66.318 Y43.062 E7.92379
G1 X66.396 Y43.976 E7.94104
G1 X66.338 Y44.937 E7.95915
G1 X66.318 Y45.062 E7.96153
G1 X66.396 Y45.976 E7.97879
G1 X66.338 Y46.937 E7.9969
G1 X66.318 Y47.062 E7.99928
G1 X66.396 Y47.976 E8.01654
G1 X66.338 Y48.937 E8.03465
G1 X66.318 Y49.062 E8.03703
G1 X66.396 Y49.976 E8.05428
G1 X66.338 Y50.937 E8.07239
G1 X66.318 Y51.062 E8.07477
G1 X66.396 Y51.976 E8.09203
G1 X66.338 Y52.937 E8.11014
G1 X66.318 Y53.062 E8.11252
G1 X66.396 Y53.976 E8.12978
G1 X66.338 Y54.937 E8.14789
G1 X66.318 Y55.062 E8.15027
G1 X66.396 Y55.976 E8.16752
G1 X66.338 Y56.937 E8.18563
G1 X66.318 Y57.062 E8.18801
G1 X66.396 Y57.976 E8.20527
G1 X66.338 Y58.938 E8.2234
G1 X66.318 Y59.059 E8.2257
G1 X66.4 Y59.962 E8.24276
G1 X66.371 Y60.96 E8.26154
G1 X66.008 Y62.523 E8.29172
G1 X65.222 Y63.944 E8.32227
G1 X64.577 Y64.778 E8.3421
G1 X63.407 Y65.725 E8.37042
G1 X61.71 Y66.565 E8.40604
G1 X60.38 Y66.76 E8.43132
G1 X39.303 Y66.8 E8.82779
G1 X37.543 Y66.438 E8.86159
G1 X36.034 Y65.601 E8.89405
G1 X35.198 Y64.949 E8.91399
G1 X34.277 Y63.803 E8.94165
G1 X33.407 Y62.058 E8.97833
G1 X33.206 Y60.168 E9.01408
G1 X33.26 Y59.077 E9.03463
G1 X33.283 Y58.941 E9.03722
G1 X33.204 Y58.024 E9.05453
G1 X33.262 Y57.063 E9.07264
G1 X33.282 Y56.938 E9.07503
G1 X33.204 Y56.024 E9.09228
G1 X33.262 Y55.063 E9.11039
G1 X33.282 Y54.938 E9.11277
G1 X33.204 Y54.024 E9.13003
G1 X33.262 Y53.063 E9.14814
G1 X33.282 Y52.938 E9.15052
G1 X33.204 Y52.024 E9.16777
G1 X33.262 Y51.063 E9.18588
G1 X33.282 Y50.938 E9.18826
G1 X33.204 Y50.024 E9.20552
G1 X33.262 Y49.063 E9.22363
G1 X33.282 Y48.938 E9.22601
G1 X33.204 Y48.024 E9.24327
G1 X33.262 Y47.063 E9.26138
G1 X33.282 Y46.938 E9.26376
G1 X33.204 Y46.024 E9.28101
G1 X33.262 Y45.063 E9.29912
G1 X33.282 Y44.938 E9.3015
G1 X33.204 Y44.024 E9.31876
G1 X33.262 Y43.063 E9.33687
G1 X33.282 Y42.938 E9.33925
G1 X33.204 Y42.024 E9.35651
G1 X33.262 Y41.062 E9.37463
G1 X33.282 Y40.941 E9.37694
G1 X33.2 Y40.038 E9.394
G1 X33.229 Y39.04 E9.41278
G1 X33.592 Y37.477 E9.44296
G1 X34.378 Y36.056 E9.47351
G1 X35.023 Y35.222 E9.49334
G0 F3600 X35.309 Y35.505
G1 F300 X36.414 Y34.611 E9.52008
G1 X38.008 Y33.822 E9.55353
G1 X39.278 Y33.636 E9.57768
G1 X60.255 Y33.6 E9.97227
G1 X61.917 Y33.942 E10.00418
G1 X63.372 Y34.749 E10.03548
G1 X64.117 Y35.335 E10.05331
G1 X64.986 Y36.416 E10.0794
G1 X65.802 Y38.055 E10.11384
G1 X65.994 Y39.813 E10.14711
G1 X65.945 Y40.857 E10.16677
G1 X65.914 Y41.043 E10.17031
G1 X65.997 Y42.01 E10.18857
G1 X65.939 Y42.911 E10.20555
G1 X65.914 Y43.043 E10.20808
G1 X65.997 Y44.01 E10.22634
G1 X65.939 Y44.911 E10.24332
G1 X65.914 Y45.043 E10.24585
G1 X65.997 Y46.01 E10.2641
G1 X65.939 Y46.911 E10.28109
G1 X65.914 Y47.043 E10.28362
G1 X65.997 Y48.01 E10.30187
G1 X65.939 Y48.911 E10.31886
G1 X65.914 Y49.043 E10.32138
G1 X65.997 Y50.01 E10.33964
G1 X65.939 Y50.911 E10.35662
G1 X65.914 Y51.043 E10.35915
G1 X65.997 Y52.01 E10.37741
G1 X65.939 Y52.911 E10.39439
G1 X65.914 Y53.043 E10.39692
G1 X65.997 Y54.01 E10.41517
G1 X65.939 Y54.911 E10.43216
G1 X65.914 Y55.043 E10.43468
G1 X65.997 Y56.01 E10.45294
G1 X65.939 Y56.911 E10.46992
G1 X65.914 Y57.043 E10.47245
G1 X65.997 Y58.01 E10.49071
G1 X65.939 Y58.912 E10.50771
G1 X65.915 Y59.039 E10.51014
G1 X66 Y59.95 E10.52735
G1 X65.972 Y60.908 E10.54538
G1 X65.631 Y62.378 E10.57377
G1 X64.872 Y63.75 E10.60326
G1 X64.291 Y64.495 E10.62103
G1 X63.186 Y65.389 E10.64777
G1 X61.592 Y66.178 E10.68122
G1 X60.322 Y66.364 E10.70537
G1 X39.345 Y66.4 E11.09996
G1 X37.683 Y66.058 E11.13188
G1 X36.228 Y65.251 E11.16317
G1 X35.483 Y64.665 E11.181
G1 X34.614 Y63.584 E11.20709
G1 X33.798 Y61.945 E11.24153
G1 X33.606 Y60.187 E11.2748
G1 X33.655 Y59.143 E11.29446
G1 X33.686 Y58.957 E11.29801
G1 X33.603 Y57.99 E11.31626
G1 X33.661 Y57.089 E11.33325
G1 X33.686 Y56.957 E11.33577
G1 X33.603 Y55.99 E11.35403
G1 X33.661 Y55.089 E11.37101
G1 X33.686 Y54.957 E11.37354
G1 X33.603 Y53.99 E11.3918
G1 X33.661 Y53.089 E11.40878
G1 X33.686 Y52.957 E11.41131
G1 X33.603 Y51.99 E11.42956
G1 X33.661 Y51.089 E11.44655
G1 X33.686 Y50.957 E11.44908
G1 X33.603 Y49.99 E11.46733
G1 X33.661 Y49.089 E11.48432
G1 X33.686 Y48.957 E11.48684
G1 X33.603 Y47.99 E11.5051
G1 X33.661 Y47.089 E11.52208
G1 X33.686 Y46.957 E11.52461
G1 X33.603 Y45.99 E11.54287
G1 X33.661 Y45.089 E11.55985
G1 X33.686 Y44.957 E11.56238
G1 X33.603 Y43.99 E11.58063
G1 X33.661 Y43.089 E11.59762
G1 X33.686 Y42.957 E11.60014
G1 X33.603 Y41.99 E11.6184
G1 X33.661 Y41.088 E11.6354
G1 X33.685 Y40.961 E11.63783
G1 X33.6 Y40.05 E11.65504
G1 X33.628 Y39.092 E11.67307
G1 X33.969 Y37.622 E11.70146
G1 X34.728 Y36.25 E11.73095
G1 X35.309 Y35.505 E11.74872
G0 F3600 X35.596 Y35.788
G1 F300 X36.635 Y34.947 E11.77387
G1 X38.126 Y34.209 E11.80516
G1 X39.336 Y34.032 E11.82817
G1 X60.213 Y34 E12.22087
G1 X61.777 Y34.322 E12.25091
G1 X63.178 Y35.099 E12.28105
G1 X63.832 Y35.62 E12.29677
G1 X64.649 Y36.635 E12.32128
G1 X65.412 Y38.168 E12.3535
G1 X65.596 Y39.856 E12.38544
G1 X65.546 Y40.837 E12.40391
G1 X65.511 Y41.022 E12.40745
G1 X65.598 Y41.986 E12.42566
G1 X65.546 Y42.837 E12.4417
G1 X65.511 Y43.022 E12.44524
G1 X65.598 Y43.986 E12.46345
G1 X65.546 Y44.837 E12.47949
G1 X65.511 Y45.022 E12.48303
G1 X65.598 Y45.986 E12.50123
G1 X65.546 Y46.837 E12.51727
G1 X65.511 Y47.022 E12.52081
G1 X65.598 Y47.986 E12.53902
G1 X65.546 Y48.837 E12.55506
G1 X65.511 Y49.022 E12.5586
G1 X65.598 Y49.986 E12.57681
G1 X65.546 Y50.837 E12.59284
G1 X65.511 Y51.022 E12.59639
G1 X65.598 Y51.986 E12.61459
G1 X65.546 Y52.837 E12.63063
G1 X65.511 Y53.022 E12.63417
G1 X65.598 Y53.986 E12.65238
G1 X65.546 Y54.837 E12.66842
G1 X65.511 Y55.022 E12.67196
G1 X65.598 Y55.986 E12.69017
G1 X65.546 Y56.837 E12.7062
G1 X65.511 Y57.022 E12.70975
G1 X65.598 Y57.986 E12.72795
G1 X65.546 Y58.837 E12.74399
G1 X65.511 Y59.02 E12.74749
G1 X65.6 Y59.938 E12.76484
G1 X65.573 Y60.856 E12.78212
G1 X65.254 Y62.233 E12.80871
G1 X64.522 Y63.556 E12.83715
G1 X64.004 Y64.212 E12.85287
G1 X62.965 Y65.053 E12.87802
G1 X61.474 Y65.791 E12.90931
G1 X60.264 Y65.968 E12.93231
G1 X39.387 Y66 E13.32502
G1 X37.823 Y65.678 E13.35506
G1 X36.422 Y64.901 E13.38519
G1 X35.768 Y64.38 E13.40092
G1 X34.951 Y63.365 E13.42543
G1 X34.188 Y61.832 E13.45764
G1 X34.004 Y60.144 E13.48958
G1 X34.054 Y59.163 E13.50806
G1 X34.089 Y58.978 E13.5116
G1 X34.002 Y58.014 E13.52981
G1 X34.054 Y57.163 E13.54585
G1 X34.089 Y56.978 E13.54939
G1 X34.002 Y56.014 E13.5676
G1 X34.054 Y55.163 E13.58363
G1 X34.089 Y54.978 E13.58718
G1 X34.002 Y54.014 E13.60538
G1 X34.054 Y53.163 E13.62142
G1 X34.089 Y52.978 E13.62496
G1 X34.002 Y52.014 E13.64317
G1 X34.054 Y51.163 E13.65921
G1 X34.089 Y50.978 E13.66275
G1 X34.002 Y50.014 E13.68095
G1 X34.054 Y49.163 E13.69699
G1 X34.089 Y48.978 E13.70053
G1 X34.002 Y48.014 E13.71874
G1 X34.054 Y47.163 E13.73478
G1 X34.089 Y46.978 E13.73832
G1 X34.002 Y46.014 E13.75653
G1 X34.054 Y45.163 E13.77257
G1 X34.089 Y44.978 E13.77611
G1 X34.002 Y44.014 E13.79431
G1 X34.054 Y43.163 E13.81035
G1 X34.089 Y42.978 E13.81389
G1 X34.002 Y42.014 E13.8321
G1 X34.054 Y41.163 E13.84814
G1 X34.089 Y40.98 E13.85164
G1 X34 Y40.062 E13.86899
G1 X34.027 Y39.144 E13.88627
G1 X34.346 Y37.767 E13.91286
G1 X35.078 Y36.444 E13.9413
G1 X35.596 Y35.788 E13.95702
G0 F3600 X35.882 Y36.072
G1 F300 X36.854 Y35.285 E13.98055
G1 X38.245 Y34.596 E14.00975
G1 X39.394 Y34.428 E14.03159
G1 X60.171 Y34.4 E14.42242
G1 X61.638 Y34.702 E14.45059
G1 X62.929 Y35.412 E14.4783
G1 X63.546 Y35.904 E14.49315
G1 X64.312 Y36.855 E14.51612
G1 X65.022 Y38.281 E14.54608
G1 X65.198 Y39.899 E14.5767
G1 X65.153 Y40.762 E14.59295
G1 X65.107 Y41.002 E14.59755
G1 X65.199 Y41.963 E14.61571
G1 X65.153 Y42.762 E14.63076
G1 X65.107 Y43.002 E14.63536
G1 X65.199 Y43.963 E14.65352
G1 X65.153 Y44.762 E14.66858
G1 X65.107 Y45.002 E14.67317
G1 X65.199 Y45.963 E14.69133
G1 X65.153 Y46.762 E14.70639
G1 X65.107 Y47.002 E14.71098
G1 X65.199 Y47.963 E14.72914
G1 X65.153 Y48.762 E14.7442
G1 X65.107 Y49.002 E14.74879
G1 X65.199 Y49.963 E14.76695
G1 X65.153 Y50.762 E14.78201
G1 X65.107 Y51.002 E14.7866
G1 X65.199 Y51.963 E14.80476
G1 X65.153 Y52.762 E14.81982
G1 X65.107 Y53.002 E14.82442
G1 X65.199 Y53.963 E14.84258
G1 X65.153 Y54.762 E14.85763
G1 X65.107 Y55.002 E14.86223
G1 X65.199 Y55.963 E14.88039
G1 X65.153 Y56.762 E14.89544
G1 X65.107 Y57.002 E14.90004
G1 X65.199 Y57.963 E14.9182
G1 X65.153 Y58.762 E14.93325
G1 X65.107 Y59.002 E14.93785
G1 X65.2 Y59.926 E14.95532
G1 X65.174 Y60.804 E14.97184
G1 X64.877 Y62.089 E14.99665
G1 X64.208 Y63.308 E15.0228
G1 X63.718 Y63.928 E15.03767
G1 X62.746 Y64.715 E15.0612
G1 X61.355 Y65.404 E15.09039
G1 X60.206 Y65.572 E15.11224
G1 X39.429 Y65.6 E15.50307
G1 X37.962 Y65.298 E15.53124
G1 X36.671 Y64.588 E15.55895
G1 X36.054 Y64.096 E15.5738
G1 X35.288 Y63.145 E15.59677
G1 X34.578 Y61.719 E15.62673
G1 X34.402 Y60.101 E15.65735
G1 X34.447 Y59.238 E15.6736
G1 X34.493 Y58.998 E15.6782
G1 X34.401 Y58.037 E15.69636
G1 X34.447 Y57.238 E15.71141
G1 X34.493 Y56.998 E15.71601
G1 X34.401 Y56.037 E15.73417
G1 X34.447 Y55.238 E15.74923
G1 X34.493 Y54.998 E15.75382
G1 X34.401 Y54.037 E15.77198
G1 X34.447 Y53.238 E15.78704
G1 X34.493 Y52.998 E15.79163
G1 X34.401 Y52.037 E15.80979
G1 X34.447 Y51.238 E15.82485
G1 X34.493 Y50.998 E15.82944
G1 X34.401 Y50.037 E15.8476
G1 X34.447 Y49.238 E15.86266
G1 X34.493 Y48.998 E15.86725
G1 X34.401 Y48.037 E15.88541
G1 X34.447 Y47.238 E15.90047
G1 X34.493 Y46.998 E15.90507
G1 X34.401 Y46.037 E15.92322
G1 X34.447 Y45.238 E15.93828
G1 X34.493 Y44.998 E15.94288
G1 X34.401 Y44.037 E15.96104
G1 X34.447 Y43.238 E15.97609
G1 X34.493 Y42.998 E15.98069
G1 X34.401 Y42.037 E15.99885
G1 X34.447 Y41.238 E16.0139
G1 X34.493 Y40.998 E16.0185
G1 X34.4 Y40.074 E16.03597
G1 X34.426 Y39.196 E16.05249
G1 X34.723 Y37.911 E16.0773
G1 X35.392 Y36.692 E16.10345
G1 X35.882 Y36.072 E16.11832
G0 F3600 X36.167 Y36.357
G1 F300 X37.073 Y35.623 E16.14025
G1 X38.364 Y34.983 E16.16736
G1 X39.452 Y34.824 E16.18804
G1 X60.129 Y34.8 E16.57699
G1 X61.5 Y35.082 E16.60332
G1 X62.68 Y35.725 E16.62859
G1 X63.263 Y36.19 E16.64262
G1 X63.973 Y37.071 E16.66391
G1 X64.632 Y38.394 E16.69171
G1 X64.8 Y39.942 E16.721
G1 X64.76 Y40.687 E16.73503
G1 X64.703 Y40.984 E16.74072
G1 X64.8 Y41.942 E16.75883
G1 X64.76 Y42.687 E16.77287
G1 X64.703 Y42.984 E16.77856
G1 X64.8 Y43.942 E16.79667
G1 X64.76 Y44.687 E16.8107
G1 X64.703 Y44.984 E16.81639
G1 X64.8 Y45.942 E16.8345
G1 X64.76 Y46.687 E16.84854
G1 X64.703 Y46.984 E16.85423
G1 X64.8 Y47.942 E16.87234
G1 X64.76 Y48.687 E16.88637
G1 X64.703 Y48.984 E16.89206
G1 X64.8 Y49.942 E16.91018
G1 X64.76 Y50.687 E16.92421
G1 X64.703 Y50.984 E16.9299
G1 X64.8 Y51.942 E16.94801
G1 X64.76 Y52.687 E16.96204
G1 X64.703 Y52.984 E16.96773
G1 X64.8 Y53.942 E16.98585
G1 X64.76 Y54.687 E16.99988
G1 X64.703 Y54.984 E17.00557
G1 X64.8 Y55.942 E17.02368
G1 X64.76 Y56.687 E17.03772
G1 X64.703 Y56.984 E17.0434
G1 X64.8 Y57.942 E17.06152
G1 X64.76 Y58.687 E17.07555
G1 X64.703 Y58.985 E17.08126
G1 X64.8 Y59.914 E17.09883
G1 X64.775 Y60.752 E17.1146
G1 X64.5 Y61.944 E17.13761
G1 X63.857 Y63.115 E17.16274
G1 X63.433 Y63.643 E17.17548
G1 X62.527 Y64.377 E17.19741
G1 X61.236 Y65.017 E17.22451
G1 X60.148 Y65.176 E17.2452
G1 X39.471 Y65.2 E17.63414
G1 X38.1 Y64.918 E17.66047
G1 X36.92 Y64.275 E17.68575
G1 X36.337 Y63.81 E17.69978
G1 X35.627 Y62.929 E17.72106
G1 X34.968 Y61.606 E17.74887
G1 X34.8 Y60.058 E17.77816
G1 X34.84 Y59.313 E17.79219
G1 X34.897 Y59.016 E17.79788
G1 X34.8 Y58.058 E17.81599
G1 X34.84 Y57.313 E17.83002
G1 X34.897 Y57.016 E17.83571
G1 X34.8 Y56.058 E17.85383
G1 X34.84 Y55.313 E17.86786
G1 X34.897 Y55.016 E17.87355
G1 X34.8 Y54.058 E17.89166
G1 X34.84 Y53.313 E17.9057
G1 X34.897 Y53.016 E17.91138
G1 X34.8 Y52.058 E17.9295
G1 X34.84 Y51.313 E17.94353
G1 X34.897 Y51.016 E17.94922
G1 X34.8 Y50.058 E17.96733
G1 X34.84 Y49.313 E17.98137
G1 X34.897 Y49.016 E17.98706
G1 X34.8 Y48.058 E18.00517
G1 X34.84 Y47.313 E18.0192
G1 X34.897 Y47.016 E18.02489
G1 X34.8 Y46.058 E18.043
G1 X34.84 Y45.313 E18.05704
G1 X34.897 Y45.016 E18.06273
G1 X34.8 Y44.058 E18.08084
G1 X34.84 Y43.313 E18.09487
G1 X34.897 Y43.016 E18.10056
G1 X34.8 Y42.058 E18.11867
G1 X34.84 Y41.313 E18.13271
G1 X34.897 Y41.015 E18.13842
G1 X34.8 Y40.086 E18.15599
G1 X34.825 Y39.248 E18.17176
G1 X35.1 Y38.056 E18.19477
G1 X35.743 Y36.885 E18.2199
G1 X36.167 Y36.357 E18.23263
G0 F3600 X36.453 Y36.641
G1 F300 X37.292 Y35.961 E18.25295
G1 X38.483 Y35.37 E18.27796
G1 X39.51 Y35.22 E18.29748
G1 X60.087 Y35.2 E18.68455
G1 X61.362 Y35.462 E18.70903
G1 X62.431 Y36.038 E18.73187
G1 X62.978 Y36.474 E18.74503
G1 X63.636 Y37.291 E18.76476
G1 X64.241 Y38.506 E18.7903
G1 X64.4 Y39.923 E18.81712
G1 X64.367 Y40.612 E18.83009
G1 X64.299 Y40.968 E18.83691
G1 X64.4 Y41.923 E18.85497
G1 X64.367 Y42.612 E18.86795
G1 X64.299 Y42.968 E18.87477
G1 X64.4 Y43.923 E18.89283
G1 X64.367 Y44.612 E18.90581
G1 X64.299 Y44.968 E18.91263
G1 X64.4 Y45.923 E18.93069
G1 X64.367 Y46.612 E18.94366
G1 X64.299 Y46.968 E18.95048
G1 X64.4 Y47.923 E18.96855
G1 X64.367 Y48.612 E18.98152
G1 X64.299 Y48.968 E18.98834
G1 X64.4 Y49.923 E19.0064
G1 X64.367 Y50.612 E19.01938
G1 X64.299 Y50.968 E19.0262
G1 X64.4 Y51.923 E19.04426
G1 X64.367 Y52.612 E19.05724
G1 X64.299 Y52.968 E19.06405
G1 X64.4 Y53.923 E19.08212
G1 X64.367 Y54.612 E19.09509
G1 X64.299 Y54.968 E19.10191
G1 X64.4 Y55.923 E19.11998
G1 X64.367 Y56.612 E19.13295
G1 X64.299 Y56.968 E19.13977
G1 X64.4 Y57.923 E19.15783
G1 X64.367 Y58.612 E19.17081
G1 X64.299 Y58.969 E19.17764
G1 X64.4 Y59.902 E19.1953
G1 X64.376 Y60.7 E19.21031
G1 X64.122 Y61.802 E19.23159
G1 X63.545 Y62.864 E19.25432
G1 X63.147 Y63.359 E19.26627
G1 X62.308 Y64.039 E19.28658
G1 X61.117 Y64.63 E19.31159
G1 X60.09 Y64.78 E19.33112
G1 X39.513 Y64.8 E19.71818
G1 X38.238 Y64.538 E19.74267
G1 X37.169 Y63.962 E19.76551
G1 X36.622 Y63.526 E19.77867
G1 X35.964 Y62.709 E19.7984
G1 X35.359 Y61.494 E19.82393
G1 X35.2 Y60.077 E19.85075
G1 X35.233 Y59.388 E19.86373
G1 X35.301 Y59.032 E19.87055
G1 X35.2 Y58.077 E19.88861
G1 X35.233 Y57.388 E19.90159
G1 X35.301 Y57.032 E19.9084
G1 X35.2 Y56.077 E19.92647
G1 X35.233 Y55.388 E19.93944
G1 X35.301 Y55.032 E19.94626
G1 X35.2 Y54.077 E19.96433
G1 X35.233 Y53.388 E19.9773
G1 X35.301 Y53.032 E19.98412
G1 X35.2 Y52.077 E20.00218
G1 X35.233 Y51.388 E20.01516
G1 X35.301 Y51.032 E20.02198
G1 X35.2 Y50.077 E20.04004
G1 X35.233 Y49.388 E20.05301
G1 X35.301 Y49.032 E20.05983
G1 X35.2 Y48.077 E20.0779
G1 X35.233 Y47.388 E20.09087
G1 X35.301 Y47.032 E20.09769
G1 X35.2 Y46.077 E20.11575
G1 X35.233 Y45.388 E20.12873
G1 X35.301 Y45.032 E20.13555
G1 X35.2 Y44.077 E20.15361
G1 X35.233 Y43.388 E20.16659
G1 X35.301 Y43.032 E20.1734
G1 X35.2 Y42.077 E20.19147
G1 X35.233 Y41.388 E20.20444
G1 X35.301 Y41.031 E20.21128
G1 X35.2 Y40.098 E20.22893
G1 X35.224 Y39.3 E20.24395
G1 X35.478 Y38.198 E20.26522
G1 X36.055 Y37.136 E20.28796
G1 X36.453 Y36.641 E20.29991
G0 F3600 X36.737 Y36.926
G1 F300 X37.511 Y36.299 E20.31864
G1 X38.603 Y35.757 E20.34157
G1 X39.568 Y35.616 E20.35992
G1 X60.046 Y35.6 E20.74512
G1 X61.224 Y35.842 E20.76774
G1 X62.241 Y36.39 E20.78947
G1 X62.691 Y36.756 E20.80039
G1 X63.299 Y37.511 E20.81862
G1 X63.852 Y38.621 E20.84195
G1 X64 Y39.904 E20.86624
G1 X63.967 Y40.593 E20.87922
G1 X63.89 Y40.971 E20.88647
G1 X63.911 Y41.067 E20.88832
G1 X64 Y41.904 E20.90416
G1 X63.967 Y42.593 E20.91713
G1 X63.89 Y42.971 E20.92439
G1 X63.911 Y43.067 E20.92624
G1 X64 Y43.904 E20.94207
G1 X63.967 Y44.593 E20.95504
G1 X63.89 Y44.971 E20.9623
G1 X63.911 Y45.067 E20.96415
G1 X64 Y45.904 E20.97998
G1 X63.967 Y46.593 E20.99296
G1 X63.89 Y46.971 E21.00021
G1 X63.911 Y47.067 E21.00206
G1 X64 Y47.904 E21.0179
G1 X63.967 Y48.593 E21.03087
G1 X63.89 Y48.971 E21.03813
G1 X63.911 Y49.067 E21.03998
G1 X64 Y49.904 E21.05581
G1 X63.967 Y50.593 E21.06878
G1 X63.89 Y50.971 E21.07604
G1 X63.911 Y51.067 E21.07789
G1 X64 Y51.904 E21.09372
G1 X63.967 Y52.593 E21.1067
G1 X63.89 Y52.971 E21.11395
G1 X63.911 Y53.067 E21.1158
G1 X64 Y53.904 E21.13164
G1 X63.967 Y54.593 E21.14461
G1 X63.89 Y54.971 E21.15187
G1 X63.911 Y55.067 E21.15372
G1 X64 Y55.904 E21.16955
G1 X63.967 Y56.593 E21.18252
G1 X63.89 Y56.971 E21.18978
G1 X63.911 Y57.067 E21.19163
G1 X64 Y57.904 E21.20746
G1 X63.967 Y58.593 E21.22044
G1 X63.89 Y58.971 E21.22769
G1 X63.91 Y59.067 E21.22954
G1 X64 Y59.89 E21.24511
G1 X63.977 Y60.648 E21.25938
G1 X63.744 Y61.658 E21.27888
G1 X63.193 Y62.673 E21.3006
G1 X62.863 Y63.074 E21.31037
G1 X62.089 Y63.701 E21.32911
G1 X60.997 Y64.243 E21.35204
G1 X60.032 Y64.384 E21.37038
G1 X39.554 Y64.4 E21.75559
G1 X38.376 Y64.158 E21.77821
G1 X37.359 Y63.61 E21.79994
G1 X36.909 Y63.244 E21.81085
G1 X36.301 Y62.489 E21.82908
G1 X35.748 Y61.379 E21.85241
G1 X35.6 Y60.096 E21.8767
G1 X35.633 Y59.407 E21.88968
G1 X35.71 Y59.029 E21.89694
G1 X35.689 Y58.933 E21.89879
G1 X35.6 Y58.096 E21.91462
G1 X35.633 Y57.407 E21.92759
G1 X35.71 Y57.029 E21.93485
G1 X35.689 Y56.933 E21.9367
G1 X35.6 Y56.096 E21.95253
G1 X35.633 Y55.407 E21.96551
G1 X35.71 Y55.029 E21.97276
G1 X35.689 Y54.933 E21.97461
G1 X35.6 Y54.096 E21.99045
G1 X35.633 Y53.407 E22.00342
G1 X35.71 Y53.029 E22.01068
G1 X35.689 Y52.933 E22.01253
G1 X35.6 Y52.096 E22.02836
G1 X35.633 Y51.407 E22.04133
G1 X35.71 Y51.029 E22.04859
G1 X35.689 Y50.933 E22.05044
G1 X35.6 Y50.096 E22.06627
G1 X35.633 Y49.407 E22.07925
G1 X35.71 Y49.029 E22.0865
G1 X35.689 Y48.933 E22.08835
G1 X35.6 Y48.096 E22.10419
G1 X35.633 Y47.407 E22.11716
G1 X35.71 Y47.029 E22.12442
G1 X35.689 Y46.933 E22.12627
G1 X35.6 Y46.096 E22.1421
G1 X35.633 Y45.407 E22.15507
G1 X35.71 Y45.029 E22.16233
G1 X35.689 Y44.933 E22.16418
G1 X35.6 Y44.096 E22.18001
G1 X35.633 Y43.407 E22.19299
G1 X35.71 Y43.029 E22.20024
G1 X35.689 Y42.933 E22.20209
G1 X35.6 Y42.096 E22.21793
G1 X35.633 Y41.407 E22.2309
G1 X35.71 Y41.029 E22.23816
G1 X35.69 Y40.933 E22.24
G1 X35.6 Y40.11 E22.25558
G1 X35.623 Y39.352 E22.26984
G1 X35.856 Y38.342 E22.28934
G1 X36.407 Y37.327 E22.31106
G1 X36.737 Y36.926 E22.32083
G0 F3600 X36.989 Y37.237
G1 F300 X37.73 Y36.637 E22.33877
G1 X38.723 Y36.144 E22.35962
G1 X39.626 Y36.012 E22.37679
G1 X60.005 Y36 E22.76013
G1 X61.086 Y36.222 E22.78089
G1 X61.994 Y36.705 E22.80023
G1 X62.379 Y37.007 E22.80944
G1 X62.962 Y37.731 E22.82692
G1 X63.463 Y38.737 E22.84806
G1 X63.6 Y39.888 E22.86987
G1 X63.575 Y40.514 E22.88165
G1 X63.481 Y40.978 E22.89056
G1 X63.513 Y41.112 E22.89315
G1 X63.6 Y41.888 E22.90784
G1 X63.575 Y42.514 E22.91962
G1 X63.481 Y42.978 E22.92853
G1 X63.513 Y43.112 E22.93112
G1 X63.6 Y43.888 E22.94581
G1 X63.575 Y44.514 E22.95759
G1 X63.481 Y44.978 E22.9665
G1 X63.513 Y45.112 E22.96909
G1 X63.6 Y45.888 E22.98378
G1 X63.575 Y46.514 E22.99556
G1 X63.481 Y46.978 E23.00447
G1 X63.513 Y47.112 E23.00706
G1 X63.6 Y47.888 E23.02175
G1 X63.575 Y48.514 E23.03353
G1 X63.481 Y48.978 E23.04244
G1 X63.513 Y49.112 E23.04503
G1 X63.6 Y49.888 E23.05972
G1 X63.575 Y50.514 E23.0715
G1 X63.481 Y50.978 E23.08041
G1 X63.513 Y51.112 E23.083
G1 X63.6 Y51.888 E23.09769
G1 X63.575 Y52.514 E23.10947
G1 X63.481 Y52.978 E23.11838
G1 X63.513 Y53.112 E23.12097
G1 X63.6 Y53.888 E23.13566
G1 X63.575 Y54.514 E23.14744
G1 X63.481 Y54.978 E23.15635
G1 X63.513 Y55.112 E23.15894
G1 X63.6 Y55.888 E23.17363
G1 X63.575 Y56.514 E23.18541
G1 X63.481 Y56.978 E23.19432
G1 X63.513 Y57.112 E23.19691
G1 X63.6 Y57.888 E23.2116
G1 X63.575 Y58.514 E23.22338
G1 X63.481 Y58.978 E23.23229
G1 X63.513 Y59.112 E23.23488
G1 X63.6 Y59.878 E23.24938
G1 X63.578 Y60.596 E23.26289
G1 X63.366 Y61.514 E23.28062
G1 X62.841 Y62.482 E23.30133
G1 X62.611 Y62.763 E23.30816
G1 X61.87 Y63.363 E23.3261
G1 X60.877 Y63.856 E23.34695
G1 X59.974 Y63.988 E23.36412
G1 X39.595 Y64 E23.74746
G1 X38.514 Y63.778 E23.76822
G1 X37.606 Y63.295 E23.78756
G1 X37.221 Y62.993 E23.79677
G1 X36.638 Y62.269 E23.81425
G1 X36.137 Y61.263 E23.83539
G1 X36 Y60.112 E23.85719
G1 X36.025 Y59.486 E23.86898
G1 X36.119 Y59.022 E23.87789
G1 X36.087 Y58.888 E23.88048
G1 X36 Y58.112 E23.89516
G1 X36.025 Y57.486 E23.90695
G1 X36.119 Y57.022 E23.91586
G1 X36.087 Y56.888 E23.91845
G1 X36 Y56.112 E23.93314
G1 X36.025 Y55.486 E23.94492
G1 X36.119 Y55.022 E23.95383
G1 X36.087 Y54.888 E23.95642
G1 X36 Y54.112 E23.97111
G1 X36.025 Y53.486 E23.98289
G1 X36.119 Y53.022 E23.9918
G1 X36.087 Y52.888 E23.99439
G1 X36 Y52.112 E24.00908
G1 X36.025 Y51.486 E24.02086
G1 X36.119 Y51.022 E24.02977
G1 X36.087 Y50.888 E24.03236
G1 X36 Y50.112 E24.04705
G1 X36.025 Y49.486 E24.05883
G1 X36.119 Y49.022 E24.06774
G1 X36.087 Y48.888 E24.07033
G1 X36 Y48.112 E24.08502
G1 X36.025 Y47.486 E24.0968
G1 X36.119 Y47.022 E24.10571
G1 X36.087 Y46.888 E24.1083
G1 X36 Y46.112 E24.12299
G1 X36.025 Y45.486 E24.13477
G1 X36.119 Y45.022 E24.14368
G1 X36.087 Y44.888 E24.14627
G1 X36 Y44.112 E24.16096
G1 X36.025 Y43.486 E24.17274
G1 X36.119 Y43.022 E24.18165
G1 X36.087 Y42.888 E24.18424
G1 X36 Y42.112 E24.19893
G1 X36.025 Y41.486 E24.21071
G1 X36.119 Y41.022 E24.21962
G1 X36.087 Y40.888 E24.22221
G1 X36 Y40.122 E24.23671
G1 X36.022 Y39.404 E24.25022
G1 X36.234 Y38.486 E24.26794
G1 X36.759 Y37.518 E24.28866
G1 X36.989 Y37.237 E24.29549
G0 F3600 X37.241 Y37.548
G1 F300 X37.949 Y36.975 E24.31262
G1 X38.843 Y36.531 E24.3314
G1 X39.684 Y36.408 E24.34739
G1 X59.964 Y36.4 E24.72886
G1 X60.95 Y36.602 E24.7478
G1 X61.755 Y37.026 E24.76491
G1 X62.067 Y37.258 E24.77223
G1 X62.625 Y37.951 E24.78896
G1 X63.074 Y38.853 E24.80791
G1 X63.2 Y39.872 E24.82723
G1 X63.175 Y40.498 E24.83901
G1 X63.07 Y40.989 E24.84846
G1 X63.116 Y41.159 E24.85177
G1 X63.2 Y41.872 E24.86528
G1 X63.175 Y42.498 E24.87706
G1 X63.07 Y42.989 E24.8865
G1 X63.116 Y43.159 E24.88982
G1 X63.2 Y43.872 E24.90332
G1 X63.175 Y44.498 E24.91511
G1 X63.07 Y44.989 E24.92455
G1 X63.116 Y45.159 E24.92786
G1 X63.2 Y45.872 E24.94137
G1 X63.175 Y46.498 E24.95315
G1 X63.07 Y46.989 E24.9626
G1 X63.116 Y47.159 E24.96591
G1 X63.2 Y47.872 E24.97942
G1 X63.175 Y48.498 E24.9912
G1 X63.07 Y48.989 E25.00065
G1 X63.116 Y49.159 E25.00396
G1 X63.2 Y49.872 E25.01746
G1 X63.175 Y50.498 E25.02925
G1 X63.07 Y50.989 E25.03869
G1 X63.116 Y51.159 E25.04201
G1 X63.2 Y51.872 E25.05551
G1 X63.175 Y52.498 E25.0673
G1 X63.07 Y52.989 E25.07674
G1 X63.116 Y53.159 E25.08005
G1 X63.2 Y53.872 E25.09356
G1 X63.175 Y54.498 E25.10534
G1 X63.07 Y54.989 E25.11479
G1 X63.116 Y55.159 E25.1181
G1 X63.2 Y55.872 E25.1316
G1 X63.175 Y56.498 E25.14339
G1 X63.07 Y56.989 E25.15283
G1 X63.116 Y57.159 E25.15615
G1 X63.2 Y57.872 E25.16965
G1 X63.175 Y58.498 E25.18144
G1 X63.07 Y58.989 E25.19088
G1 X63.116 Y59.159 E25.19419
G1 X63.2 Y59.866 E25.20759
G1 X63.179 Y60.544 E25.22035
G1 X62.988 Y61.374 E25.23637
G1 X62.524 Y62.238 E25.25482
G1 X62.359 Y62.452 E25.2599
G1 X61.651 Y63.025 E25.27703
G1 X60.757 Y63.469 E25.29581
G1 X59.916 Y63.592 E25.3118
G1 X39.636 Y63.6 E25.69327
G1 X38.65 Y63.398 E25.71221
G1 X37.845 Y62.974 E25.72932
G1 X37.533 Y62.742 E25.73663
G1 X36.975 Y62.049 E25.75337
G1 X36.526 Y61.147 E25.77232
G1 X36.4 Y60.128 E25.79164
G1 X36.425 Y59.502 E25.80342
G1 X36.53 Y59.011 E25.81287
G1 X36.484 Y58.841 E25.81618
G1 X36.4 Y58.128 E25.82968
G1 X36.425 Y57.502 E25.84147
G1 X36.53 Y57.011 E25.85091
G1 X36.484 Y56.841 E25.85423
G1 X36.4 Y56.128 E25.86773
G1 X36.425 Y55.502 E25.87952
G1 X36.53 Y55.011 E25.88896
G1 X36.484 Y54.841 E25.89227
G1 X36.4 Y54.128 E25.90578
G1 X36.425 Y53.502 E25.91756
G1 X36.53 Y53.011 E25.92701
G1 X36.484 Y52.841 E25.93032
G1 X36.4 Y52.128 E25.94383
G1 X36.425 Y51.502 E25.95561
G1 X36.53 Y51.011 E25.96506
G1 X36.484 Y50.841 E25.96837
G1 X36.4 Y50.128 E25.98187
G1 X36.425 Y49.502 E25.99366
G1 X36.53 Y49.011 E26.0031
G1 X36.484 Y48.841 E26.00642
G1 X36.4 Y48.128 E26.01992
G1 X36.425 Y47.502 E26.0317
G1 X36.53 Y47.011 E26.04115
G1 X36.484 Y46.841 E26.04446
G1 X36.4 Y46.128 E26.05797
G1 X36.425 Y45.502 E26.06975
G1 X36.53 Y45.011 E26.0792
G1 X36.484 Y44.841 E26.08251
G1 X36.4 Y44.128 E26.09601
G1 X36.425 Y43.502 E26.1078
G1 X36.53 Y43.011 E26.11724
G1 X36.484 Y42.841 E26.12056
G1 X36.4 Y42.128 E26.13406
G1 X36.425 Y41.502 E26.14585
G1 X36.53 Y41.011 E26.15529
G1 X36.484 Y40.841 E26.1586
G1 X36.4 Y40.134 E26.172
G1 X36.421 Y39.456 E26.18476
G1 X36.612 Y38.626 E26.20078
G1 X37.076 Y37.762 E26.21922
G1 X37.241 Y37.548 E26.22431
G0 F3600 X37.529 Y37.829
G1 F300 X38.166 Y37.314 E26.23972
G1 X38.963 Y36.918 E26.25646
G1 X39.742 Y36.804 E26.27127
G1 X59.923 Y36.8 E26.65088
G1 X60.813 Y36.982 E26.66797
G1 X61.568 Y37.38 E26.68402
G1 X61.788 Y37.549 E26.68924
G1 X62.286 Y38.167 E26.70417
G1 X62.685 Y38.969 E26.72102
G1 X62.8 Y39.856 E26.73785
G1 X62.775 Y40.482 E26.74963
G1 X62.657 Y41.004 E26.7597
G1 X62.719 Y41.209 E26.76373
G1 X62.8 Y41.856 E26.77599
G1 X62.775 Y42.482 E26.78778
G1 X62.657 Y43.004 E26.79784
G1 X62.719 Y43.209 E26.80187
G1 X62.8 Y43.856 E26.81414
G1 X62.775 Y44.482 E26.82592
G1 X62.657 Y45.004 E26.83599
G1 X62.719 Y45.209 E26.84002
G1 X62.8 Y45.856 E26.85228
G1 X62.775 Y46.482 E26.86407
G1 X62.657 Y47.004 E26.87414
G1 X62.719 Y47.209 E26.87816
G1 X62.8 Y47.856 E26.89043
G1 X62.775 Y48.482 E26.90221
G1 X62.657 Y49.004 E26.91228
G1 X62.719 Y49.209 E26.91631
G1 X62.8 Y49.856 E26.92858
G1 X62.775 Y50.482 E26.94036
G1 X62.657 Y51.004 E26.95043
G1 X62.719 Y51.209 E26.95446
G1 X62.8 Y51.856 E26.96672
G1 X62.775 Y52.482 E26.97851
G1 X62.657 Y53.004 E26.98857
G1 X62.719 Y53.209 E26.9926
G1 X62.8 Y53.856 E27.00487
G1 X62.775 Y54.482 E27.01665
G1 X62.657 Y55.004 E27.02672
G1 X62.719 Y55.209 E27.03075
G1 X62.8 Y55.856 E27.04301
G1 X62.775 Y56.482 E27.0548
G1 X62.657 Y57.004 E27.06486
G1 X62.719 Y57.209 E27.06889
G1 X62.8 Y57.856 E27.08116
G1 X62.775 Y58.482 E27.09294
G1 X62.657 Y59.004 E27.10301
G1 X62.719 Y59.209 E27.10704
G1 X62.8 Y59.853 E27.11925
G1 X62.78 Y60.492 E27.13127
G1 X62.609 Y61.235 E27.14562
G1 X62.172 Y62.049 E27.16299
G1 X62.071 Y62.171 E27.16597
G1 X61.434 Y62.686 E27.18138
G1 X60.637 Y63.082 E27.19812
G1 X59.858 Y63.196 E27.21293
G1 X39.677 Y63.2 E27.59255
G1 X38.787 Y63.018 E27.60964
G1 X38.032 Y62.62 E27.62569
G1 X37.812 Y62.451 E27.63091
G1 X37.314 Y61.833 E27.64584
G1 X36.915 Y61.031 E27.66269
G1 X36.8 Y60.144 E27.67951
G1 X36.825 Y59.518 E27.6913
G1 X36.943 Y58.996 E27.70136
G1 X36.881 Y58.791 E27.70539
G1 X36.8 Y58.144 E27.71766
G1 X36.825 Y57.518 E27.72944
G1 X36.943 Y56.996 E27.73951
G1 X36.881 Y56.791 E27.74354
G1 X36.8 Y56.144 E27.7558
G1 X36.825 Y55.518 E27.76759
G1 X36.943 Y54.996 E27.77766
G1 X36.881 Y54.791 E27.78169
G1 X36.8 Y54.144 E27.79395
G1 X36.825 Y53.518 E27.80574
G1 X36.943 Y52.996 E27.8158
G1 X36.881 Y52.791 E27.81983
G1 X36.8 Y52.144 E27.8321
G1 X36.825 Y51.518 E27.84388
G1 X36.943 Y50.996 E27.85395
G1 X36.881 Y50.791 E27.85798
G1 X36.8 Y50.144 E27.87024
G1 X36.825 Y49.518 E27.88203
G1 X36.943 Y48.996 E27.89209
G1 X36.881 Y48.791 E27.89612
G1 X36.8 Y48.144 E27.90839
G1 X36.825 Y47.518 E27.92017
G1 X36.943 Y46.996 E27.93024
G1 X36.881 Y46.791 E27.93427
G1 X36.8 Y46.144 E27.94653
G1 X36.825 Y45.518 E27.95832
G1 X36.943 Y44.996 E27.96839
G1 X36.881 Y44.791 E27.97241
G1 X36.8 Y44.144 E27.98468
G1 X36.825 Y43.518 E27.99646
G1 X36.943 Y42.996 E28.00653
G1 X36.881 Y42.791 E28.01056
G1 X36.8 Y42.144 E28.02283
G1 X36.825 Y41.518 E28.03461
G1 X36.943 Y40.996 E28.04468
G1 X36.881 Y40.791 E28.04871
G1 X36.8 Y40.147 E28.06091
G1 X36.82 Y39.508 E28.07294
G1 X36.991 Y38.765 E28.08728
G1 X37.428 Y37.951 E28.10466
G1 X37.529 Y37.829 E28.10764
G0 F3600 X37.78 Y38.14
G1 F300 X38.383 Y37.653 E28.12222
G1 X39.083 Y37.305 E28.13693
G1 X39.8 Y37.2 E28.15056
G1 X59.882 Y37.2 E28.52831
G1 X60.678 Y37.363 E28.54359
G1 X61.382 Y37.734 E28.55856
G1 X61.507 Y37.837 E28.56161
G1 X61.947 Y38.383 E28.5748
G1 X62.297 Y39.087 E28.58959
G1 X62.4 Y39.84 E28.60389
G1 X62.375 Y40.466 E28.61567
G1 X62.241 Y41.025 E28.62648
G1 X62.323 Y41.262 E28.6312
G1 X62.4 Y41.84 E28.64217
G1 X62.375 Y42.466 E28.65395
G1 X62.241 Y43.025 E28.66477
G1 X62.323 Y43.262 E28.66948
G1 X62.4 Y43.84 E28.68045
G1 X62.375 Y44.466 E28.69224
G1 X62.241 Y45.025 E28.70305
G1 X62.323 Y45.262 E28.70777
G1 X62.4 Y45.84 E28.71874
G1 X62.375 Y46.466 E28.73052
G1 X62.241 Y47.025 E28.74133
G1 X62.323 Y47.262 E28.74605
G1 X62.4 Y47.84 E28.75702
G1 X62.375 Y48.466 E28.7688
G1 X62.241 Y49.025 E28.77962
G1 X62.323 Y49.262 E28.78434
G1 X62.4 Y49.84 E28.7953
G1 X62.375 Y50.466 E28.80709
G1 X62.241 Y51.025 E28.8179
G1 X62.323 Y51.262 E28.82262
G1 X62.4 Y51.84 E28.83359
G1 X62.375 Y52.466 E28.84537
G1 X62.241 Y53.025 E28.85619
G1 X62.323 Y53.262 E28.8609
G1 X62.4 Y53.84 E28.87187
G1 X62.375 Y54.466 E28.88366
G1 X62.241 Y55.025 E28.89447
G1 X62.323 Y55.262 E28.89919
G1 X62.4 Y55.84 E28.91016
G1 X62.375 Y56.466 E28.92194
G1 X62.241 Y57.025 E28.93275
G1 X62.323 Y57.262 E28.93747
G1 X62.4 Y57.84 E28.94844
G1 X62.375 Y58.466 E28.96022
G1 X62.241 Y59.025 E28.97104
G1 X62.323 Y59.262 E28.97575
G1 X62.4 Y59.84 E28.98672
G1 X62.381 Y60.44 E28.99801
G1 X62.23 Y61.096 E29.01068
G1 X61.82 Y61.86 E29.02699
G1 X61.217 Y62.347 E29.04157
G1 X60.517 Y62.695 E29.05627
G1 X59.8 Y62.8 E29.0699
G1 X39.718 Y62.8 E29.44766
G1 X38.922 Y62.637 E29.46294
G1 X38.218 Y62.266 E29.47791
G1 X38.093 Y62.163 E29.48096
G1 X37.653 Y61.617 E29.49415
G1 X37.303 Y60.913 E29.50894
G1 X37.2 Y60.16 E29.52323
G1 X37.225 Y59.534 E29.53502
G1 X37.359 Y58.975 E29.54583
G1 X37.277 Y58.738 E29.55055
G1 X37.2 Y58.16 E29.56152
G1 X37.225 Y57.534 E29.5733
G1 X37.359 Y56.975 E29.58411
G1 X37.277 Y56.738 E29.58883
G1 X37.2 Y56.16 E29.5998
G1 X37.225 Y55.534 E29.61158
G1 X37.359 Y54.975 E29.6224
G1 X37.277 Y54.738 E29.62711
G1 X37.2 Y54.16 E29.63808
G1 X37.225 Y53.534 E29.64987
G1 X37.359 Y52.975 E29.66068
G1 X37.277 Y52.738 E29.6654
G1 X37.2 Y52.16 E29.67637
G1 X37.225 Y51.534 E29.68815
G1 X37.359 Y50.975 E29.69896
G1 X37.277 Y50.738 E29.70368
G1 X37.2 Y50.16 E29.71465
G1 X37.225 Y49.534 E29.72644
G1 X37.359 Y48.975 E29.73725
G1 X37.277 Y48.738 E29.74197
G1 X37.2 Y48.16 E29.75293
G1 X37.225 Y47.534 E29.76472
G1 X37.359 Y46.975 E29.77553
G1 X37.277 Y46.738 E29.78025
G1 X37.2 Y46.16 E29.79122
G1 X37.225 Y45.534 E29.803
G1 X37.359 Y44.975 E29.81382
G1 X37.277 Y44.738 E29.81853
G1 X37.2 Y44.16 E29.8295
G1 X37.225 Y43.534 E29.84129
G1 X37.359 Y42.975 E29.8521
G1 X37.277 Y42.738 E29.85682
G1 X37.2 Y42.16 E29.86779
G1 X37.225 Y41.534 E29.87957
G1 X37.359 Y40.975 E29.89038
G1 X37.277 Y40.738 E29.8951
G1 X37.2 Y40.16 E29.90607
G1 X37.219 Y39.56 E29.91736
G1 X37.37 Y38.904 E29.93002
G1 X37.78 Y38.14 E29.94633
G0 F3600 X38.094 Y38.4
G1 F300 X37.748 Y39.044 E29.96008
G1 X37.618 Y39.611 E29.97103
G1 X37.6 Y40.173 E29.9816
G1 X37.673 Y40.681 E29.99126
G1 X37.79 Y40.979 E29.99728
G1 X37.697 Y41.208 E30.00193
G1 X37.618 Y41.611 E30.00965
G1 X37.6 Y42.173 E30.02023
G1 X37.673 Y42.681 E30.02989
G1 X37.79 Y42.979 E30.03591
G1 X37.697 Y43.208 E30.04056
G1 X37.618 Y43.611 E30.04828
G1 X37.6 Y44.173 E30.05886
G1 X37.673 Y44.681 E30.06851
G1 X37.79 Y44.979 E30.07453
G1 X37.697 Y45.208 E30.07918
G1 X37.618 Y45.611 E30.08691
G1 X37.6 Y46.173 E30.09749
G1 X37.673 Y46.681 E30.10714
G1 X37.79 Y46.979 E30.11316
G1 X37.697 Y47.208 E30.11781
G1 X37.618 Y47.611 E30.12554
G1 X37.6 Y48.173 E30.13611
G1 X37.673 Y48.681 E30.14577
G1 X37.79 Y48.979 E30.15179
G1 X37.697 Y49.208 E30.15644
G1 X37.618 Y49.611 E30.16416
G1 X37.6 Y50.173 E30.17474
G1 X37.673 Y50.681 E30.18439
G1 X37.79 Y50.979 E30.19042
G1 X37.697 Y51.208 E30.19507
G1 X37.618 Y51.611 E30.20279
G1 X37.6 Y52.173 E30.21337
G1 X37.673 Y52.681 E30.22302
G1 X37.79 Y52.979 E30.22904
G1 X37.697 Y53.208 E30.23369
G1 X37.618 Y53.611 E30.24142
G1 X37.6 Y54.173 E30.25199
G1 X37.673 Y54.681 E30.26165
G1 X37.79 Y54.979 E30.26767
G1 X37.697 Y55.208 E30.27232
G1 X37.618 Y55.611 E30.28004
G1 X37.6 Y56.173 E30.29062
G1 X37.673 Y56.681 E30.30028
G1 X37.79 Y56.979 E30.3063
G1 X37.697 Y57.208 E30.31095
G1 X37.618 Y57.611 E30.31867
G1 X37.6 Y58.173 E30.32925
G1 X37.673 Y58.681 E30.3389
G1 X37.79 Y58.979 E30.34493
G1 X37.697 Y59.208 E30.34957
G1 X37.618 Y59.611 E30.3573
G1 X37.6 Y60.173 E30.36788
G1 X37.691 Y60.795 E30.3797
G1 X37.992 Y61.401 E30.39243
G1 X38.404 Y61.912 E30.40478
G1 X39.057 Y62.256 E30.41866
G1 X39.759 Y62.4 E30.43214
G1 X59.8 Y62.4 E30.80912
G1 X60.395 Y62.309 E30.82044
G1 X61.001 Y62.008 E30.83317
G1 X61.506 Y61.6 E30.84538
G1 X61.852 Y60.956 E30.85914
G1 X61.982 Y60.389 E30.87008
G1 X62 Y59.827 E30.88066
G1 X61.927 Y59.319 E30.89031
G1 X61.81 Y59.021 E30.89633
G1 X61.903 Y58.792 E30.90098
G1 X61.982 Y58.389 E30.90871
G1 X62 Y57.827 E30.91928
G1 X61.927 Y57.319 E30.92894
G1 X61.81 Y57.021 E30.93496
G1 X61.903 Y56.792 E30.93961
G1 X61.982 Y56.389 E30.94733
G1 X62 Y55.827 E30.95791
G1 X61.927 Y55.319 E30.96756
G1 X61.81 Y55.021 E30.97359
G1 X61.903 Y54.792 E30.97824
G1 X61.982 Y54.389 E30.98596
G1 X62 Y53.827 E30.99654
G1 X61.927 Y53.319 E31.00619
G1 X61.81 Y53.021 E31.01221
G1 X61.903 Y52.792 E31.01686
G1 X61.982 Y52.389 E31.02459
G1 X62 Y51.827 E31.03516
G1 X61.927 Y51.319 E31.04482
G1 X61.81 Y51.021 E31.05084
G1 X61.903 Y50.792 E31.05549
G1 X61.982 Y50.389 E31.06321
G1 X62 Y49.827 E31.07379
G1 X61.927 Y49.319 E31.08345
G1 X61.81 Y49.021 E31.08947
G1 X61.903 Y48.792 E31.09412
G1 X61.982 Y48.389 E31.10184
G1 X62 Y47.827 E31.11242
G1 X61.927 Y47.319 E31.12207
G1 X61.81 Y47.021 E31.12809
G1 X61.903 Y46.792 E31.13274
G1 X61.982 Y46.389 E31.14047
G1 X62 Y45.827 E31.15105
G1 X61.927 Y45.319 E31.1607
G1 X61.81 Y45.021 E31.16672
G1 X61.903 Y44.792 E31.17137
G1 X61.982 Y44.389 E31.1791
G1 X62 Y43.827 E31.18967
G1 X61.927 Y43.319 E31.19933
G1 X61.81 Y43.021 E31.20535
G1 X61.903 Y42.792 E31.21
G1 X61.982 Y42.389 E31.21772
G1 X62 Y41.827 E31.2283
G1 X61.927 Y41.319 E31.23795
G1 X61.81 Y41.021 E31.24398
G1 X61.903 Y40.792 E31.24863
G1 X61.982 Y40.389 E31.25635
G1 X62 Y39.827 E31.26693
G1 X61.909 Y39.205 E31.27875
G1 X61.608 Y38.599 E31.29148
G1 X61.196 Y38.088 E31.30383
G1 X60.543 Y37.744 E31.31771
G1 X59.841 Y37.6 E31.33119
G1 X39.8 Y37.6 E31.70817
G1 X39.205 Y37.691 E31.7195
G1 X38.599 Y37.992 E31.73222
G1 X38.094 Y38.4 E31.74444
G0 F3600 X38.408 Y38.66
G1 F300 X38.777 Y38.35 E31.7535
G1 X39.326 Y38.077 E31.76503
G1 X39.8 Y38 E31.77407
G1 X59.8 Y38 E32.15028
G1 X60.406 Y38.124 E32.16191
G1 X60.938 Y38.405 E32.17323
G1 X61.25 Y38.777 E32.18236
G1 X61.523 Y39.326 E32.1939
G1 X61.6 Y39.818 E32.20327
G1 X61.589 Y40.312 E32.21256
G1 X61.51 Y40.715 E32.22029
G1 X61.372 Y41.018 E32.22655
G1 X61.532 Y41.381 E32.23401
G1 X61.6 Y41.818 E32.24233
G1 X61.589 Y42.312 E32.25162
G1 X61.51 Y42.715 E32.25935
G1 X61.372 Y43.018 E32.26561
G1 X61.532 Y43.381 E32.27307
G1 X61.6 Y43.818 E32.28139
G1 X61.589 Y44.312 E32.29069
G1 X61.51 Y44.715 E32.29841
G1 X61.372 Y45.018 E32.30468
G1 X61.532 Y45.381 E32.31214
G1 X61.6 Y45.818 E32.32046
G1 X61.589 Y46.312 E32.32975
G1 X61.51 Y46.715 E32.33748
G1 X61.372 Y47.018 E32.34374
G1 X61.532 Y47.381 E32.3512
G1 X61.6 Y47.818 E32.35952
G1 X61.589 Y48.312 E32.36882
G1 X61.51 Y48.715 E32.37654
G1 X61.372 Y49.018 E32.3828
G1 X61.532 Y49.381 E32.39027
G1 X61.6 Y49.818 E32.39858
G1 X61.589 Y50.312 E32.40788
G1 X61.51 Y50.715 E32.4156
G1 X61.372 Y51.018 E32.42187
G1 X61.532 Y51.381 E32.42933
G1 X61.6 Y51.818 E32.43765
G1 X61.589 Y52.312 E32.44694
G1 X61.51 Y52.715 E32.45467
G1 X61.372 Y53.018 E32.46093
G1 X61.532 Y53.381 E32.46839
G1 X61.6 Y53.818 E32.47671
G1 X61.589 Y54.312 E32.48601
G1 X61.51 Y54.715 E32.49373
G1 X61.372 Y55.018 E32.49999
G1 X61.532 Y55.381 E32.50746
G1 X61.6 Y55.818 E32.51578
G1 X61.589 Y56.312 E32.52507
G1 X61.51 Y56.715 E32.5328
G1 X61.372 Y57.018 E32.53906
G1 X61.532 Y57.381 E32.54652
G1 X61.6 Y57.818 E32.55484
G1 X61.589 Y58.312 E32.56413
G1 X61.51 Y58.715 E32.57186
G1 X61.372 Y59.018 E32.57812
G1 X61.532 Y59.381 E32.58558
G1 X61.6 Y59.818 E32.5939
G1 X61.589 Y60.312 E32.6032
G1 X61.5 Y60.767 E32.61192
G1 X61.192 Y61.34 E32.62416
G1 X60.823 Y61.65 E32.63322
G1 X60.274 Y61.923 E32.64475
G1 X59.8 Y62 E32.65379
G1 X39.8 Y62 E33.03
G1 X39.194 Y61.876 E33.04163
G1 X38.662 Y61.595 E33.05295
G1 X38.35 Y61.223 E33.06208
G1 X38.077 Y60.674 E33.07362
G1 X38 Y60.182 E33.08299
G1 X38.011 Y59.688 E33.09228
G1 X38.09 Y59.285 E33.10001
G1 X38.228 Y58.982 E33.10627
G1 X38.068 Y58.619 E33.11373
G1 X38 Y58.182 E33.12205
G1 X38.011 Y57.688 E33.13134
G1 X38.09 Y57.285 E33.13907
G1 X38.228 Y56.982 E33.14533
G1 X38.068 Y56.619 E33.15279
G1 X38 Y56.182 E33.16111
G1 X38.011 Y55.688 E33.17041
G1 X38.09 Y55.285 E33.17813
G1 X38.228 Y54.982 E33.1844
G1 X38.068 Y54.619 E33.19186
G1 X38 Y54.182 E33.20018
G1 X38.011 Y53.688 E33.20947
G1 X38.09 Y53.285 E33.2172
G1 X38.228 Y52.982 E33.22346
G1 X38.068 Y52.619 E33.23092
G1 X38 Y52.182 E33.23924
G1 X38.011 Y51.688 E33.24854
G1 X38.09 Y51.285 E33.25626
G1 X38.228 Y50.982 E33.26252
G1 X38.068 Y50.619 E33.26999
G1 X38 Y50.182 E33.2783
G1 X38.011 Y49.688 E33.2876
G1 X38.09 Y49.285 E33.29532
G1 X38.228 Y48.982 E33.30159
G1 X38.068 Y48.619 E33.30905
G1 X38 Y48.182 E33.31737
G1 X38.011 Y47.688 E33.32666
G1 X38.09 Y47.285 E33.33439
G1 X38.228 Y46.982 E33.34065
G1 X38.068 Y46.619 E33.34811
G1 X38 Y46.182 E33.35643
G1 X38.011 Y45.688 E33.36573
G1 X38.09 Y45.285 E33.37345
G1 X38.228 Y44.982 E33.37971
G1 X38.068 Y44.619 E33.38718
G1 X38 Y44.182 E33.3955
G1 X38.011 Y43.688 E33.40479
G1 X38.09 Y43.285 E33.41252
G1 X38.228 Y42.982 E33.41878
G1 X38.068 Y42.619 E33.42624
G1 X38 Y42.182 E33.43456
G1 X38.011 Y41.688 E33.44385
G1 X38.09 Y41.285 E33.45158
G1 X38.228 Y40.982 E33.45784
G1 X38.068 Y40.619 E33.4653
G1 X38 Y40.182 E33.47362
G1 X38.011 Y39.688 E33.48292
G1 X38.1 Y39.233 E33.49164
G1 X38.408 Y38.66 E33.50388
G0 F3600 X38.723 Y38.917
G1 F300 X38.955 Y38.708 E33.50975
G1 X39.449 Y38.462 E33.52013
G1 X39.8 Y38.4 E33.52684
G1 X59.8 Y38.4 E33.90305
G1 X60.219 Y38.478 E33.91106
G1 X60.683 Y38.723 E33.92093
G1 X60.892 Y38.955 E33.92681
G1 X61.138 Y39.449 E33.93719
G1 X61.2 Y39.809 E33.94406
G1 X61.189 Y40.303 E33.95335
G1 X61.119 Y40.632 E33.95968
G1 X60.925 Y41.015 E33.96776
G1 X61.138 Y41.449 E33.97685
G1 X61.2 Y41.809 E33.98372
G1 X61.189 Y42.303 E33.99302
G1 X61.119 Y42.632 E33.99934
G1 X60.925 Y43.015 E34.00742
G1 X61.138 Y43.449 E34.01651
G1 X61.2 Y43.809 E34.02339
G1 X61.189 Y44.303 E34.03268
G1 X61.119 Y44.632 E34.03901
G1 X60.925 Y45.015 E34.04708
G1 X61.138 Y45.449 E34.05618
G1 X61.2 Y45.809 E34.06305
G1 X61.189 Y46.303 E34.07234
G1 X61.119 Y46.632 E34.07867
G1 X60.925 Y47.015 E34.08675
G1 X61.138 Y47.449 E34.09584
G1 X61.2 Y47.809 E34.10271
G1 X61.189 Y48.303 E34.11201
G1 X61.119 Y48.632 E34.11833
G1 X60.925 Y49.015 E34.12641
G1 X61.138 Y49.449 E34.1355
G1 X61.2 Y49.809 E34.14238
G1 X61.189 Y50.303 E34.15167
G1 X61.119 Y50.632 E34.158
G1 X60.925 Y51.015 E34.16607
G1 X61.138 Y51.449 E34.17517
G1 X61.2 Y51.809 E34.18204
G1 X61.189 Y52.303 E34.19133
G1 X61.119 Y52.632 E34.19766
G1 X60.925 Y53.015 E34.20574
G1 X61.138 Y53.449 E34.21483
G1 X61.2 Y53.809 E34.2217
G1 X61.189 Y54.303 E34.231
G1 X61.119 Y54.632 E34.23733
G1 X60.925 Y55.015 E34.2454
G1 X61.138 Y55.449 E34.25449
G1 X61.2 Y55.809 E34.26137
G1 X61.189 Y56.303 E34.27066
G1 X61.119 Y56.632 E34.27699
G1 X60.925 Y57.015 E34.28506
G1 X61.138 Y57.449 E34.29416
G1 X61.2 Y57.809 E34.30103
G1 X61.189 Y58.303 E34.31032
G1 X61.119 Y58.632 E34.31665
G1 X60.925 Y59.015 E34.32473
G1 X61.138 Y59.449 E34.33382
G1 X61.2 Y59.809 E34.34069
G1 X61.189 Y60.303 E34.34999
G1 X61.119 Y60.632 E34.35632
G1 X60.877 Y61.083 E34.36594
G1 X60.645 Y61.292 E34.37182
G1 X60.151 Y61.538 E34.3822
G1 X59.8 Y61.6 E34.3889
G1 X39.8 Y61.6 E34.76511
G1 X39.381 Y61.522 E34.77313
G1 X38.917 Y61.277 E34.783
G1 X38.708 Y61.045 E34.78887
G1 X38.462 Y60.551 E34.79925
G1 X38.4 Y60.191 E34.80613
G1 X38.411 Y59.697 E34.81542
G1 X38.481 Y59.368 E34.82175
G1 X38.675 Y58.985 E34.82982
G1 X38.462 Y58.551 E34.83892
G1 X38.4 Y58.191 E34.84579
G1 X38.411 Y57.697 E34.85508
G1 X38.481 Y57.368 E34.86141
G1 X38.675 Y56.985 E34.86949
G1 X38.462 Y56.551 E34.87858
G1 X38.4 Y56.191 E34.88545
G1 X38.411 Y55.697 E34.89475
G1 X38.481 Y55.368 E34.90108
G1 X38.675 Y54.985 E34.90915
G1 X38.462 Y54.551 E34.91824
G1 X38.4 Y54.191 E34.92512
G1 X38.411 Y53.697 E34.93441
G1 X38.481 Y53.368 E34.94074
G1 X38.675 Y52.985 E34.94881
G1 X38.462 Y52.551 E34.95791
G1 X38.4 Y52.191 E34.96478
G1 X38.411 Y51.697 E34.97407
G1 X38.481 Y51.368 E34.9804
G1 X38.675 Y50.985 E34.98848
G1 X38.462 Y50.551 E34.99757
G1 X38.4 Y50.191 E35.00444
G1 X38.411 Y49.697 E35.01374
G1 X38.481 Y49.368 E35.02007
G1 X38.675 Y48.985 E35.02814
G1 X38.462 Y48.551 E35.03724
G1 X38.4 Y48.191 E35.04411
G1 X38.411 Y47.697 E35.0534
G1 X38.481 Y47.368 E35.05973
G1 X38.675 Y46.985 E35.0678
G1 X38.462 Y46.551 E35.0769
G1 X38.4 Y46.191 E35.08377
G1 X38.411 Y45.697 E35.09306
G1 X38.481 Y45.368 E35.09939
G1 X38.675 Y44.985 E35.10747
G1 X38.462 Y44.551 E35.11656
G1 X38.4 Y44.191 E35.12343
G1 X38.411 Y43.697 E35.13273
G1 X38.481 Y43.368 E35.13906
G1 X38.675 Y42.985 E35.14713
G1 X38.462 Y42.551 E35.15623
G1 X38.4 Y42.191 E35.1631
G1 X38.411 Y41.697 E35.17239
G1 X38.481 Y41.368 E35.17872
G1 X38.675 Y40.985 E35.18679
G1 X38.462 Y40.551 E35.19589
G1 X38.4 Y40.191 E35.20276
G1 X38.411 Y39.697 E35.21205
G1 X38.481 Y39.368 E35.21838
G1 X38.723 Y38.917 E35.22801
G0 F3600 X39.007 Y39.199
G1 F300 X39.145 Y39.06 E35.23169
G1 X39.527 Y38.854 E35.23986
G1 X39.8 Y38.8 E35.24509
G1 X59.8 Y38.8 E35.6213
G1 X60.138 Y38.87 E35.6278
G1 X60.401 Y39.007 E35.63337
G1 X60.54 Y39.145 E35.63706
G1 X60.746 Y39.527 E35.64522
G1 X60.8 Y39.8 E35.65046
G1 X60.789 Y40.294 E35.65975
G1 X60.73 Y40.538 E35.66447
G1 X60.593 Y40.801 E35.67005
G1 X60.372 Y40.99 E35.67552
G1 X60.54 Y41.145 E35.67982
G1 X60.746 Y41.527 E35.68799
G1 X60.8 Y41.8 E35.69322
G1 X60.789 Y42.294 E35.70252
G1 X60.73 Y42.538 E35.70724
G1 X60.593 Y42.801 E35.71282
G1 X60.372 Y42.99 E35.71829
G1 X60.54 Y43.145 E35.72259
G1 X60.746 Y43.527 E35.73075
G1 X60.8 Y43.8 E35.73598
G1 X60.789 Y44.294 E35.74528
G1 X60.73 Y44.538 E35.75
G1 X60.593 Y44.801 E35.75558
G1 X60.372 Y44.99 E35.76105
G1 X60.54 Y45.145 E35.76535
G1 X60.746 Y45.527 E35.77351
G1 X60.8 Y45.8 E35.77875
G1 X60.789 Y46.294 E35.78804
G1 X60.73 Y46.538 E35.79276
G1 X60.593 Y46.801 E35.79834
G1 X60.372 Y46.99 E35.80381
G1 X60.54 Y47.145 E35.80811
G1 X60.746 Y47.527 E35.81628
G1 X60.8 Y47.8 E35.82151
G1 X60.789 Y48.294 E35.83081
G1 X60.73 Y48.538 E35.83553
G1 X60.593 Y48.801 E35.84111
G1 X60.372 Y48.99 E35.84658
G1 X60.54 Y49.145 E35.85088
G1 X60.746 Y49.527 E35.85904
G1 X60.8 Y49.8 E35.86427
G1 X60.789 Y50.294 E35.87357
G1 X60.73 Y50.538 E35.87829
G1 X60.593 Y50.801 E35.88387
G1 X60.372 Y50.99 E35.88934
G1 X60.54 Y51.145 E35.89364
G1 X60.746 Y51.527 E35.9018
G1 X60.8 Y51.8 E35.90704
G1 X60.789 Y52.294 E35.91633
G1 X60.73 Y52.538 E35.92105
G1 X60.593 Y52.801 E35.92663
G1 X60.372 Y52.99 E35.9321
G1 X60.54 Y53.145 E35.9364
G1 X60.746 Y53.527 E35.94457
G1 X60.8 Y53.8 E35.9498
G1 X60.789 Y54.294 E35.9591
G1 X60.73 Y54.538 E35.96382
G1 X60.593 Y54.801 E35.9694
G1 X60.372 Y54.99 E35.97487
G1 X60.54 Y55.145 E35.97917
G1 X60.746 Y55.527 E35.98733
G1 X60.8 Y55.8 E35.99256
G1 X60.789 Y56.294 E36.00186
G1 X60.73 Y56.538 E36.00658
G1 X60.593 Y56.801 E36.01216
G1 X60.372 Y56.99 E36.01763
G1 X60.54 Y57.145 E36.02193
G1 X60.746 Y57.527 E36.03009
G1 X60.8 Y57.8 E36.03533
G1 X60.789 Y58.294 E36.04462
G1 X60.73 Y58.538 E36.04934
G1 X60.593 Y58.801 E36.05492
G1 X60.372 Y58.99 E36.06039
G1 X60.54 Y59.145 E36.06469
G1 X60.746 Y59.527 E36.07286
G1 X60.8 Y59.8 E36.07809
G1 X60.789 Y60.294 E36.08739
G1 X60.73 Y60.538 E36.09211
G1 X60.593 Y60.801 E36.09769
G1 X60.455 Y60.94 E36.10137
G1 X60.073 Y61.146 E36.10953
G1 X59.8 Y61.2 E36.11477
G1 X39.8 Y61.2 E36.49098
G1 X39.462 Y61.13 E36.49747
G1 X39.199 Y60.993 E36.50305
G1 X39.06 Y60.855 E36.50674
G1 X38.854 Y60.473 E36.5149
G1 X38.8 Y60.2 E36.52013
G1 X38.811 Y59.706 E36.52943
G1 X38.87 Y59.462 E36.53415
G1 X39.007 Y59.199 E36.53973
G1 X39.228 Y59.01 E36.5452
G1 X39.06 Y58.855 E36.5495
G1 X38.854 Y58.473 E36.55766
G1 X38.8 Y58.2 E36.5629
G1 X38.811 Y57.706 E36.57219
G1 X38.87 Y57.462 E36.57691
G1 X39.007 Y57.199 E36.58249
G1 X39.228 Y57.01 E36.58796
G1 X39.06 Y56.855 E36.59226
G1 X38.854 Y56.473 E36.60043
G1 X38.8 Y56.2 E36.60566
G1 X38.811 Y55.706 E36.61496
G1 X38.87 Y55.462 E36.61968
G1 X39.007 Y55.199 E36.62526
G1 X39.228 Y55.01 E36.63073
G1 X39.06 Y54.855 E36.63503
G1 X38.854 Y54.473 E36.64319
G1 X38.8 Y54.2 E36.64842
G1 X38.811 Y53.706 E36.65772
G1 X38.87 Y53.462 E36.66244
G1 X39.007 Y53.199 E36.66802
G1 X39.228 Y53.01 E36.67349
G1 X39.06 Y52.855 E36.67779
G1 X38.854 Y52.473 E36.68595
G1 X38.8 Y52.2 E36.69119
G1 X38.811 Y51.706 E36.70048
G1 X38.87 Y51.462 E36.7052
G1 X39.007 Y51.199 E36.71078
G1 X39.228 Y51.01 E36.71625
G1 X39.06 Y50.855 E36.72055
G1 X38.854 Y50.473 E36.72872
G1 X38.8 Y50.2 E36.73395
G1 X38.811 Y49.706 E36.74325
G1 X38.87 Y49.462 E36.74797
G1 X39.007 Y49.199 E36.75355
G1 X39.228 Y49.01 E36.75902
G1 X39.06 Y48.855 E36.76332
G1 X38.854 Y48.473 E36.77148
G1 X38.8 Y48.2 E36.77671
G1 X38.811 Y47.706 E36.78601
G1 X38.87 Y47.462 E36.79073
G1 X39.007 Y47.199 E36.79631
G1 X39.228 Y47.01 E36.80178
G1 X39.06 Y46.855 E36.80608
G1 X38.854 Y46.473 E36.81424
G1 X38.8 Y46.2 E36.81948
G1 X38.811 Y45.706 E36.82877
G1 X38.87 Y45.462 E36.83349
G1 X39.007 Y45.199 E36.83907
G1 X39.228 Y45.01 E36.84454
G1 X39.06 Y44.855 E36.84884
G1 X38.854 Y44.473 E36.85701
G1 X38.8 Y44.2 E36.86224
G1 X38.811 Y43.706 E36.87154
G1 X38.87 Y43.462 E36.87626
G1 X39.007 Y43.199 E36.88184
G1 X39.228 Y43.01 E36.88731
G1 X39.06 Y42.855 E36.89161
G1 X38.854 Y42.473 E36.89977
G1 X38.8 Y42.2 E36.905
G1 X38.811 Y41.706 E36.9143
G1 X38.87 Y41.462 E36.91902
G1 X39.007 Y41.199 E36.9246
G1 X39.228 Y41.01 E36.93007
G1 X39.06 Y40.855 E36.93437
G1 X38.854 Y40.473 E36.94253
G1 X38.8 Y40.2 E36.94777
G1 X38.811 Y39.706 E36.95706
G1 X38.87 Y39.462 E36.96178
G1 X39.007 Y39.199 E36.96736
G0 F3600 X39.639 Y39.681
G1 F300 X39.8 Y39.6 E36.97075
G1 X59.8 Y39.6 E37.34696
G1 X59.919 Y39.639 E37.34932
G1 X60 Y39.8 E37.35271
G1 X60 Y40.2 E37.36023
G1 X59.961 Y40.319 E37.36259
G1 X59.8 Y40.4 E37.36598
G1 X39.8 Y40.4 E37.74219
G1 X39.681 Y40.361 E37.74455
G1 X39.6 Y40.2 E37.74794
G1 X39.6 Y39.8 E37.75546
G1 X39.639 Y39.681 E37.75782
G0 F3600 X39.8 Y41.6
G1 F300 X59.8 Y41.6 E38.13403
G1 X59.919 Y41.639 E38.13638
G1 X60 Y41.8 E38.13977
G1 X60 Y42.2 E38.1473
G1 X59.961 Y42.319 E38.14965
G1 X59.8 Y42.4 E38.15304
G1 X39.8 Y42.4 E38.52925
G1 X39.681 Y42.361 E38.53161
G1 X39.6 Y42.2 E38.535
G1 X39.6 Y41.8 E38.54252
G1 X39.639 Y41.681 E38.54488
G1 X39.8 Y41.6 E38.54827
G0 F3600 X39.8 Y40.8
G1 F300 X39.556 Y40.741 E38.55299
G1 X39.404 Y40.65 E38.55632
G1 X39.243 Y40.38 E38.56224
G1 X39.2 Y40.2 E38.56572
G1 X39.2 Y39.8 E38.57324
G1 X39.259 Y39.556 E38.57797
G1 X39.35 Y39.404 E38.5813
G1 X39.62 Y39.243 E38.58721
G1 X39.8 Y39.2 E38.59069
G1 X59.8 Y39.2 E38.9669
G1 X60.044 Y39.259 E38.97163
G1 X60.196 Y39.35 E38.97496
G1 X60.357 Y39.62 E38.98087
G1 X60.4 Y39.8 E38.98435
G1 X60.4 Y40.2 E38.99188
G1 X60.341 Y40.444 E38.9966
G1 X60.25 Y40.596 E38.99993
G1 X59.98 Y40.757 E39.00584
G1 X59.8 Y40.8 E39.00933
G1 X39.8 Y40.8 E39.38554
G0 F3600 X39.8 Y43.6
G1 F300 X59.8 Y43.6 E39.76175
G1 X59.919 Y43.639 E39.7641
G1 X60 Y43.8 E39.76749
G1 X60 Y44.2 E39.77502
G1 X59.961 Y44.319 E39.77737
G1 X59.8 Y44.4 E39.78076
G1 X39.8 Y44.4 E40.15697
G1 X39.681 Y44.361 E40.15933
G1 X39.6 Y44.2 E40.16272
G1 X39.6 Y43.8 E40.17024
G1 X39.639 Y43.681 E40.1726
G1 X39.8 Y43.6 E40.17599
G0 F3600 X39.8 Y42.8
G1 F300 X39.556 Y42.741 E40.18071
G1 X39.404 Y42.65 E40.18404
G1 X39.243 Y42.38 E40.18996
G1 X39.2 Y42.2 E40.19344
G1 X39.2 Y41.8 E40.20096
G1 X39.259 Y41.556 E40.20569
G1 X39.35 Y41.404 E40.20902
G1 X39.62 Y41.243 E40.21493
G1 X39.8 Y41.2 E40.21841
G1 X59.8 Y41.2 E40.59462
G1 X60.044 Y41.259 E40.59935
G1 X60.196 Y41.35 E40.60268
G1 X60.357 Y41.62 E40.60859
G1 X60.4 Y41.8 E40.61207
G1 X60.4 Y42.2 E40.6196
G1 X60.341 Y42.444 E40.62432
G1 X60.25 Y42.596 E40.62765
G1 X59.98 Y42.757 E40.63356
G1 X59.8 Y42.8 E40.63705
G1 X39.8 Y42.8 E41.01326
G0 F3600 X39.8 Y45.6
G1 F300 X59.8 Y45.6 E41.38947
G1 X59.919 Y45.639 E41.39182
G1 X60 Y45.8 E41.39521
G1 X60 Y46.2 E41.40274
G1 X59.961 Y46.319 E41.40509
G1 X59.8 Y46.4 E41.40848
G1 X39.8 Y46.4 E41.78469
G1 X39.681 Y46.361 E41.78705
G1 X39.6 Y46.2 E41.79044
G1 X39.6 Y45.8 E41.79796
G1 X39.639 Y45.681 E41.80032
G1 X39.8 Y45.6 E41.80371
G0 F3600 X39.8 Y44.8
G1 F300 X39.556 Y44.741 E41.80843
G1 X39.404 Y44.65 E41.81176
G1 X39.243 Y44.38 E41.81768
G1 X39.2 Y44.2 E41.82116
G1 X39.2 Y43.8 E41.82868
G1 X39.259 Y43.556 E41.83341
G1 X39.35 Y43.404 E41.83674
G1 X39.62 Y43.243 E41.84265
G1 X39.8 Y43.2 E41.84613
G1 X59.8 Y43.2 E42.22234
G1 X60.044 Y43.259 E42.22707
G1 X60.196 Y43.35 E42.2304
G1 X60.357 Y43.62 E42.23631
G1 X60.4 Y43.8 E42.23979
G1 X60.4 Y44.2 E42.24732
G1 X60.341 Y44.444 E42.25204
G1 X60.25 Y44.596 E42.25537
G1 X59.98 Y44.757 E42.26128
G1 X59.8 Y44.8 E42.26477
G1 X39.8 Y44.8 E42.64098
G0 F3600 X39.8 Y47.6
G1 F300 X59.8 Y47.6 E43.01719
G1 X59.919 Y47.639 E43.01954
G1 X60 Y47.8 E43.02293
G1 X60 Y48.2 E43.03046
G1 X59.961 Y48.319 E43.03281
G1 X59.8 Y48.4 E43.0362
G1 X39.8 Y48.4 E43.41241
G1 X39.681 Y48.361 E43.41477
G1 X39.6 Y48.2 E43.41816
G1 X39.6 Y47.8 E43.42568
G1 X39.639 Y47.681 E43.42804
G1 X39.8 Y47.6 E43.43143
G0 F3600 X39.8 Y46.8
G1 F300 X39.556 Y46.741 E43.43615
G1 X39.404 Y46.65 E43.43949
G1 X39.243 Y46.38 E43.4454
G1 X39.2 Y46.2 E43.44888
G1 X39.2 Y45.8 E43.4564
G1 X39.259 Y45.556 E43.46113
G1 X39.35 Y45.404 E43.46446
G1 X39.62 Y45.243 E43.47037
G1 X39.8 Y45.2 E43.47385
G1 X59.8 Y45.2 E43.85006
G1 X60.044 Y45.259 E43.85479
G1 X60.196 Y45.35 E43.85812
G1 X60.357 Y45.62 E43.86403
G1 X60.4 Y45.8 E43.86751
G1 X60.4 Y46.2 E43.87504
G1 X60.341 Y46.444 E43.87976
G1 X60.25 Y46.596 E43.88309
G1 X59.98 Y46.757 E43.889
G1 X59.8 Y46.8 E43.89249
G1 X39.8 Y46.8 E44.2687
G0 F3600 X39.8 Y49.6
G1 F300 X59.8 Y49.6 E44.64491
G1 X59.919 Y49.639 E44.64726
G1 X60 Y49.8 E44.65065
G1 X60 Y50.2 E44.65818
G1 X59.961 Y50.319 E44.66053
G1 X59.8 Y50.4 E44.66392
G1 X39.8 Y50.4 E45.04013
G1 X39.681 Y50.361 E45.04249
G1 X39.6 Y50.2 E45.04588
G1 X39.6 Y49.8 E45.0534
G1 X39.639 Y49.681 E45.05576
G1 X39.8 Y49.6 E45.05915
G0 F3600 X39.8 Y48.8
G1 F300 X39.556 Y48.741 E45.06387
G1 X39.404 Y48.65 E45.06721
G1 X39.243 Y48.38 E45.07312
G1 X39.2 Y48.2 E45.0766
G1 X39.2 Y47.8 E45.08412
G1 X39.259 Y47.556 E45.08885
G1 X39.35 Y47.404 E45.09218
G1 X39.62 Y47.243 E45.09809
G1 X39.8 Y47.2 E45.10157
G1 X59.8 Y47.2 E45.47778
G1 X60.044 Y47.259 E45.48251
G1 X60.196 Y47.35 E45.48584
G1 X60.357 Y47.62 E45.49175
G1 X60.4 Y47.8 E45.49523
G1 X60.4 Y48.2 E45.50276
G1 X60.341 Y48.444 E45.50748
G1 X60.25 Y48.596 E45.51081
G1 X59.98 Y48.757 E45.51672
G1 X59.8 Y48.8 E45.52021
G1 X39.8 Y48.8 E45.89642
G0 F3600 X39.8 Y51.6
G1 F300 X59.8 Y51.6 E46.27263
G1 X59.919 Y51.639 E46.27498
G1 X60 Y51.8 E46.27837
G1 X60 Y52.2 E46.2859
G1 X59.961 Y52.319 E46.28825
G1 X59.8 Y52.4 E46.29164
G1 X39.8 Y52.4 E46.66786
G1 X39.681 Y52.361 E46.67021
G1 X39.6 Y52.2 E46.6736
G1 X39.6 Y51.8 E46.68113
G1 X39.639 Y51.681 E46.68348
G1 X39.8 Y51.6 E46.68687
G0 F3600 X39.8 Y50.8
G1 F300 X39.556 Y50.741 E46.69159
G1 X39.404 Y50.65 E46.69493
G1 X39.243 Y50.38 E46.70084
G1 X39.2 Y50.2 E46.70432
G1 X39.2 Y49.8 E46.71184
G1 X39.259 Y49.556 E46.71657
G1 X39.35 Y49.404 E46.7199
G1 X39.62 Y49.243 E46.72581
G1 X39.8 Y49.2 E46.72929
G1 X59.8 Y49.2 E47.1055
G1 X60.044 Y49.259 E47.11023
G1 X60.196 Y49.35 E47.11356
G1 X60.357 Y49.62 E47.11947
G1 X60.4 Y49.8 E47.12295
G1 X60.4 Y50.2 E47.13048
G1 X60.341 Y50.444 E47.1352
G1 X60.25 Y50.596 E47.13853
G1 X59.98 Y50.757 E47.14445
G1 X59.8 Y50.8 E47.14793
G1 X39.8 Y50.8 E47.52414
G0 F3600 X39.8 Y53.6
G1 F300 X59.8 Y53.6 E47.90035
G1 X59.919 Y53.639 E47.9027
G1 X60 Y53.8 E47.90609
G1 X60 Y54.2 E47.91362
G1 X59.961 Y54.319 E47.91597
G1 X59.8 Y54.4 E47.91936
G1 X39.8 Y54.4 E48.29558
G1 X39.681 Y54.361 E48.29793
G1 X39.6 Y54.2 E48.30132
G1 X39.6 Y53.8 E48.30885
G1 X39.639 Y53.681 E48.3112
G1 X39.8 Y53.6 E48.31459
G0 F3600 X39.8 Y52.8
G1 F300 X39.556 Y52.741 E48.31931
G1 X39.404 Y52.65 E48.32265
G1 X39.243 Y52.38 E48.32856
G1 X39.2 Y52.2 E48.33204
G1 X39.2 Y51.8 E48.33956
G1 X39.259 Y51.556 E48.34429
G1 X39.35 Y51.404 E48.34762
G1 X39.62 Y51.243 E48.35353
G1 X39.8 Y51.2 E48.35701
G1 X59.8 Y51.2 E48.73322
G1 X60.044 Y51.259 E48.73795
G1 X60.196 Y51.35 E48.74128
G1 X60.357 Y51.62 E48.74719
G1 X60.4 Y51.8 E48.75067
G1 X60.4 Y52.2 E48.7582
G1 X60.341 Y52.444 E48.76292
G1 X60.25 Y52.596 E48.76625
G1 X59.98 Y52.757 E48.77217
G1 X59.8 Y52.8 E48.77565
G1 X39.8 Y52.8 E49.15186
G0 F3600 X39.8 Y55.6
G1 F300 X59.8 Y55.6 E49.52807
G1 X59.919 Y55.639 E49.53042
G1 X60 Y55.8 E49.53381
G1 X60 Y56.2 E49.54134
G1 X59.961 Y56.319 E49.54369
G1 X59.8 Y56.4 E49.54708
G1 X39.8 Y56.4 E49.9233
G1 X39.681 Y56.361 E49.92565
G1 X39.6 Y56.2 E49.92904
G1 X39.6 Y55.8 E49.93657
G1 X39.639 Y55.681 E49.93892
G1 X39.8 Y55.6 E49.94231
G0 F3600 X39.8 Y54.8
G1 F300 X39.556 Y54.741 E49.94703
G1 X39.404 Y54.65 E49.95037
G1 X39.243 Y54.38 E49.95628
G1 X39.2 Y54.2 E49.95976
G1 X39.2 Y53.8 E49.96728
G1 X39.259 Y53.556 E49.97201
G1 X39.35 Y53.404 E49.97534
G1 X39.62 Y53.243 E49.98125
G1 X39.8 Y53.2 E49.98473
G1 X59.8 Y53.2 E50.36094
G1 X60.044 Y53.259 E50.36567
G1 X60.196 Y53.35 E50.369
G1 X60.357 Y53.62 E50.37491
G1 X60.4 Y53.8 E50.37839
G1 X60.4 Y54.2 E50.38592
G1 X60.341 Y54.444 E50.39064
G1 X60.25 Y54.596 E50.39397
G1 X59.98 Y54.757 E50.39989
G1 X59.8 Y54.8 E50.40337
G1 X39.8 Y54.8 E50.77958
G0 F3600 X39.8 Y57.6
G1 F300 X59.8 Y57.6 E51.15579
G1 X59.919 Y57.639 E51.15814
G1 X60 Y57.8 E51.16153
G1 X60 Y58.2 E51.16906
G1 X59.961 Y58.319 E51.17141
G1 X59.8 Y58.4 E51.1748
G1 X39.8 Y58.4 E51.55102
G1 X39.681 Y58.361 E51.55337
G1 X39.6 Y58.2 E51.55676
G1 X39.6 Y57.8 E51.56429
G1 X39.639 Y57.681 E51.56664
G1 X39.8 Y57.6 E51.57003
G0 F3600 X39.8 Y56.8
G1 F300 X39.556 Y56.741 E51.57475
G1 X39.404 Y56.65 E51.57809
G1 X39.243 Y56.38 E51.584
G1 X39.2 Y56.2 E51.58748
G1 X39.2 Y55.8 E51.595
G1 X39.259 Y55.556 E51.59973
G1 X39.35 Y55.404 E51.60306
G1 X39.62 Y55.243 E51.60897
G1 X39.8 Y55.2 E51.61245
G1 X59.8 Y55.2 E51.98866
G1 X60.044 Y55.259 E51.99339
G1 X60.196 Y55.35 E51.99672
G1 X60.357 Y55.62 E52.00263
G1 X60.4 Y55.8 E52.00611
G1 X60.4 Y56.2 E52.01364
G1 X60.341 Y56.444 E52.01836
G1 X60.25 Y56.596 E52.02169
G1 X59.98 Y56.757 E52.02761
G1 X59.8 Y56.8 E52.03109
G1 X39.8 Y56.8 E52.4073
G0 F3600 X39.8 Y59.6
G1 F300 X59.8 Y59.6 E52.78351
G1 X59.919 Y59.639 E52.78586
G1 X60 Y59.8 E52.78925
G1 X60 Y60.2 E52.79678
G1 X59.961 Y60.319 E52.79913
G1 X59.8 Y60.4 E52.80252
G1 X39.8 Y60.4 E53.17874
G1 X39.681 Y60.361 E53.18109
G1 X39.6 Y60.2 E53.18448
G1 X39.6 Y59.8 E53.19201
G1 X39.639 Y59.681 E53.19436
G1 X39.8 Y59.6 E53.19775
G0 F3600 X39.62 Y59.243
G1 F300 X39.8 Y59.2 E53.20123
G1 X59.8 Y59.2 E53.57744
G1 X60.044 Y59.259 E53.58217
G1 X60.196 Y59.35 E53.5855
G1 X60.357 Y59.62 E53.59141
G1 X60.4 Y59.8 E53.59489
G1 X60.4 Y60.2 E53.60242
G1 X60.341 Y60.444 E53.60714
G1 X60.25 Y60.596 E53.61047
G1 X59.98 Y60.757 E53.61639
G1 X59.8 Y60.8 E53.61987
G1 X39.8 Y60.8 E53.99608
G1 X39.556 Y60.741 E54.0008
G1 X39.404 Y60.65 E54.00413
G1 X39.243 Y60.38 E54.01005
G1 X39.2 Y60.2 E54.01353
G1 X39.2 Y59.8 E54.02105
G1 X39.259 Y59.556 E54.02577
G1 X39.35 Y59.404 E54.0291
G1 X39.62 Y59.243 E54.03502
G0 F3600 X39.8 Y58.8
G1 F300 X39.556 Y58.741 E54.03974
G1 X39.404 Y58.65 E54.04307
G1 X39.243 Y58.38 E54.04899
G1 X39.2 Y58.2 E54.05247
G1 X39.2 Y57.8 E54.05999
G1 X39.259 Y57.556 E54.06471
G1 X39.35 Y57.404 E54.06805
G1 X39.62 Y57.243 E54.07396
G1 X39.8 Y57.2 E54.07744
G1 X59.8 Y57.2 E54.45365
G1 X60.044 Y57.259 E54.45837
G1 X60.196 Y57.35 E54.46171
G1 X60.357 Y57.62 E54.46762
G1 X60.4 Y57.8 E54.4711
G1 X60.4 Y58.2 E54.47862
G1 X60.341 Y58.444 E54.48335
G1 X60.25 Y58.596 E54.48668
G1 X59.98 Y58.757 E54.49259
G1 X59.8 Y58.8 E54.49607
G1 X39.8 Y58.8 E54.87228
;MESH:scaffold_rectangular.stl
G0 F3600 X39.8 Y58.865
G0 X59.6 Y58.865
G0 X59.6 Y58
;TYPE:WALL-OUTER
G1 F300 X40 Y58 E55.24097
G0 F3600 X40 Y58.865
G0 X59.6 Y59.135
G0 X59.6 Y60
G1 F300 X40 Y60 E55.60966
G0 F3600 X40 Y59.135
G0 X60.453 Y58.853
G0 X60.453 Y57.147
G0 X59.6 Y56.865
G0 X59.6 Y56
G1 F300 X40 Y56 E55.97835
G0 F3600 X40 Y55.135
G0 X59.6 Y54.865
G0 X59.6 Y54
G1 F300 X40 Y54 E56.34703
G0 F3600 X40 Y53.135
G0 X59.6 Y52.865
G0 X59.6 Y52
G1 F300 X40 Y52 E56.71572
G0 F3600 X40 Y51.135
G0 X59.6 Y50.865
G0 X59.6 Y50
G1 F300 X40 Y50 E57.08441
G0 F3600 X40 Y49.135
G0 X59.6 Y48.865
G0 X59.6 Y48
G1 F300 X40 Y48 E57.45309
G0 F3600 X40 Y47.135
G0 X59.6 Y46.865
G0 X59.6 Y46
G1 F300 X40 Y46 E57.82178
G0 F3600 X40 Y45.135
G0 X59.6 Y44.865
G0 X59.6 Y44
G1 F300 X40 Y44 E58.19047
G0 F3600 X40 Y43.135
G0 X59.6 Y42.865
G0 X59.6 Y42
G1 F300 X40 Y42 E58.55915
G0 F3600 X40 Y41.135
G0 X59.6 Y40.865
G0 X59.6 Y40
G1 F300 X40 Y40 E58.92784
;MESH:NONMESH
G0 F600 X40 Y40 Z0.5
G0 F3600 X40 Y40.865
G0 X39.147 Y41.147
G0 X39.147 Y58.853
G0 X40 Y59.135
G0 X40 Y59.6
;TIME_ELAPSED:633.348143
;LAYER:1
M106 S255
;TYPE:WALL-OUTER
;MESH:scaffold_rectangular.stl
G1 F300 X40 Y40 E59.17363
G0 F5400 X40.865 Y40
G0 X41.135 Y59.6
G0 X42 Y59.6
G1 F300 X42 Y40 E59.41942
G0 F5400 X42.865 Y40
G0 X43.135 Y59.6
G0 X44 Y59.6
G1 F300 X44 Y40 E59.66521
G0 F5400 X44.865 Y40
G0 X45.135 Y59.6
G0 X46 Y59.6
G1 F300 X46 Y40 E59.91101
G0 F5400 X46.865 Y40
G0 X47.135 Y59.6
G0 X48 Y59.6
G1 F300 X48 Y40 E60.1568
G0 F5400 X48.865 Y40
G0 X49.135 Y59.6
G0 X50 Y59.6
G1 F300 X50 Y40 E60.40259
G0 F5400 X50.865 Y40
G0 X51.135 Y59.6
G0 X52 Y59.6
G1 F300 X52 Y40 E60.64838
G0 F5400 X52.865 Y40
G0 X53.135 Y59.6
G0 X54 Y59.6
G1 F300 X54 Y40 E60.89417
G0 F5400 X54.865 Y40
G0 X55.135 Y59.6
G0 X56 Y59.6
G1 F300 X56 Y40 E61.13996
G0 F5400 X56.865 Y40
G0 X57.135 Y59.6
G0 X58 Y59.6
G1 F300 X58 Y40 E61.38575
G0 F5400 X58.865 Y40
G0 X59.135 Y59.6
G0 X60 Y59.6
G1 F300 X60 Y40 E61.63154
;MESH:NONMESH
G0 F600 X60 Y40 Z0.7
G0 F5400 X59.135 Y40
G0 X58.853 Y39.147
G0 X49.148 Y39.147
G0 X48.853 Y60.453
G0 X41.147 Y60.453
G0 X40.865 Y59.6
G0 X40 Y59.6
;TIME_ELAPSED:679.956546
;LAYER:2
;TYPE:WALL-OUTER
;MESH:scaffold_rectangular.stl
G1 F300 X40 Y40 E61.87734
G0 F7200 X40.865 Y40
G0 X41.135 Y59.6
G0 X42 Y59.6
G1 F300 X42 Y40 E62.12313
G0 F7200 X42.865 Y40
G0 X43.135 Y59.6
G0 X44 Y59.6
G1 F300 X44 Y40 E62.36892
G0 F7200 X44.865 Y40
G0 X45.135 Y59.6
G0 X46 Y59.6
G1 F300 X46 Y40 E62.61471
G0 F7200 X46.865 Y40
G0 X47.135 Y59.6
G0 X48 Y59.6
G1 F300 X48 Y40 E62.8605
G0 F7200 X48.865 Y40
G0 X49.135 Y59.6
G0 X50 Y59.6
G1 F300 X50 Y40 E63.10629
G0 F7200 X50.865 Y40
G0 X51.135 Y59.6
G0 X52 Y59.6
G1 F300 X52 Y40 E63.35208
G0 F7200 X52.865 Y40
G0 X53.135 Y59.6
G0 X54 Y59.6
G1 F300 X54 Y40 E63.59787
G0 F7200 X54.865 Y40
G0 X55.135 Y59.6
G0 X56 Y59.6
G1 F300 X56 Y40 E63.84367
G0 F7200 X56.865 Y40
G0 X57.135 Y59.6
G0 X58 Y59.6
G1 F300 X58 Y40 E64.08946
G0 F7200 X58.865 Y40
G0 X59.135 Y59.6
G0 X60 Y59.6
G1 F300 X60 Y40 E64.33525
;MESH:NONMESH
G0 F600 X60 Y40 Z0.9
G0 F7200 X59.6 Y40
;TIME_ELAPSED:725.538743
;LAYER:3
;TYPE:WALL-OUTER
;MESH:scaffold_rectangular.stl
G1 F300 X40 Y40 E64.58104
G0 F7200 X40 Y40.865
G0 X59.6 Y41.135
G0 X59.6 Y42
G1 F300 X40 Y42 E64.82683
G0 F7200 X40 Y42.865
G0 X59.6 Y43.135
G0 X59.6 Y44
G1 F300 X40 Y44 E65.07262
G0 F7200 X40 Y44.865
G0 X59.6 Y45.135
G0 X59.6 Y46
G1 F300 X40 Y46 E65.31841
G0 F7200 X40 Y46.865
G0 X59.6 Y47.135
G0 X59.6 Y48
G1 F300 X40 Y48 E65.5642
G0 F7200 X40 Y48.865
G0 X59.6 Y49.135
G0 X59.6 Y50
G1 F300 X40 Y50 E65.81
G0 F7200 X40 Y50.865
G0 X59.6 Y51.135
G0 X59.6 Y52
G1 F300 X40 Y52 E66.05579
G0 F7200 X40 Y52.865
G0 X59.6 Y53.135
G0 X59.6 Y54
G1 F300 X40 Y54 E66.30158
G0 F7200 X40 Y54.865
G0 X59.6 Y55.135
G0 X59.6 Y56
G1 F300 X40 Y56 E66.54737
G0 F7200 X40 Y56.865
G0 X59.6 Y57.135
G0 X59.6 Y58
G1 F300 X40 Y58 E66.79316
G0 F7200 X40 Y58.865
G0 X59.6 Y59.135
G0 X59.6 Y60
G1 F300 X40 Y60 E67.03895
;MESH:NONMESH
G0 F600 X40 Y60 Z1.1
G0 F7200 X40 Y59.135
G0 X39.145 Y58.853
G0 X39.15 Y49.147
G0 X60.453 Y48.853
G0 X60.453 Y41.147
G0 X59.6 Y40.865
G0 X59.6 Y40
;TIME_ELAPSED:771.589039
;LAYER:4
;TYPE:WALL-OUTER
;MESH:scaffold_rectangular.stl
G1 F300 X40 Y40 E67.28474
G0 F7200 X40 Y40.865
G0 X59.6 Y41.135
G0 X59.6 Y42
G1 F300 X40 Y42 E67.53054
G0 F7200 X40 Y42.865
G0 X59.6 Y43.135
G0 X59.6 Y44
G1 F300 X40 Y44 E67.77633
G0 F7200 X40 Y44.865
G0 X59.6 Y45.135
G0 X59.6 Y46
G1 F300 X40 Y46 E68.02212
G0 F7200 X40 Y46.865
G0 X59.6 Y47.135
G0 X59.6 Y48
G1 F300 X40 Y48 E68.26791
G0 F7200 X40 Y48.865
G0 X59.6 Y49.135
G0 X59.6 Y50
G1 F300 X40 Y50 E68.5137
G0 F7200 X40 Y50.865
G0 X59.6 Y51.135
G0 X59.6 Y52
G1 F300 X40 Y52 E68.75949
G0 F7200 X40 Y52.865
G0 X59.6 Y53.135
G0 X59.6 Y54
G1 F300 X40 Y54 E69.00528
G0 F7200 X40 Y54.865
G0 X59.6 Y55.135
G0 X59.6 Y56
G1 F300 X40 Y56 E69.25107
G0 F7200 X40 Y56.865
G0 X59.6 Y57.135
G0 X59.6 Y58
G1 F300 X40 Y58 E69.49687
G0 F7200 X40 Y58.865
G0 X59.6 Y59.135
G0 X59.6 Y60
G1 F300 X40 Y60 E69.74266
;MESH:NONMESH
G0 F600 X40 Y60 Z1.3
G0 F7200 X40 Y59.6
;TIME_ELAPSED:817.171236
;LAYER:5
;TYPE:WALL-OUTER
;MESH:scaffold_rectangular.stl
G1 F300 X40 Y40 E69.98845
G0 F7200 X40.865 Y40
G0 X41.135 Y59.6
G0 X42 Y59.6
G1 F300 X42 Y40 E70.23424
G0 F7200 X42.865 Y40
G0 X43.135 Y59.6
G0 X44 Y59.6
G1 F300 X44 Y40 E70.48003
G0 F7200 X44.865 Y40
G0 X45.135 Y59.6
G0 X46 Y59.6
G1 F300 X46 Y40 E70.72582
G0 F7200 X46.865 Y40
G0 X47.135 Y59.6
G0 X48 Y59.6
G1 F300 X48 Y40 E70.97161
G0 F7200 X48.865 Y40
G0 X49.135 Y59.6
G0 X50 Y59.6
G1 F300 X50 Y40 E71.2174
G0 F7200 X50.865 Y40
G0 X51.135 Y59.6
G0 X52 Y59.6
G1 F300 X52 Y40 E71.4632
G0 F7200 X52.865 Y40
G0 X53.135 Y59.6
G0 X54 Y59.6
G1 F300 X54 Y40 E71.70899
G0 F7200 X54.865 Y40
G0 X55.135 Y59.6
G0 X56 Y59.6
G1 F300 X56 Y40 E71.95478
G0 F7200 X56.865 Y40
G0 X57.135 Y59.6
G0 X58 Y59.6
G1 F300 X58 Y40 E72.20057
G0 F7200 X58.865 Y40
G0 X59.135 Y59.6
G0 X60 Y59.6
G1 F300 X60 Y40 E72.44636
;MESH:NONMESH
G0 F600 X60 Y40 Z1.5
G0 F7200 X59.135 Y40
G0 X58.853 Y39.147
G0 X49.148 Y39.147
G0 X48.853 Y60.453
G0 X41.147 Y60.453
G0 X40.865 Y59.6
G0 X40 Y59.6
;TIME_ELAPSED:863.221511
;LAYER:6
;TYPE:WALL-OUTER
;MESH:scaffold_rectangular.stl
G1 F300 X40 Y40 E72.69215
G0 F7200 X40.865 Y40
G0 X41.135 Y59.6
G0 X42 Y59.6
G1 F300 X42 Y40 E72.93794
G0 F7200 X42.865 Y40
G0 X43.135 Y59.6
G0 X44 Y59.6
G1 F300 X44 Y40 E73.18373
G0 F7200 X44.865 Y40
G0 X45.135 Y59.6
G0 X46 Y59.6
G1 F300 X46 Y40 E73.42953
G0 F7200 X46.865 Y40
G0 X47.135 Y59.6
G0 X48 Y59.6
G1 F300 X48 Y40 E73.67532
G0 F7200 X48.865 Y40
G0 X49.135 Y59.6
G0 X50 Y59.6
G1 F300 X50 Y40 E73.92111
G0 F7200 X50.865 Y40
G0 X51.135 Y59.6
G0 X52 Y59.6
G1 F300 X52 Y40 E74.1669
G0 F7200 X52.865 Y40
G0 X53.135 Y59.6
G0 X54 Y59.6
G1 F300 X54 Y40 E74.41269
G0 F7200 X54.865 Y40
G0 X55.135 Y59.6
G0 X56 Y59.6
G1 F300 X56 Y40 E74.65848
G0 F7200 X56.865 Y40
G0 X57.135 Y59.6
G0 X58 Y59.6
G1 F300 X58 Y40 E74.90427
G0 F7200 X58.865 Y40
G0 X59.135 Y59.6
G0 X60 Y59.6
G1 F300 X60 Y40 E75.15006
;TIME_ELAPSED:908.724504
M107
M104 S0
M140 S0
;Retract the filament
G92 E1
G1 E-1 F300
G28 X0 Y0
M84
M82 ;absolute extrusion mode
M104 S0
;End of Gcode
;SETTING_3 {"global_quality": "[general]\\nversion = 4\\nname = Fine #2\\ndefini
;SETTING_3 tion = custom\\n\\n[metadata]\\ntype = quality_changes\\nquality_type
;SETTING_3  = normal\\nsetting_version = 23\\n\\n[values]\\ninfill_sparse_densit
;SETTING_3 y = 30\\nlayer_height = 0.2\\nmaterial_print_temperature = 25\\nretra
;SETTING_3 ction_enable = False\\nspeed_print = 10\\n\\n", "extruder_quality": [
;SETTING_3 "[general]\\nversion = 4\\nname = Fine #2\\ndefinition = fdmprinter\\
;SETTING_3 n\\n[metadata]\\ntype = quality_changes\\nquality_type = normal\\nset
;SETTING_3 ting_version = 23\\nposition = 0\\n\\n[values]\\n\\n"]}
